%
(Header)
(Generated by gcodetools from Inkscape.)
(Using default header. To add your own header create file "header" in the output dir.)
M3
(Header end.)
G21 (All units in mm)

(Start cutting path id: path12-7)
(Change tool to Default tool)

(G00 Z5.000000)
G00 X97.163115 Y153.412502
S1000
(G01 Z-0.125000 F10000.0(Penetrate))
G02 X91.568182 Y140.170363 Z-0.125000 I-18.468271 J-0.000001 F10000.000000
G02 X77.764234 Y134.553888 Z-0.125000 I-13.834910 J14.231257
G02 X63.941537 Y140.127041 Z-0.125000 I-0.030969 J19.851497
G02 X58.302994 Y153.351877 Z-0.125000 I12.833219 J13.286016
G02 X63.854264 Y166.611184 Z-0.125000 I18.464606 J0.061157
G02 X77.639312 Y172.270919 Z-0.125000 I13.877921 J-14.184011
G02 X91.480614 Y166.741151 Z-0.125000 I0.092928 J-19.855040
G02 X97.162714 Y153.533750 Z-0.125000 I-12.792978 J-13.329786
(G00 Z5.000000)
S0
(End cutting path id: path12-7)


(Start cutting path id: path4-7)
(Change tool to Default tool)

(G00 Z5.000000)
G00 X53.567826 Y130.635187
S1000
(G01 Z-0.125000 F10000.0(Penetrate))
G02 X47.471602 Y116.181871 Z-0.125000 I-20.181530 J-0.000001 F10000.000000
G02 X32.457281 Y110.062157 Z-0.125000 I-15.048042 J15.441204
G02 X17.422597 Y116.134654 Z-0.125000 I-0.033725 J21.564676
G02 X11.278871 Y130.569052 Z-0.125000 I14.041294 J14.501088
G02 X17.327535 Y145.041143 Z-0.125000 I20.177849 J0.066669
G02 X32.321334 Y151.208006 Z-0.125000 I15.094940 J-15.390059
G02 X47.376220 Y145.182793 Z-0.125000 I0.101191 J-21.568193
G02 X53.567389 Y130.767459 Z-0.125000 I-13.997148 J-14.548738
(G00 Z5.000000)
S0
(End cutting path id: path4-7)


(Start cutting path id: path5-88)
(Change tool to Default tool)

(G00 Z5.000000)
G00 X44.914079 Y91.938245
S1000
(G01 Z-0.125000 F10000.0(Penetrate))
G02 X41.933054 Y84.481222 Z-0.125000 I-10.817372 J-0.000000 F10000.000000
G02 X34.970115 Y81.488451 Z-0.125000 I-6.979186 J6.641353
G02 X27.998232 Y84.457914 Z-0.125000 I-0.016241 J9.631104
G02 X24.994186 Y91.904653 Z-0.125000 I7.809985 J7.479872
G02 X27.952153 Y99.371878 Z-0.125000 I10.820586 J0.033155
G02 X34.906078 Y102.387932 Z-0.125000 I7.002683 J-6.621005
G02 X41.886839 Y99.441804 Z-0.125000 I0.048710 J-9.627999
G02 X44.913872 Y92.005432 Z-0.125000 I-7.783530 J-7.502621
(G00 Z5.000000)
S0
(End cutting path id: path5-88)


(Start cutting path id: path6-3)
(Change tool to Default tool)

(G00 Z5.000000)
G00 X51.608487 Y37.893151
S1000
(G01 Z-0.125000 F10000.0(Penetrate))
G02 X46.429862 Y25.457805 Z-0.125000 I-17.519706 J-0.000001 F10000.000000
G02 X33.839765 Y20.259122 Z-0.125000 I-12.618626 J12.715010
G02 X21.232803 Y25.417612 Z-0.125000 I-0.028531 J17.914750
G02 X16.013922 Y37.836462 Z-0.125000 I12.301777 J12.475696
G02 X21.152239 Y50.288177 Z-0.125000 I17.518578 J0.056839
G02 X33.725340 Y55.526997 Z-0.125000 I12.658683 J-12.673626
G02 X46.349034 Y50.408754 Z-0.125000 I0.085597 J-17.915617
G02 X51.608118 Y38.006526 Z-0.125000 I-12.262350 J-12.515924
(G00 Z5.000000)
S0
(End cutting path id: path6-3)


(Start cutting path id: path7-6)
(Change tool to Default tool)

(G00 Z5.000000)
G00 X58.629453 Y22.626637
S1000
(G01 Z-0.125000 F10000.0(Penetrate))
G02 X55.550846 Y15.185768 Z-0.125000 I-10.531446 J0.000000 F10000.000000
G02 X48.114935 Y12.095205 Z-0.125000 I-7.452839 J7.440869
G02 X40.669127 Y15.161847 Z-0.125000 I-0.016928 J10.531432
G02 X37.566616 Y22.592781 Z-0.125000 I7.428880 J7.464790
G02 X40.621286 Y30.043509 Z-0.125000 I10.531391 J0.033855
G02 X48.047224 Y33.157960 Z-0.125000 I7.476721 J-7.416872
G02 X55.502852 Y30.115269 Z-0.125000 I0.050783 J-10.531323
G02 X58.629235 Y22.694346 Z-0.125000 I-7.404845 J-7.488632
(G00 Z5.000000)
S0
(End cutting path id: path7-6)


(Start cutting path id: path15-5)
(Change tool to Default tool)

(G00 Z5.000000)
G00 X108.102755 Y70.630428
S1000
(G01 Z-0.125000 F10000.0(Penetrate))
G02 X100.346899 Y52.046894 Z-0.125000 I-26.141598 J-0.000001 F10000.000000
G02 X81.449674 Y44.261024 Z-0.125000 I-18.939981 J19.143734
G02 X62.527082 Y51.986721 Z-0.125000 I-0.042758 J26.931724
G02 X54.710912 Y70.545657 Z-0.125000 I18.327372 J18.644021
G02 X62.406377 Y89.153597 Z-0.125000 I26.139392 J0.085072
G02 X81.278036 Y96.999558 Z-0.125000 I18.999916 J-19.081237
G02 X100.225797 Y89.334117 Z-0.125000 I0.128286 J-26.933555
G02 X108.102204 Y70.799965 Z-0.125000 I-18.268820 J-18.704333
(G00 Z5.000000)
S0
(End cutting path id: path15-5)


(Start cutting path id: path8-65)
(Change tool to Default tool)

(G00 Z5.000000)
G00 X147.452817 Y36.668562
S1000
(G01 Z-0.125000 F10000.0(Penetrate))
G02 X142.014797 Y23.106092 Z-0.125000 I-19.631469 J-0.000001 F10000.000000
G02 X129.276557 Y17.646670 Z-0.125000 I-12.767899 J12.200293
G02 X116.521899 Y23.063596 Z-0.125000 I-0.029651 J17.654663
G02 X111.041863 Y36.607413 Z-0.125000 I14.145877 J13.604199
G02 X116.437807 Y50.188390 Z-0.125000 I19.636799 J0.060417
G02 X129.159506 Y55.690256 Z-0.125000 I12.810698 J-12.162739
G02 X141.930454 Y50.315875 Z-0.125000 I0.088925 J-17.649453
G02 X147.452441 Y36.790861 Z-0.125000 I-14.098140 J-13.645747
(G00 Z5.000000)
S0
(End cutting path id: path8-65)


(Start cutting path id: path9-2)
(Change tool to Default tool)

(G00 Z5.000000)
G00 X160.515071 Y28.423003
S1000
(G01 Z-0.125000 F10000.0(Penetrate))
G02 X157.690082 Y21.299202 Z-0.125000 I-10.394569 J-0.000001 F10000.000000
G02 X151.141663 Y18.463043 Z-0.125000 I-6.563788 J6.177241
G02 X144.584903 Y21.277079 Z-0.125000 I-0.015364 J9.009910
G02 X141.738122 Y28.390986 Z-0.125000 I7.543865 J7.145392
G02 X144.541285 Y35.524601 Z-0.125000 I10.398367 J0.031509
G02 X151.081301 Y38.382860 Z-0.125000 I6.586142 J-6.158554
G02 X157.646337 Y35.590972 Z-0.125000 I0.046073 J-9.006343
G02 X160.514877 Y28.487039 Z-0.125000 I-7.518058 J-7.166882
(G00 Z5.000000)
S0
(End cutting path id: path9-2)


(Start cutting path id: path10-3)
(Change tool to Default tool)

(G00 Z5.000000)
G00 X163.617351 Y45.648863
S1000
(G01 Z-0.125000 F10000.0(Penetrate))
G02 X160.395554 Y37.861905 Z-0.125000 I-11.021281 J-0.000001 F10000.000000
G02 X152.613785 Y34.627595 Z-0.125000 I-7.799484 J7.786957
G02 X144.821661 Y37.836873 Z-0.125000 I-0.017714 J11.021267
G02 X141.574847 Y45.613432 Z-0.125000 I7.774411 J7.811989
G02 X144.771595 Y53.410706 Z-0.125000 I11.021224 J0.035431
G02 X152.542926 Y56.670016 Z-0.125000 I7.824476 J-7.761843
G02 X160.345328 Y53.485804 Z-0.125000 I0.053145 J-11.021153
G02 X163.617124 Y45.719722 Z-0.125000 I-7.749257 J-7.836941
(G00 Z5.000000)
S0
(End cutting path id: path10-3)


(Start cutting path id: path11-2)
(Change tool to Default tool)

(G00 Z5.000000)
G00 X167.536029 Y86.468421
S1000
(G01 Z-0.125000 F10000.0(Penetrate))
G02 X162.263848 Y74.045198 Z-0.125000 I-17.272962 J-0.000000 F10000.000000
G02 X149.196751 Y68.752755 Z-0.125000 I-13.096317 J13.557322
G02 X136.111830 Y74.004403 Z-0.125000 I-0.029227 J18.854091
G02 X130.798520 Y86.411471 Z-0.125000 I11.963640 J12.464656
G02 X136.029521 Y98.850726 Z-0.125000 I17.268816 J0.057562
G02 X149.078651 Y104.183906 Z-0.125000 I13.136773 J-13.512045
G02 X162.181258 Y98.973113 Z-0.125000 I0.087704 J-18.858203
G02 X167.535649 Y86.582322 Z-0.125000 I-11.926386 J-12.505993
(G00 Z5.000000)
S0
(End cutting path id: path11-2)


(Start cutting path id: path13-8)
(Change tool to Default tool)

(G00 Z5.000000)
G00 X148.269206 Y119.124072
S1000
(G01 Z-0.125000 F10000.0(Penetrate))
G02 X136.348560 Y90.353116 Z-0.125000 I-40.680249 J0.000000 F10000.000000
G02 X107.515255 Y78.386202 Z-0.125000 I-28.898878 J28.910286
G02 X78.643520 Y90.260517 Z-0.125000 I-0.065574 J40.877725
G02 X66.630291 Y118.993112 Z-0.125000 I28.667335 J28.863633
G02 X78.458233 Y147.802131 Z-0.125000 I40.679516 J0.131033
G02 X107.252809 Y159.861519 Z-0.125000 I28.991291 J-28.816862
G02 X136.162674 Y148.079926 Z-0.125000 I0.196723 J-40.877825
G02 X148.268362 Y119.385990 Z-0.125000 I-28.574772 J-28.956016
(G00 Z5.000000)
S0
(End cutting path id: path13-8)


(Start cutting path id: path14-3)
(Change tool to Default tool)

(G00 Z5.000000)
G00 X173.087492 Y134.880425
S1000
(G01 Z-0.125000 F10000.0(Penetrate))
G02 X169.973135 Y127.393779 Z-0.125000 I-10.555806 J0.000000 F10000.000000
G02 X162.409959 Y124.267353 Z-0.125000 I-7.580329 J7.626370
G02 X154.836661 Y127.369602 Z-0.125000 I-0.017154 J10.753323
G02 X151.698098 Y134.846307 Z-0.125000 I7.417711 J7.510902
G02 X154.788219 Y142.342820 Z-0.125000 I10.555232 J0.034195
G02 X162.341197 Y145.493389 Z-0.125000 I7.604430 J-7.601586
G02 X169.924537 Y142.415348 Z-0.125000 I0.051461 J-10.753737
G02 X173.087273 Y134.948661 Z-0.125000 I-7.393899 J-7.535083
(G00 Z5.000000)
S0
(End cutting path id: path14-3)


(Footer)
M5
G00 X0.0000 Y0.0000
M2
(Using default footer. To add your own footer create file "footer" in the output dir.)
(end)
%