%
(Header)
(Generated by gcodetools from Inkscape.)
(Using default header. To add your own header create file "header" in the output dir.)
M3
(Header end.)
G21 (All units in mm)

(Start cutting path id: path49085)
(Change tool to Default tool)

(G00 Z5.000000)
G00 X94.715010 Y50.793843
S1000
(G01 Z-0.125000 F10000.0(Penetrate))
G03 X97.916272 Y39.554285 Z-0.125000 I156.974958 J38.634078 F10000.000000
G03 X101.571011 Y32.171636 Z-0.125000 I26.922113 J8.731686
(G00 Z5.000000)
S0
(End cutting path id: path49085)


(Start cutting path id: path49081)
(Change tool to Default tool)

(G00 Z5.000000)
G00 X92.209421 Y24.738300
S1000
(G01 Z-0.125000 F10000.0(Penetrate))
G02 X110.322306 Y35.230167 Z-0.125000 I23.905306 J-20.388755 F10000.000000
G02 X128.542926 Y33.898040 Z-0.125000 I6.590304 J-35.134306
(G00 Z5.000000)
S0
(End cutting path id: path49081)


(Start cutting path id: path49013)
(Change tool to Default tool)

(G00 Z5.000000)
G00 X93.379935 Y43.847295
S1000
(G01 Z-0.125000 F10000.0(Penetrate))
G01 X98.423776 Y28.860836 Z-0.125000 F10000.000000
(G00 Z5.000000)
S0
(End cutting path id: path49013)


(Start cutting path id: path48973)
(Change tool to Default tool)

(G00 Z5.000000)
G00 X85.830328 Y26.489759
S1000
(G01 Z-0.125000 F10000.0(Penetrate))
G03 X81.354698 Y34.323783 Z-0.125000 I-60.408090 J-29.316058 F10000.000000
G03 X79.738648 Y36.294804 Z-0.125000 I-10.583936 J-7.029802
G03 X78.635666 Y37.265480 Z-0.125000 I-8.384176 J-8.414969
G03 X77.859167 Y37.420277 Z-0.125000 I-0.543287 J-0.700311
G03 X69.060543 Y50.786417 Z-0.125000 I-12.585374 J1.294373
G03 X55.971743 Y51.228523 Z-0.125000 I-7.342500 J-23.407134
G03 X46.788910 Y44.830953 Z-0.125000 I12.095159 J-27.150072
G03 X40.716056 Y36.028748 Z-0.125000 I22.762700 J-22.200543
G02 X52.432350 Y34.144683 Z-0.125000 I3.951860 J-12.796514
G03 X63.355654 Y31.425999 Z-0.125000 I8.920267 J12.536903
G03 X71.205220 Y32.912443 Z-0.125000 I-9.192642 J70.013273
G03 X75.183153 Y35.600584 Z-0.125000 I-1.687141 J6.784005
G02 X82.325746 Y28.279980 Z-0.125000 I-14.662552 J-21.450769
G02 X86.299113 Y19.120890 Z-0.125000 I-25.403007 J-16.461651
(G00 Z5.000000)
S0
(End cutting path id: path48973)


(Start cutting path id: path49079)
(Change tool to Default tool)

(G00 Z5.000000)
G00 X86.362266 Y17.785084
S1000
(G01 Z-0.125000 F10000.0(Penetrate))
G03 X69.975992 Y25.236426 Z-0.125000 I-16.644768 J-14.860341 F10000.000000
G03 X54.845425 Y21.257138 Z-0.125000 I-0.341284 J-29.457671
(G00 Z5.000000)
S0
(End cutting path id: path49079)


(Start cutting path id: path49077)
(Change tool to Default tool)

(G00 Z5.000000)
G00 X59.127050 Y11.777173
S1000
(G01 Z-0.125000 F10000.0(Penetrate))
G02 X78.499039 Y17.793431 Z-0.125000 I17.630162 J-22.571610 F10000.000000
G02 X91.216625 Y11.982143 Z-0.125000 I-1.182595 J-19.409427
(G00 Z5.000000)
S0
(End cutting path id: path49077)


(Start cutting path id: path49083)
(Change tool to Default tool)

(G00 Z5.000000)
G00 X91.216625 Y11.982145
S1000
(G01 Z-0.125000 F10000.0(Penetrate))
G02 X115.590418 Y22.771924 Z-0.125000 I25.002175 J-23.554446 F10000.000000
G02 X139.674387 Y17.271757 Z-0.125000 I0.939787 J-51.364057
(G00 Z5.000000)
S0
(End cutting path id: path49083)


(Start cutting path id: path49067)
(Change tool to Default tool)

(G00 Z5.000000)
G00 X127.886836 Y72.850737
S1000
(G01 Z-0.125000 F10000.0(Penetrate))
G03 X119.792764 Y77.182711 Z-0.125000 I-17.602824 J-23.162307 F10000.000000
G03 X112.005142 Y78.255050 Z-0.125000 I-6.592400 J-19.061733
(G00 Z5.000000)
S0
(End cutting path id: path49067)


(Start cutting path id: path49061)
(Change tool to Default tool)

(G00 Z5.000000)
G00 X112.005145 Y78.255045
S1000
(G01 Z-0.125000 F10000.0(Penetrate))
G02 X131.712341 Y82.667848 Z-0.125000 I37.918893 J-123.130769 F10000.000000
G02 X145.294790 Y80.985832 Z-0.125000 I3.692732 J-25.861634
(G00 Z5.000000)
S0
(End cutting path id: path49061)


(Start cutting path id: path49073)
(Change tool to Default tool)

(G00 Z5.000000)
G00 X129.703762 Y91.968689
S1000
(G01 Z-0.125000 F10000.0(Penetrate))
G03 X133.858677 Y94.306258 Z-0.125000 I-7.710958 J18.567218 F10000.000000
G03 X135.661128 Y96.881372 Z-0.125000 I-2.872635 J3.929070
(G00 Z5.000000)
S0
(End cutting path id: path49073)


(Start cutting path id: path49075)
(Change tool to Default tool)

(G00 Z5.000000)
G00 X127.886836 Y91.903980
S1000
(G01 Z-0.125000 F10000.0(Penetrate))
G02 X128.593217 Y94.518729 Z-0.125000 I5.192585 J0.000000 F10000.000000
G02 X130.099648 Y95.851880 Z-0.125000 I2.773886 J-1.616738
(G00 Z5.000000)
S0
(End cutting path id: path49075)


(Start cutting path id: path49069)
(Change tool to Default tool)

(G00 Z5.000000)
G00 X118.729458 Y89.906065
S1000
(G01 Z-0.125000 F10000.0(Penetrate))
G02 X124.909156 Y97.125134 Z-0.125000 I14.872867 J-6.477014 F10000.000000
G02 X131.807669 Y98.840408 Z-0.125000 I6.021265 J-9.486501
G03 X137.899448 Y101.715249 Z-0.125000 I-2.596608 J13.393854
G03 X141.227249 Y106.295279 Z-0.125000 I-7.227687 J8.750547
G02 X140.321804 Y97.883167 Z-0.125000 I-15.814902 J-2.552534
G02 X135.821696 Y90.710095 Z-0.125000 I-21.327596 J8.381976
(G00 Z5.000000)
S0
(End cutting path id: path49069)


(Start cutting path id: path49063)
(Change tool to Default tool)

(G00 Z5.000000)
G00 X123.063216 Y81.025282
S1000
(G01 Z-0.125000 F10000.0(Penetrate))
G02 X127.440099 Y85.899012 Z-0.125000 I11.173299 J-5.632041 F10000.000000
G02 X133.268965 Y88.171167 Z-0.125000 I8.447326 J-13.057717
(G00 Z5.000000)
S0
(End cutting path id: path49063)


(Start cutting path id: path49065)
(Change tool to Default tool)

(G00 Z5.000000)
G00 X114.252999 Y78.897289
S1000
(G01 Z-0.125000 F10000.0(Penetrate))
G02 X116.407575 Y83.097013 Z-0.125000 I6.902551 J-0.888660 F10000.000000
G02 X121.638804 Y86.936923 Z-0.125000 I18.866548 J-20.219199
(G00 Z5.000000)
S0
(End cutting path id: path49065)


(Start cutting path id: path49047)
(Change tool to Default tool)

(G00 Z5.000000)
G00 X102.831062 Y91.712950
S1000
(G01 Z-0.125000 F10000.0(Penetrate))
G02 X99.970460 Y104.066141 Z-0.125000 I142.257567 J39.450084 F10000.000000
G02 X98.650846 Y115.070817 Z-0.125000 I83.543494 J15.599488
(G00 Z5.000000)
S0
(End cutting path id: path49047)


(Start cutting path id: path49049)
(Change tool to Default tool)

(G00 Z5.000000)
G00 X100.906133 Y99.625004
S1000
(G01 Z-0.125000 F10000.0(Penetrate))
G02 X96.626827 Y103.470487 Z-0.125000 I11.561360 J17.169412 F10000.000000
G02 X95.093453 Y107.161297 Z-0.125000 I5.083657 J4.275974
(G00 Z5.000000)
S0
(End cutting path id: path49049)


(Start cutting path id: path49051)
(Change tool to Default tool)

(G00 Z5.000000)
G00 X101.858079 Y95.441661
S1000
(G01 Z-0.125000 F10000.0(Penetrate))
G02 X102.920880 Y99.905883 Z-0.125000 I27.864011 J-4.274984 F10000.000000
G02 X104.672858 Y101.617921 Z-0.125000 I2.513351 J-0.819541
(G00 Z5.000000)
S0
(End cutting path id: path49051)


(Start cutting path id: path49045)
(Change tool to Default tool)

(G00 Z5.000000)
G00 X101.461400 Y88.424145
S1000
(G01 Z-0.125000 F10000.0(Penetrate))
G02 X100.906703 Y90.122257 Z-0.125000 I45.164164 J15.692759 F10000.000000
G02 X100.391700 Y91.909929 Z-0.125000 I53.730337 J16.446978
G02 X92.580091 Y102.410869 Z-0.125000 I8.117236 J14.194364
G02 X93.031122 Y111.147401 Z-0.125000 I15.449625 J3.582307
G02 X99.238590 Y122.077357 Z-0.125000 I32.225555 J-11.074224
G03 X100.770144 Y123.937285 Z-0.125000 I-70.048406 J59.241776
G03 X101.496006 Y116.197595 Z-0.125000 I6.607970 J-3.284158
G02 X104.327538 Y111.437736 Z-0.125000 I-19.816968 J-15.010799
G02 X106.201299 Y105.491521 Z-0.125000 I-23.771220 J-10.759081
G02 X106.486856 Y99.771809 Z-0.125000 I-20.813300 J-3.906090
(G00 Z5.000000)
S0
(End cutting path id: path49045)


(Start cutting path id: path49017)
(Change tool to Default tool)

(G00 Z5.000000)
G00 X119.086924 Y115.827708
S1000
(G01 Z-0.125000 F10000.0(Penetrate))
G03 X99.057631 Y71.458423 Z-0.125000 I164.602011 J-101.010527 F10000.000000
G03 X93.257487 Y44.210377 Z-0.125000 I151.639713 J-46.520072
G03 X92.026752 Y27.602886 Z-0.125000 I172.858596 J-21.159416
G03 X93.005424 Y14.272734 Z-0.125000 I67.302787 J-1.759770
(G00 Z5.000000)
S0
(End cutting path id: path49017)


(Start cutting path id: path48977)
(Change tool to Default tool)

(G00 Z5.000000)
G00 X75.718355 Y38.276602
S1000
(G01 Z-0.125000 F10000.0(Penetrate))
G03 X69.675854 Y38.379874 Z-0.125000 I-3.222782 J-11.740096 F10000.000000
G03 X63.166620 Y35.863768 Z-0.125000 I5.999281 J-25.198141
(G00 Z5.000000)
S0
(End cutting path id: path48977)


(Start cutting path id: path48975)
(Change tool to Default tool)

(G00 Z5.000000)
G00 X50.028594 Y41.701906
S1000
(G01 Z-0.125000 F10000.0(Penetrate))
G02 X62.343791 Y43.012391 Z-0.125000 I9.037853 J-26.411769 F10000.000000
G02 X75.718355 Y38.276602 Z-0.125000 I-3.772003 J-31.906452
G03 X75.201625 Y42.488761 Z-0.125000 I-9.810172 J0.934305
G03 X73.256420 Y45.448327 Z-0.125000 I-6.957835 J-2.454071
(G00 Z5.000000)
S0
(End cutting path id: path48975)


(Start cutting path id: path48979)
(Change tool to Default tool)

(G00 Z5.000000)
G00 X75.922394 Y46.683607
S1000
(G01 Z-0.125000 F10000.0(Penetrate))
G03 X69.213924 Y62.401744 Z-0.125000 I-24.726875 J-1.262733 F10000.000000
G03 X62.071539 Y65.966633 Z-0.125000 I-8.422679 J-7.937685
G03 X49.729100 Y64.142926 Z-0.125000 I-2.709307 J-24.341292
G03 X47.994821 Y63.319657 Z-0.125000 I9.692302 J-22.655898
G02 X55.359135 Y59.256662 Z-0.125000 I-0.400186 J-9.430879
G02 X58.339575 Y51.656488 Z-0.125000 I-14.654877 J-10.131455
(G00 Z5.000000)
S0
(End cutting path id: path48979)


(Start cutting path id: path48983)
(Change tool to Default tool)

(G00 Z5.000000)
G00 X66.640642 Y53.768502
S1000
(G01 Z-0.125000 F10000.0(Penetrate))
G03 X65.909378 Y58.179088 Z-0.125000 I-8.684391 J0.826064 F10000.000000
G03 X63.622761 Y60.808664 Z-0.125000 I-5.512405 J-2.484474
(G00 Z5.000000)
S0
(End cutting path id: path48983)


(Start cutting path id: path48981)
(Change tool to Default tool)

(G00 Z5.000000)
G00 X70.413084 Y50.961150
S1000
(G01 Z-0.125000 F10000.0(Penetrate))
G01 X57.467922 Y60.594585 Z-0.125000 F10000.000000
(G00 Z5.000000)
S0
(End cutting path id: path48981)


(Start cutting path id: path48913)
(Change tool to Default tool)

(G00 Z5.000000)
G00 X67.699616 Y79.487260
S1000
(G01 Z-0.125000 F10000.0(Penetrate))
G03 X57.438014 Y87.519348 Z-0.125000 I-119.922659 J-142.639270 F10000.000000
G03 X49.493388 Y91.368774 Z-0.125000 I-14.673642 J-20.161192
G02 X41.890246 Y96.514231 Z-0.125000 I27.495773 J48.818992
G02 X37.932998 Y101.644680 Z-0.125000 I8.650367 J10.763641
(G00 Z5.000000)
S0
(End cutting path id: path48913)


(Start cutting path id: path48915)
(Change tool to Default tool)

(G00 Z5.000000)
G00 X49.653953 Y98.915142
S1000
(G01 Z-0.125000 F10000.0(Penetrate))
G02 X53.264630 Y95.149637 Z-0.125000 I-4.248383 J-7.687559 F10000.000000
G02 X55.971743 Y87.889956 Z-0.125000 I-32.774646 J-16.356144
G02 X47.698235 Y86.955635 Z-0.125000 I-8.619562 J39.228566
G02 X42.963911 Y88.799798 Z-0.125000 I-0.059001 J6.847580
(G00 Z5.000000)
S0
(End cutting path id: path48915)


(Start cutting path id: path48917)
(Change tool to Default tool)

(G00 Z5.000000)
G00 X63.569240 Y91.315253
S1000
(G01 Z-0.125000 F10000.0(Penetrate))
G02 X67.267621 Y84.021254 Z-0.125000 I-52.956491 J-31.435911 F10000.000000
G02 X67.699616 Y79.487260 Z-0.125000 I-6.914380 J-2.946373
G03 X59.547612 Y80.036758 Z-0.125000 I-8.450873 J-64.628169
G03 X52.781352 Y79.326707 Z-0.125000 I-0.143200 J-31.229157
(G00 Z5.000000)
S0
(End cutting path id: path48917)


(Start cutting path id: path48909)
(Change tool to Default tool)

(G00 Z5.000000)
G00 X76.480833 Y71.650973
S1000
(G01 Z-0.125000 F10000.0(Penetrate))
G01 X71.582318 Y77.074849 Z-0.125000 F10000.000000
G03 X66.863886 Y95.077600 Z-0.125000 I-23.817895 J3.377163
G03 X54.826808 Y103.490370 Z-0.125000 I-19.273365 J-14.758755
G02 X39.903284 Y104.622907 Z-0.125000 I10.454328 J236.648036
G02 X33.179700 Y108.864302 Z-0.125000 I0.968133 J8.984621
G03 X44.513336 Y80.565882 Z-0.125000 I58.374341 J6.960375
G03 X53.436020 Y74.473029 Z-0.125000 I13.400016 J10.043820
G03 X61.868669 Y73.714731 Z-0.125000 I6.288473 J22.664173
G03 X69.434822 Y75.788129 Z-0.125000 I-2.040213 J22.286792
G01 X78.166297 Y63.498475 Z-0.125000
G01 X78.166297 Y63.498475 Z-0.125000
(G00 Z5.000000)
S0
(End cutting path id: path48909)


(Start cutting path id: path49059)
(Change tool to Default tool)

(G00 Z5.000000)
G00 X98.806064 Y70.731865
S1000
(G01 Z-0.125000 F10000.0(Penetrate))
G03 X105.078613 Y77.064233 Z-0.125000 I-127.837611 J132.902828 F10000.000000
G02 X109.329128 Y78.897289 Z-0.125000 I4.250515 J-4.011550
G02 X120.651774 Y90.586712 Z-0.125000 I18.948905 J-7.025947
G02 X133.268965 Y91.506975 Z-0.125000 I7.724849 J-18.957318
G02 X144.796860 Y86.300984 Z-0.125000 I-21.538973 J-63.061277
G02 X152.252438 Y79.915422 Z-0.125000 I-12.962584 J-22.679923
G03 X147.803754 Y77.625586 Z-0.125000 I14.980435 J-34.570280
G03 X137.052662 Y71.031048 Z-0.125000 I387.268607 J-643.426105
G02 X125.844615 Y69.198433 Z-0.125000 I-8.665919 J17.809862
G02 X116.871882 Y72.850739 Z-0.125000 I2.437916 J18.837249
G03 X113.515343 Y75.277309 Z-0.125000 I-8.838537 J-8.691113
G03 X110.827697 Y75.526755 Z-0.125000 I-1.669674 J-3.386159
G03 X103.571793 Y70.731196 Z-0.125000 I11.719138 J-25.618642
G03 X96.485065 Y63.052056 Z-0.125000 I40.733521 J-44.700689
(G00 Z5.000000)
S0
(End cutting path id: path49059)


(Start cutting path id: path49037)
(Change tool to Default tool)

(G00 Z5.000000)
G00 X116.210737 Y117.795627
S1000
(G01 Z-0.125000 F10000.0(Penetrate))
G02 X114.779720 Y122.361063 Z-0.125000 I2.420852 J3.265797 F10000.000000
G02 X117.590287 Y126.583011 Z-0.125000 I9.279573 J-3.130970
G02 X124.172458 Y131.132551 Z-0.125000 I22.687355 J-25.787315
G03 X125.498032 Y132.112760 Z-0.125000 I-2.609327 J4.915111
(G00 Z5.000000)
S0
(End cutting path id: path49037)


(Start cutting path id: path49039)
(Change tool to Default tool)

(G00 Z5.000000)
G00 X118.287117 Y127.173237
S1000
(G01 Z-0.125000 F10000.0(Penetrate))
G02 X111.400632 Y125.474211 Z-0.125000 I-5.355566 J6.901506 F10000.000000
G02 X108.795518 Y127.309458 Z-0.125000 I0.658963 J3.701981
G02 X107.628453 Y130.196415 Z-0.125000 I10.017235 J5.728883
G02 X107.128038 Y133.517192 Z-0.125000 I16.421421 J4.172675
G02 X111.681277 Y138.582203 Z-0.125000 I4.474226 J0.556947
G02 X124.405853 Y137.320913 Z-0.125000 I-1.380070 J-78.739702
(G00 Z5.000000)
S0
(End cutting path id: path49039)


(Start cutting path id: path49021)
(Change tool to Default tool)

(G00 Z5.000000)
G00 X126.108705 Y141.588863
S1000
(G01 Z-0.125000 F10000.0(Penetrate))
G02 X120.096957 Y147.883659 Z-0.125000 I27.563465 J32.342178 F10000.000000
G02 X118.624214 Y150.791549 Z-0.125000 I6.783154 J5.262316
G02 X118.854221 Y153.742823 Z-0.125000 I4.088501 J1.165963
G02 X120.369298 Y155.517253 Z-0.125000 I3.921925 J-1.814659
G02 X123.961715 Y157.026549 Z-0.125000 I5.658041 J-8.437266
G02 X128.638324 Y157.507023 Z-0.125000 I4.676609 J-22.519201
G02 X132.918277 Y151.919288 Z-0.125000 I-0.848789 J-5.083127
G02 X130.737257 Y143.711666 Z-0.125000 I-26.255051 J2.583189
(G00 Z5.000000)
S0
(End cutting path id: path49021)


(Start cutting path id: path49019)
(Change tool to Default tool)

(G00 Z5.000000)
G00 X130.737257 Y143.711666
S1000
(G01 Z-0.125000 F10000.0(Penetrate))
G02 X137.585847 Y134.753956 Z-0.125000 I-0.790624 J-7.701358 F10000.000000
G02 X131.058381 Y129.368215 Z-0.125000 I-6.346822 J1.043804
G02 X123.649999 Y138.203684 Z-0.125000 I0.216481 J7.705148
G02 X130.737257 Y143.711666 Z-0.125000 I6.424042 J-0.952309
G01 X130.737257 Y143.711666 Z-0.125000
(G00 Z5.000000)
S0
(End cutting path id: path49019)


(Start cutting path id: path49023)
(Change tool to Default tool)

(G00 Z5.000000)
G00 X132.595262 Y150.264811
S1000
(G01 Z-0.125000 F10000.0(Penetrate))
G02 X138.602145 Y154.117461 Z-0.125000 I5.338120 J-1.713803 F10000.000000
G02 X142.541392 Y152.088085 Z-0.125000 I-0.758015 J-6.309343
G02 X142.305299 Y146.367303 Z-0.125000 I-3.540208 J-2.719161
G02 X136.228542 Y141.291143 Z-0.125000 I-21.392712 J19.434200
(G00 Z5.000000)
S0
(End cutting path id: path49023)


(Start cutting path id: path49027)
(Change tool to Default tool)

(G00 Z5.000000)
G00 X141.256710 Y145.544980
S1000
(G01 Z-0.125000 F10000.0(Penetrate))
G02 X148.017163 Y143.215851 Z-0.125000 I2.303286 J-4.290456 F10000.000000
G02 X149.438291 Y136.551800 Z-0.125000 I-15.360541 J-6.759234
G02 X144.855430 Y132.883946 Z-0.125000 I-4.194652 J0.544084
G02 X137.621080 Y134.667329 Z-0.125000 I2.291266 J24.859471
(G00 Z5.000000)
S0
(End cutting path id: path49027)


(Start cutting path id: path49029)
(Change tool to Default tool)

(G00 Z5.000000)
G00 X145.269235 Y133.192444
S1000
(G01 Z-0.125000 F10000.0(Penetrate))
G02 X147.956579 Y126.179477 Z-0.125000 I-2.586171 J-5.012386 F10000.000000
G02 X144.072255 Y120.369061 Z-0.125000 I-14.537837 J5.515134
G02 X138.458728 Y122.329932 Z-0.125000 I-1.323581 J5.226449
G02 X133.977553 Y130.021152 Z-0.125000 I28.844284 J21.956746
(G00 Z5.000000)
S0
(End cutting path id: path49029)


(Start cutting path id: path49031)
(Change tool to Default tool)

(G00 Z5.000000)
G00 X139.144559 Y122.273925
S1000
(G01 Z-0.125000 F10000.0(Penetrate))
G02 X137.334516 Y115.577433 Z-0.125000 I-5.106578 J-2.212577 F10000.000000
G02 X132.408221 Y113.859791 Z-0.125000 I-5.254622 J7.147287
G02 X127.626191 Y118.556513 Z-0.125000 I-0.365930 J4.410229
G02 X129.419454 Y129.557646 Z-0.125000 I57.541834 J-3.733007
(G00 Z5.000000)
S0
(End cutting path id: path49031)


(Start cutting path id: path49033)
(Change tool to Default tool)

(G00 Z5.000000)
G00 X128.161410 Y120.979595
S1000
(G01 Z-0.125000 F10000.0(Penetrate))
G02 X123.578566 Y114.862891 Z-0.125000 I-10.530327 J3.114517 F10000.000000
G02 X120.741599 Y114.503777 Z-0.125000 I-1.793609 J2.783900
G02 X118.318862 Y115.775315 Z-0.125000 I2.659212 J8.010618
G02 X116.210737 Y117.795627 Z-0.125000 I7.466062 J9.900607
(G00 Z5.000000)
S0
(End cutting path id: path49033)


(Start cutting path id: path49015)
(Change tool to Default tool)

(G00 Z5.000000)
G00 X116.210737 Y117.795627
S1000
(G01 Z-0.125000 F10000.0(Penetrate))
G03 X94.904858 Y69.001752 Z-0.125000 I178.605643 J-107.036829 F10000.000000
G03 X89.799538 Y41.671228 Z-0.125000 I135.273513 J-39.411080
G03 X89.291446 Y24.976875 Z-0.125000 I150.209006 J-12.926509
G03 X91.216625 Y11.982145 Z-0.125000 I53.917216 J1.347900
(G00 Z5.000000)
S0
(End cutting path id: path49015)


(Start cutting path id: path48907)
(Change tool to Default tool)

(G00 Z5.000000)
G00 X53.328925 Y121.731463
S1000
(G01 Z-0.125000 F10000.0(Penetrate))
G02 X68.798342 Y97.470808 Z-0.125000 I-48.330231 J-47.879236 F10000.000000
G02 X77.261179 Y68.067833 Z-0.125000 I-193.250893 J-71.541331
G02 X80.362979 Y50.204326 Z-0.125000 I-260.927594 J-54.508237
G02 X81.847847 Y33.932012 Z-0.125000 I-172.571572 J-23.951268
(G00 Z5.000000)
S0
(End cutting path id: path48907)


(Start cutting path id: path48905)
(Change tool to Default tool)

(G00 Z5.000000)
G00 X56.529595 Y123.294237
S1000
(G01 Z-0.125000 F10000.0(Penetrate))
G02 X72.759348 Y95.936935 Z-0.125000 I-51.339204 J-48.949855 F10000.000000
G02 X81.849673 Y58.880206 Z-0.125000 I-264.539414 J-84.537063
G02 X85.002751 Y36.663168 Z-0.125000 I-358.629958 J-62.229605
G02 X86.422421 Y16.226228 Z-0.125000 I-249.627867 J-27.608402
(G00 Z5.000000)
S0
(End cutting path id: path48905)


(Start cutting path id: path48899)
(Change tool to Default tool)

(G00 Z5.000000)
G00 X50.291350 Y124.423880
S1000
(G01 Z-0.125000 F10000.0(Penetrate))
G02 X45.731879 Y120.402307 Z-0.125000 I-4.937427 J1.002379 F10000.000000
G02 X42.770808 Y121.499539 Z-0.125000 I-0.284164 J3.777232
G02 X42.799420 Y125.477564 Z-0.125000 I8.293763 J1.929464
G02 X44.684457 Y131.204659 Z-0.125000 I39.043333 J-9.677099
(G00 Z5.000000)
S0
(End cutting path id: path48899)


(Start cutting path id: path48901)
(Change tool to Default tool)

(G00 Z5.000000)
G00 X42.715938 Y124.122089
S1000
(G01 Z-0.125000 F10000.0(Penetrate))
G02 X36.798974 Y124.418941 Z-0.125000 I-2.805811 J3.191518 F10000.000000
G02 X34.693485 Y128.467801 Z-0.125000 I6.266821 J5.830751
G02 X37.252261 Y132.925853 Z-0.125000 I5.586065 J-0.242865
G02 X42.251822 Y134.823270 Z-0.125000 I6.963843 J-10.813784
(G00 Z5.000000)
S0
(End cutting path id: path48901)


(Start cutting path id: path48887)
(Change tool to Default tool)

(G00 Z5.000000)
G00 X42.716538 Y140.502386
S1000
(G01 Z-0.125000 F10000.0(Penetrate))
G02 X35.591342 Y145.694826 Z-0.125000 I5.612315 J15.186267 F10000.000000
G02 X35.034086 Y148.184837 Z-0.125000 I2.331238 J1.829085
G02 X36.033177 Y150.310988 Z-0.125000 I5.383054 J-1.231715
G02 X37.796741 Y152.007141 Z-0.125000 I6.445956 J-4.937237
G02 X44.779269 Y150.295262 Z-0.125000 I2.804622 J-3.656662
G02 X46.500998 Y143.529949 Z-0.125000 I-17.069971 J-7.945940
(G00 Z5.000000)
S0
(End cutting path id: path48887)


(Start cutting path id: path48889)
(Change tool to Default tool)

(G00 Z5.000000)
G00 X46.500998 Y143.529952
S1000
(G01 Z-0.125000 F10000.0(Penetrate))
G02 X53.302261 Y135.152182 Z-0.125000 I-0.539222 J-7.387347 F10000.000000
G02 X49.301498 Y131.192616 Z-0.125000 I-4.570046 J0.616618
G02 X42.705418 Y135.304483 Z-0.125000 I-0.761876 J6.124338
G02 X42.716538 Y140.502386 Z-0.125000 I7.488016 J2.582943
G02 X44.594041 Y142.751061 Z-0.125000 I7.453985 J-4.315473
G02 X46.500998 Y143.529949 Z-0.125000 I2.142750 J-2.522258
(G00 Z5.000000)
S0
(End cutting path id: path48889)


(Start cutting path id: path48891)
(Change tool to Default tool)

(G00 Z5.000000)
G00 X44.467684 Y151.228396
S1000
(G01 Z-0.125000 F10000.0(Penetrate))
G02 X51.559863 Y154.392528 Z-0.125000 I5.647693 J-3.128530 F10000.000000
G02 X56.113523 Y151.553004 Z-0.125000 I-1.842233 J-8.025381
G02 X56.051086 Y146.123430 Z-0.125000 I-3.355574 J-2.676559
G02 X51.195512 Y142.030289 Z-0.125000 I-14.064501 J11.757720
(G00 Z5.000000)
S0
(End cutting path id: path48891)


(Start cutting path id: path48893)
(Change tool to Default tool)

(G00 Z5.000000)
G00 X55.275473 Y145.370645
S1000
(G01 Z-0.125000 F10000.0(Penetrate))
G02 X60.783571 Y144.602707 Z-0.125000 I2.133829 J-4.832545 F10000.000000
G02 X62.622795 Y141.363821 Z-0.125000 I-3.363504 J-4.051641
G02 X59.329720 Y137.336384 Z-0.125000 I-4.043714 J-0.053642
G02 X53.464404 Y137.307034 Z-0.125000 I-3.012536 J15.948003
(G00 Z5.000000)
S0
(End cutting path id: path48893)


(Start cutting path id: path48895)
(Change tool to Default tool)

(G00 Z5.000000)
G00 X59.670898 Y137.543961
S1000
(G01 Z-0.125000 F10000.0(Penetrate))
G02 X61.323967 Y131.371770 Z-0.125000 I-3.603929 J-4.272686 F10000.000000
G02 X58.914025 Y128.921937 Z-0.125000 I-3.872610 J1.399285
G02 X55.294994 Y129.725439 Z-0.125000 I-1.107999 J3.561432
G02 X52.369341 Y133.383906 Z-0.125000 I10.042628 J11.030073
(G00 Z5.000000)
S0
(End cutting path id: path48895)


(Start cutting path id: path48897)
(Change tool to Default tool)

(G00 Z5.000000)
G00 X55.833552 Y129.521365
S1000
(G01 Z-0.125000 F10000.0(Penetrate))
G02 X56.062671 Y123.559911 Z-0.125000 I-4.298758 J-3.150345 F10000.000000
G02 X53.328925 Y121.731463 Z-0.125000 I-3.383222 J2.100455
G02 X49.945968 Y124.339074 Z-0.125000 I-0.177564 J3.267867
G02 X49.301498 Y131.192616 Z-0.125000 I30.880995 J6.360955
(G00 Z5.000000)
S0
(End cutting path id: path48897)


(Start cutting path id: path48903)
(Change tool to Default tool)

(G00 Z5.000000)
G00 X36.690221 Y132.382433
S1000
(G01 Z-0.125000 F10000.0(Penetrate))
G02 X32.254616 Y134.914888 Z-0.125000 I-0.595823 J4.107131 F10000.000000
G02 X31.741607 Y139.139982 Z-0.125000 I7.425957 J3.045348
G02 X34.090368 Y142.807797 Z-0.125000 I3.947754 J0.057921
G02 X37.449099 Y143.192223 Z-0.125000 I2.294168 J-5.179325
(G00 Z5.000000)
S0
(End cutting path id: path48903)


(Start cutting path id: path49001)
(Change tool to Default tool)

(G00 Z5.000000)
G00 X79.856788 Y150.667299
S1000
(G01 Z-0.125000 F10000.0(Penetrate))
G02 X75.048987 Y155.140472 Z-0.125000 I0.038779 J4.861998 F10000.000000
G02 X75.988266 Y160.635706 Z-0.125000 I11.259635 J0.903324
G02 X81.650003 Y162.527857 Z-0.125000 I3.882929 J-2.201926
G02 X88.791429 Y158.213653 Z-0.125000 I-12.483903 J-28.732771
(G00 Z5.000000)
S0
(End cutting path id: path49001)


(Start cutting path id: path48985)
(Change tool to Default tool)

(G00 Z5.000000)
G00 X93.038650 Y161.695355
S1000
(G01 Z-0.125000 F10000.0(Penetrate))
G02 X100.544044 Y152.700014 Z-0.125000 I-0.175682 J-7.775370 F10000.000000
G02 X92.433137 Y147.564468 Z-0.125000 I-6.316493 J1.003236
G02 X87.444997 Y158.079659 Z-0.125000 I2.185757 J7.477587
G02 X93.038650 Y161.695355 Z-0.125000 I5.459725 J-2.311781
G01 X93.038650 Y161.695355 Z-0.125000
(G00 Z5.000000)
S0
(End cutting path id: path48985)


(Start cutting path id: path48987)
(Change tool to Default tool)

(G00 Z5.000000)
G00 X93.038650 Y161.695357
S1000
(G01 Z-0.125000 F10000.0(Penetrate))
G02 X96.249457 Y171.036272 Z-0.125000 I20.108218 J-1.689623 F10000.000000
G02 X99.861872 Y172.140463 Z-0.125000 I2.467277 J-1.610625
G02 X104.472046 Y166.494161 Z-0.125000 I-4.323606 J-8.235442
G02 X103.924702 Y163.538450 Z-0.125000 I-3.217992 J-0.932621
G02 X101.762660 Y161.401959 Z-0.125000 I-8.498143 J6.437580
G02 X98.904828 Y159.704855 Z-0.125000 I-9.840960 J13.316880
(G00 Z5.000000)
S0
(End cutting path id: path48987)


(Start cutting path id: path48991)
(Change tool to Default tool)

(G00 Z5.000000)
G00 X103.115778 Y162.618459
S1000
(G01 Z-0.125000 F10000.0(Penetrate))
G02 X109.054234 Y160.682790 Z-0.125000 I1.510429 J-5.443297 F10000.000000
G02 X110.912495 Y156.018666 Z-0.125000 I-6.863248 J-5.436669
G02 X106.741858 Y152.144715 Z-0.125000 I-4.415241 J0.571384
G02 X101.073769 Y153.031999 Z-0.125000 I-0.755156 J13.723868
(G00 Z5.000000)
S0
(End cutting path id: path48991)


(Start cutting path id: path48993)
(Change tool to Default tool)

(G00 Z5.000000)
G00 X105.014354 Y152.149472
S1000
(G01 Z-0.125000 F10000.0(Penetrate))
G02 X110.447736 Y146.658676 Z-0.125000 I-2.863425 J-8.267165 F10000.000000
G02 X109.852848 Y142.470305 Z-0.125000 I-4.482048 J-1.499833
G02 X103.376963 Y142.148515 Z-0.125000 I-3.361869 J2.333077
G02 X99.021660 Y148.941048 Z-0.125000 I22.674398 J19.331149
(G00 Z5.000000)
S0
(End cutting path id: path48993)


(Start cutting path id: path48995)
(Change tool to Default tool)

(G00 Z5.000000)
G00 X102.318119 Y143.601682
S1000
(G01 Z-0.125000 F10000.0(Penetrate))
G02 X101.389691 Y136.260463 Z-0.125000 I-4.973700 J-3.100305 F10000.000000
G02 X96.985682 Y134.295871 Z-0.125000 I-4.959666 J5.199532
G02 X93.149781 Y139.158059 Z-0.125000 I1.339954 J5.001337
G02 X94.119834 Y147.541477 Z-0.125000 I29.789451 J0.800865
(G00 Z5.000000)
S0
(End cutting path id: path48995)


(Start cutting path id: path48997)
(Change tool to Default tool)

(G00 Z5.000000)
G00 X93.516765 Y139.785309
S1000
(G01 Z-0.125000 F10000.0(Penetrate))
G02 X89.336527 Y135.504860 Z-0.125000 I-7.854425 J3.489133 F10000.000000
G02 X87.204456 Y135.576232 Z-0.125000 I-0.996677 J2.107613
G02 X85.539250 Y136.906549 Z-0.125000 I3.151926 J5.652740
G02 X84.194215 Y138.800475 Z-0.125000 I7.613211 J6.831348
G02 X85.505122 Y144.108382 Z-0.125000 I7.146208 J1.050916
G02 X90.067633 Y148.577659 Z-0.125000 I15.663918 J-11.427198
(G00 Z5.000000)
S0
(End cutting path id: path48997)


(Start cutting path id: path48999)
(Change tool to Default tool)

(G00 Z5.000000)
G00 X85.114985 Y143.155937
S1000
(G01 Z-0.125000 F10000.0(Penetrate))
G02 X80.171508 Y141.747492 Z-0.125000 I-4.000218 J4.660563 F10000.000000
G02 X78.187947 Y143.079645 Z-0.125000 I0.433324 J2.788043
G02 X77.246474 Y145.235892 Z-0.125000 I7.744217 J4.664984
G02 X76.776673 Y147.737600 Z-0.125000 I12.815905 J3.701690
G02 X80.774951 Y151.321487 Z-0.125000 I6.930937 J-3.710099
G02 X87.192888 Y152.877801 Z-0.125000 I8.560987 J-21.292527
(G00 Z5.000000)
S0
(End cutting path id: path48999)


(Start cutting path id: path49003)
(Change tool to Default tool)

(G00 Z5.000000)
G00 X81.029340 Y162.334080
S1000
(G01 Z-0.125000 F10000.0(Penetrate))
G02 X83.898184 Y170.308273 Z-0.125000 I7.132646 J1.937069 F10000.000000
G02 X90.173655 Y172.367531 Z-0.125000 I6.491838 J-9.191805
G02 X93.609253 Y170.480242 Z-0.125000 I0.481417 J-3.194339
G02 X94.040647 Y167.344530 Z-0.125000 I-5.240103 J-2.318434
(G00 Z5.000000)
S0
(End cutting path id: path49003)


(Start cutting path id: path49043)
(Change tool to Default tool)

(G00 Z5.000000)
G00 X111.063873 Y147.737600
S1000
(G01 Z-0.125000 F10000.0(Penetrate))
G02 X115.753823 Y150.530284 Z-0.125000 I5.614869 J-4.095020 F10000.000000
G02 X119.313994 Y149.640016 Z-0.125000 I0.660825 J-4.921042
(G00 Z5.000000)
S0
(End cutting path id: path49043)


(Start cutting path id: path49041)
(Change tool to Default tool)

(G00 Z5.000000)
G00 X114.785136 Y138.069637
S1000
(G01 Z-0.125000 F10000.0(Penetrate))
G02 X109.832674 Y140.499657 Z-0.125000 I-0.208909 J5.835889 F10000.000000
G02 X109.852848 Y142.470305 Z-0.125000 I1.353169 J0.971574
(G00 Z5.000000)
S0
(End cutting path id: path49041)


(Start cutting path id: path49007)
(Change tool to Default tool)

(G00 Z5.000000)
G00 X88.028825 Y135.228157
S1000
(G01 Z-0.125000 F10000.0(Penetrate))
G03 X86.460274 Y85.514666 Z-0.125000 I176.686668 J-30.456276 F10000.000000
G03 X91.903226 Y56.545677 Z-0.125000 I187.783052 J20.286523
(G00 Z5.000000)
S0
(End cutting path id: path49007)


(Start cutting path id: path49005)
(Change tool to Default tool)

(G00 Z5.000000)
G00 X85.405243 Y137.286690
S1000
(G01 Z-0.125000 F10000.0(Penetrate))
G03 X83.955363 Y82.811009 Z-0.125000 I175.095956 J-31.917346 F10000.000000
G03 X90.475288 Y51.004840 Z-0.125000 I214.617860 J27.423030
(G00 Z5.000000)
S0
(End cutting path id: path49005)


(Footer)
M5
G00 X0.0000 Y0.0000
M2
(Using default footer. To add your own footer create file "footer" in the output dir.)
(end)
%