%
(Header)
(Generated by gcodetools from Inkscape.)
(Using default header. To add your own header create file "header" in the output dir.)
M3
(Header end.)
G21 (All units in mm)

(Start cutting path id: path61831)
(Change tool to Default tool)

(G00 Z5.000000)
G00 X3.305027 Y43.296720
S1000
(G01 Z-0.125000 F10000.0(Penetrate))
G03 X3.714243 Y43.195321 Z-0.125000 I0.264329 J0.190318 F10000.000000
G03 X4.335406 Y43.583667 Z-0.125000 I-1.669380 J3.361142
G03 X3.411539 Y43.533510 Z-0.125000 I-0.448646 J-0.269839
G03 X3.305027 Y43.296720 Z-0.125000 I11.428492 J-5.283086
G01 X3.305027 Y43.296720 Z-0.125000
(G00 Z5.000000)
S0
(End cutting path id: path61831)


(Start cutting path id: path61766)
(Change tool to Default tool)

(G00 Z5.000000)
G00 X2.754335 Y42.244124
S1000
(G01 Z-0.125000 F10000.0(Penetrate))
G02 X4.013681 Y42.698434 Z-0.125000 I1.196868 J-1.345106 F10000.000000
G02 X5.861417 Y42.409820 Z-0.125000 I-0.270509 J-7.790816
G02 X4.229346 Y41.688289 Z-0.125000 I-3.088968 J4.780507
G02 X2.952989 Y41.737320 Z-0.125000 I-0.558146 J2.107864
(G00 Z5.000000)
S0
(End cutting path id: path61766)


(Start cutting path id: path61768)
(Change tool to Default tool)

(G00 Z5.000000)
G00 X7.231081 Y44.804359
S1000
(G01 Z-0.125000 F10000.0(Penetrate))
G02 X8.087573 Y45.309423 Z-0.125000 I0.968552 J-0.663723 F10000.000000
G02 X8.863489 Y45.145604 Z-0.125000 I0.126558 J-1.320003
G02 X8.922451 Y44.933877 Z-0.125000 I-0.071024 J-0.133853
G02 X8.752822 Y44.730583 Z-0.125000 I-0.732715 J0.438965
G02 X7.821101 Y44.517761 Z-0.125000 I-0.798843 J1.351370
G02 X7.231081 Y44.804357 Z-0.125000 I0.077282 J0.909743
G01 X7.231081 Y44.804359 Z-0.125000
(G00 Z5.000000)
S0
(End cutting path id: path61768)


(Start cutting path id: path61770)
(Change tool to Default tool)

(G00 Z5.000000)
G00 X7.941933 Y45.298810
S1000
(G01 Z-0.125000 F10000.0(Penetrate))
G03 X7.813035 Y44.882303 Z-0.125000 I0.730762 J-0.454350 F10000.000000
G03 X7.885839 Y44.507907 Z-0.125000 I0.814659 J-0.035861
(G00 Z5.000000)
S0
(End cutting path id: path61770)


(Start cutting path id: path61772)
(Change tool to Default tool)

(G00 Z5.000000)
G00 X8.303455 Y45.313513
S1000
(G01 Z-0.125000 F10000.0(Penetrate))
G02 X8.434017 Y44.941115 Z-0.125000 I-0.637814 J-0.432703 F10000.000000
G02 X8.388626 Y44.565035 Z-0.125000 I-0.957822 J-0.075174
(G00 Z5.000000)
S0
(End cutting path id: path61772)


(Start cutting path id: path55141)
(Change tool to Default tool)

(G00 Z5.000000)
G00 X10.171381 Y46.881048
S1000
(G01 Z-0.125000 F10000.0(Penetrate))
G03 X7.824104 Y46.221380 Z-0.125000 I1.803189 J-10.922182 F10000.000000
G03 X6.059397 Y45.151650 Z-0.125000 I2.418716 J-5.980559
G02 X4.650548 Y44.251934 Z-0.125000 I-2.693618 J2.664986
G02 X2.799602 Y43.845188 Z-0.125000 I-2.485800 J6.897068
G03 X2.508498 Y42.672504 Z-0.125000 I0.684300 J-0.792343
G03 X3.500535 Y40.672599 Z-0.125000 I11.742401 J4.578726
G03 X5.074407 Y40.831302 Z-0.125000 I-0.376031 J11.612649
G03 X6.931358 Y41.225970 Z-0.125000 I-3.905729 J22.942677
G02 X7.907324 Y41.311350 Z-0.125000 I0.728083 J-2.701875
G02 X9.735043 Y41.078418 Z-0.125000 I-2.144775 J-24.116279
G03 X10.676753 Y41.312611 Z-0.125000 I0.074396 J1.711292
G03 X11.764023 Y42.111362 Z-0.125000 I-3.332861 J5.676109
G02 X16.282834 Y41.169741 Z-0.125000 I-17.981272 J-97.605271
G02 X19.112905 Y40.009992 Z-0.125000 I-2.173015 J-9.335592
(G00 Z5.000000)
S0
(End cutting path id: path55141)


(Start cutting path id: path59151)
(Change tool to Default tool)

(G00 Z5.000000)
G00 X19.112905 Y40.009993
S1000
(G01 Z-0.125000 F10000.0(Penetrate))
G02 X19.454053 Y43.440254 Z-0.125000 I10.244457 J0.713260 F10000.000000
G02 X20.756280 Y44.888002 Z-0.125000 I2.094823 J-0.574721
G02 X23.332794 Y43.974314 Z-0.125000 I0.679841 J-2.172521
G02 X24.225675 Y41.549060 Z-0.125000 I-4.659129 J-3.092291
G02 X26.120941 Y38.739546 Z-0.125000 I-2.604238 J-3.800809
G02 X26.129945 Y35.366782 Z-0.125000 I-7.748463 J-1.707079
G02 X26.339892 Y32.422374 Z-0.125000 I-3.567003 J-1.734030
G02 X24.903941 Y30.071403 Z-0.125000 I-5.559318 J1.781563
G03 X23.982358 Y27.985552 Z-0.125000 I2.480844 J-2.342617
G03 X24.356158 Y26.080306 Z-0.125000 I3.641645 J-0.274817
G02 X23.515778 Y24.880036 Z-0.125000 I-0.872352 J-0.283550
G02 X21.356319 Y25.036872 Z-0.125000 I-0.352134 J10.096665
G03 X20.383955 Y25.481752 Z-0.125000 I-0.693759 J-0.231256
G03 X20.052039 Y25.141208 Z-0.125000 I0.228637 J-0.554870
G03 X20.905649 Y24.797336 Z-0.125000 I0.830725 J0.830734
G03 X21.356319 Y25.036872 Z-0.125000 I-0.010996 J0.564410
(G00 Z5.000000)
S0
(End cutting path id: path59151)


(Start cutting path id: path59681)
(Change tool to Default tool)

(G00 Z5.000000)
G00 X19.743010 Y24.929581
S1000
(G01 Z-0.125000 F10000.0(Penetrate))
G03 X19.931985 Y26.508563 Z-0.125000 I-14.293350 J2.511453 F10000.000000
G03 X19.608577 Y27.071542 Z-0.125000 I-0.586029 J0.037733
G03 X18.912914 Y26.726859 Z-0.125000 I-0.040635 J-0.792349
G03 X18.408646 Y25.349888 Z-0.125000 I2.461499 J-1.682259
G03 X18.907986 Y24.988762 Z-0.125000 I0.800832 J0.581547
G03 X19.743010 Y24.929581 Z-0.125000 I0.539066 J1.685495
G01 X20.052039 Y25.141211 Z-0.125000
(G00 Z5.000000)
S0
(End cutting path id: path59681)


(Start cutting path id: path59683)
(Change tool to Default tool)

(G00 Z5.000000)
G00 X19.608577 Y27.071543
S1000
(G01 Z-0.125000 F10000.0(Penetrate))
G02 X19.846907 Y29.909493 Z-0.125000 I4.455475 J1.054814 F10000.000000
G02 X21.799744 Y33.436433 Z-0.125000 I17.607244 J-7.444876
G02 X20.619434 Y36.209481 Z-0.125000 I15.417427 J8.199932
G02 X20.201970 Y38.653546 Z-0.125000 I8.053919 J2.633352
G02 X19.522510 Y39.261210 Z-0.125000 I1.396834 J2.245572
G02 X19.112905 Y40.009993 Z-0.125000 I2.011396 J1.586712
(G00 Z5.000000)
S0
(End cutting path id: path59683)


(Start cutting path id: path61750)
(Change tool to Default tool)

(G00 Z5.000000)
G00 X18.122618 Y47.257612
S1000
(G01 Z-0.125000 F10000.0(Penetrate))
G03 X19.005325 Y47.810138 Z-0.125000 I-0.700589 J2.100609 F10000.000000
G03 X19.402154 Y48.537473 Z-0.125000 I-1.091989 J1.067703
(G00 Z5.000000)
S0
(End cutting path id: path61750)


(Start cutting path id: path61744)
(Change tool to Default tool)

(G00 Z5.000000)
G00 X16.749212 Y50.940154
S1000
(G01 Z-0.125000 F10000.0(Penetrate))
G03 X15.413198 Y51.191226 Z-0.125000 I-0.793440 J-0.541924 F10000.000000
G03 X15.173943 Y50.749231 Z-0.125000 I0.310521 J-0.453840
(G00 Z5.000000)
S0
(End cutting path id: path61744)


(Start cutting path id: path61746)
(Change tool to Default tool)

(G00 Z5.000000)
G00 X15.173943 Y50.749231
S1000
(G01 Z-0.125000 F10000.0(Penetrate))
G03 X14.402171 Y50.630139 Z-0.125000 I-0.365288 J-0.193028 F10000.000000
G03 X14.156611 Y48.944290 Z-0.125000 I23.757687 J-4.321344
G03 X13.409303 Y49.036092 Z-0.125000 I-0.404114 J-0.202059
G03 X13.282745 Y48.722558 Z-0.125000 I0.402802 J-0.344901
G03 X12.174430 Y48.837710 Z-0.125000 I-0.602401 J-0.406753
G03 X11.848039 Y48.239969 Z-0.125000 I0.799028 J-0.824283
G03 X11.390062 Y48.369784 Z-0.125000 I-0.285353 J-0.133942
G03 X11.156771 Y48.109539 Z-0.125000 I0.371637 J-0.567833
G03 X10.596696 Y48.099708 Z-0.125000 I-0.278010 J-0.120435
G03 X10.171381 Y46.881048 Z-0.125000 I15.852751 J-6.216201
(G00 Z5.000000)
S0
(End cutting path id: path61746)


(Start cutting path id: path61748)
(Change tool to Default tool)

(G00 Z5.000000)
G00 X10.171381 Y46.881049
S1000
(G01 Z-0.125000 F10000.0(Penetrate))
G03 X11.327637 Y46.481622 Z-0.125000 I1.208007 J1.623654 F10000.000000
G03 X11.704574 Y46.766133 Z-0.125000 I0.009697 J0.379102
G01 X12.004558 Y46.766134 Z-0.125000
G03 X13.769412 Y46.273593 Z-0.125000 I2.137079 J4.249347
G03 X14.117492 Y46.635714 Z-0.125000 I0.025426 J0.323911
G01 X14.873974 Y46.687882 Z-0.125000
G03 X16.302765 Y45.826998 Z-0.125000 I1.369672 J0.657107
G03 X17.873818 Y46.257486 Z-0.125000 I-0.139917 J3.592622
G03 X18.171785 Y47.281435 Z-0.125000 I-0.673633 J0.751355
G03 X17.586868 Y48.605188 Z-0.125000 I-4.904532 J-1.376029
G02 X15.890069 Y49.639335 Z-0.125000 I3.300484 J7.324437
G02 X15.173943 Y50.749231 Z-0.125000 I1.281089 J1.612561
(G00 Z5.000000)
S0
(End cutting path id: path61748)


(Start cutting path id: path61752)
(Change tool to Default tool)

(G00 Z5.000000)
G00 X14.156611 Y48.944290
S1000
(G01 Z-0.125000 F10000.0(Penetrate))
G03 X14.333556 Y47.709115 Z-0.125000 I3.625068 J-0.110954 F10000.000000
G03 X14.873974 Y46.687882 Z-0.125000 I3.217465 J1.049017
(G00 Z5.000000)
S0
(End cutting path id: path61752)


(Start cutting path id: path61754)
(Change tool to Default tool)

(G00 Z5.000000)
G00 X13.282745 Y48.722561
S1000
(G01 Z-0.125000 F10000.0(Penetrate))
G02 X13.966685 Y47.802009 Z-0.125000 I-1.055108 J-1.498259 F10000.000000
G02 X14.117492 Y46.635714 Z-0.125000 I-2.922216 J-0.970752
(G00 Z5.000000)
S0
(End cutting path id: path61754)


(Start cutting path id: path61764)
(Change tool to Default tool)

(G00 Z5.000000)
G00 X11.848039 Y48.239969
S1000
(G01 Z-0.125000 F10000.0(Penetrate))
G01 X12.004558 Y46.766134 Z-0.125000 F10000.000000
(G00 Z5.000000)
S0
(End cutting path id: path61764)


(Start cutting path id: path61760)
(Change tool to Default tool)

(G00 Z5.000000)
G00 X11.848039 Y48.239969
S1000
(G01 Z-0.125000 F10000.0(Penetrate))
G01 X11.848039 Y48.239969 Z-0.125000 F10000.000000
G01 X11.848039 Y48.239969 Z-0.125000
(G00 Z5.000000)
S0
(End cutting path id: path61760)


(Start cutting path id: path61762)
(Change tool to Default tool)

(G00 Z5.000000)
G00 X11.156771 Y48.109539
S1000
(G01 Z-0.125000 F10000.0(Penetrate))
G01 X11.704574 Y46.766133 Z-0.125000 F10000.000000
(G00 Z5.000000)
S0
(End cutting path id: path61762)


(Start cutting path id: path61742)
(Change tool to Default tool)

(G00 Z5.000000)
G00 X19.191101 Y57.122139
S1000
(G01 Z-0.125000 F10000.0(Penetrate))
G02 X22.768029 Y56.579670 Z-0.125000 I0.578799 J-8.247508 F10000.000000
G02 X23.808258 Y55.165737 Z-0.125000 I-0.594038 J-1.526647
G02 X23.544899 Y53.142375 Z-0.125000 I-4.818938 J-0.401592
G02 X22.477907 Y50.965952 Z-0.125000 I-10.053762 J3.579103
G02 X17.991123 Y49.887653 Z-0.125000 I-2.784296 J1.711545
G02 X16.269533 Y52.009353 Z-0.125000 I2.126663 J3.484934
G02 X15.718083 Y56.337611 Z-0.125000 I26.227464 J5.540822
G02 X16.269513 Y59.425546 Z-0.125000 I7.117088 J0.322266
G02 X17.189538 Y59.401887 Z-0.125000 I0.450399 J-0.385684
G02 X17.782475 Y58.374241 Z-0.125000 I-3.532285 J-2.722960
G03 X18.393948 Y57.527799 Z-0.125000 I2.063436 J0.846547
G03 X19.191101 Y57.122139 Z-0.125000 I1.234003 J1.438848
G01 X19.191101 Y57.122139 Z-0.125000
(G00 Z5.000000)
S0
(End cutting path id: path61742)


(Start cutting path id: path61740)
(Change tool to Default tool)

(G00 Z5.000000)
G00 X21.328300 Y60.126215
S1000
(G01 Z-0.125000 F10000.0(Penetrate))
G02 X20.687624 Y60.668756 Z-0.125000 I1.160567 J2.020041 F10000.000000
G02 X20.077995 Y61.556691 Z-0.125000 I4.885977 J4.007803
G03 X18.936415 Y60.743628 Z-0.125000 I-0.296739 J-0.791313
G03 X19.191101 Y57.122139 Z-0.125000 I40.818161 J1.050898
(G00 Z5.000000)
S0
(End cutting path id: path61740)


(Start cutting path id: path61738)
(Change tool to Default tool)

(G00 Z5.000000)
G00 X31.590228 Y61.645697
S1000
(G01 Z-0.125000 F10000.0(Penetrate))
G03 X30.509745 Y61.272069 Z-0.125000 I0.589142 J-3.452846 F10000.000000
G03 X29.623117 Y60.604895 Z-0.125000 I1.790551 J-3.302236
(G00 Z5.000000)
S0
(End cutting path id: path61738)


(Start cutting path id: path61736)
(Change tool to Default tool)

(G00 Z5.000000)
G00 X30.352562 Y67.456679
S1000
(G01 Z-0.125000 F10000.0(Penetrate))
G02 X29.292754 Y68.821027 Z-0.125000 I4.458796 J4.557330 F10000.000000
G02 X28.712294 Y70.295395 Z-0.125000 I4.605303 J2.664560
G03 X26.966641 Y69.660607 Z-0.125000 I-0.646361 J-0.940169
G03 X25.973325 Y65.234781 Z-0.125000 I43.559981 J-12.100817
G02 X28.812740 Y63.130014 Z-0.125000 I-4.870474 J-9.538092
G02 X29.651408 Y61.051832 Z-0.125000 I-2.155513 J-2.078192
G02 X29.066439 Y59.001921 Z-0.125000 I-3.801067 J-0.023736
G02 X27.590660 Y57.409110 Z-0.125000 I-4.991590 J3.144753
G02 X23.368030 Y56.953297 Z-0.125000 I-2.470219 J3.096969
G02 X21.799653 Y58.831423 Z-0.125000 I1.336852 J2.710291
G02 X21.089505 Y63.428161 Z-0.125000 I7.299751 J3.480961
G02 X22.608276 Y67.712899 Z-0.125000 I11.208084 J-1.561283
G02 X23.514748 Y67.546468 Z-0.125000 I0.401373 J-0.365692
G03 X23.834301 Y66.930337 Z-0.125000 I3.148958 J1.242256
G03 X24.630248 Y66.088741 Z-0.125000 I2.758935 J1.812103
G03 X25.947240 Y65.260866 Z-0.125000 I6.116412 J8.268575
(G00 Z5.000000)
S0
(End cutting path id: path61736)


(Start cutting path id: path61734)
(Change tool to Default tool)

(G00 Z5.000000)
G00 X42.530698 Y63.729358
S1000
(G01 Z-0.125000 F10000.0(Penetrate))
G02 X40.908406 Y62.437615 Z-0.125000 I-2.164448 J1.053732 F10000.000000
G02 X35.705949 Y61.479008 Z-0.125000 I-13.258628 J57.359473
G02 X31.167391 Y62.243924 Z-0.125000 I-1.371895 J5.706997
G02 X30.098569 Y64.282673 Z-0.125000 I1.253893 J1.956899
G02 X32.427279 Y72.099391 Z-0.125000 I11.743053 J0.756817
G02 X38.369688 Y77.120629 Z-0.125000 I13.901420 J-10.424800
G02 X40.098624 Y76.193092 Z-0.125000 I0.331804 J-1.456657
G02 X40.354118 Y74.353841 Z-0.125000 I-3.908859 J-1.480359
G03 X40.662647 Y72.929280 Z-0.125000 I6.329647 J0.625175
G03 X41.257947 Y71.716167 Z-0.125000 I5.007568 J1.704699
(G00 Z5.000000)
S0
(End cutting path id: path61734)


(Start cutting path id: path61732)
(Change tool to Default tool)

(G00 Z5.000000)
G00 X48.447944 Y70.441456
S1000
(G01 Z-0.125000 F10000.0(Penetrate))
G02 X47.056387 Y72.199436 Z-0.125000 I1.062781 J2.271006 F10000.000000
G02 X46.883751 Y75.110123 Z-0.125000 I9.754832 J2.039035
G03 X44.670474 Y75.422385 Z-0.125000 I-1.228611 J-0.708395
G03 X41.257947 Y71.716167 Z-0.125000 I29.571109 J-30.651968
G02 X43.473873 Y66.683503 Z-0.125000 I-8.747302 J-6.855690
G02 X42.530698 Y63.729358 Z-0.125000 I-3.352101 J-0.557406
(G00 Z5.000000)
S0
(End cutting path id: path61732)


(Start cutting path id: path61730)
(Change tool to Default tool)

(G00 Z5.000000)
G00 X45.001030 Y63.606440
S1000
(G01 Z-0.125000 F10000.0(Penetrate))
G03 X43.746187 Y63.826109 Z-0.125000 I-1.493336 J-4.836649 F10000.000000
G03 X42.530698 Y63.729358 Z-0.125000 I-0.227564 J-4.824612
(G00 Z5.000000)
S0
(End cutting path id: path61730)


(Start cutting path id: path61728)
(Change tool to Default tool)

(G00 Z5.000000)
G00 X55.949066 Y59.154974
S1000
(G01 Z-0.125000 F10000.0(Penetrate))
G01 X58.930446 Y57.270255 Z-0.125000 F10000.000000
(G00 Z5.000000)
S0
(End cutting path id: path61728)


(Start cutting path id: path61726)
(Change tool to Default tool)

(G00 Z5.000000)
G00 X64.091676 Y62.069536
S1000
(G01 Z-0.125000 F10000.0(Penetrate))
G02 X65.499883 Y65.090224 Z-0.125000 I87.089098 J-38.761256 F10000.000000
G02 X66.730917 Y66.902035 Z-0.125000 I6.903507 J-3.366468
G03 X64.920007 Y69.618113 Z-0.125000 I-1.687912 J0.836346
G03 X59.943042 Y68.857213 Z-0.125000 I1.905489 J-29.120908
G03 X58.779995 Y66.696087 Z-0.125000 I2.741332 J-2.868816
G03 X58.689339 Y63.803197 Z-0.125000 I9.657721 J-1.750516
G02 X54.345264 Y59.476607 Z-0.125000 I-5.474503 J1.152518
G02 X50.978659 Y60.224782 Z-0.125000 I-0.850412 J4.121890
G03 X48.967647 Y60.956191 Z-0.125000 I-5850.140718 J-16081.803655
G03 X46.920689 Y61.700392 Z-0.125000 I-6272.649705 J-17250.085917
G02 X47.252689 Y69.968685 Z-0.125000 I2.356002 J4.046211
G03 X49.476910 Y71.218174 Z-0.125000 I-8.513921 J17.760103
G02 X57.260424 Y73.449308 Z-0.125000 I7.530567 J-11.578750
G02 X60.238151 Y73.173414 Z-0.125000 I-0.370001 J-20.200654
G02 X61.298753 Y71.298775 Z-0.125000 I-0.229735 J-1.367320
G02 X59.943042 Y68.857213 Z-0.125000 I-9.853260 J3.873985
(G00 Z5.000000)
S0
(End cutting path id: path61726)


(Start cutting path id: path61722)
(Change tool to Default tool)

(G00 Z5.000000)
G00 X70.200898 Y57.904888
S1000
(G01 Z-0.125000 F10000.0(Penetrate))
G02 X66.065382 Y52.460351 Z-0.125000 I-7.707862 J1.561795 F10000.000000
G02 X61.867142 Y52.218201 Z-0.125000 I-2.374744 J4.657511
G03 X60.475908 Y53.808974 Z-0.125000 I-7.943492 J-5.543347
G03 X58.919461 Y54.891961 Z-0.125000 I-4.764783 J-5.187912
G02 X60.228950 Y59.975738 Z-0.125000 I6.980446 J0.912502
G02 X63.275729 Y61.922043 Z-0.125000 I4.046304 J-2.976261
G02 X67.916703 Y62.315632 Z-0.125000 I3.980689 J-19.379343
G02 X71.910060 Y61.556875 Z-0.125000 I-0.441110 J-13.209525
G02 X72.324650 Y59.947673 Z-0.125000 I-0.287456 J-0.932068
G02 X71.257929 Y59.209170 Z-0.125000 I-2.374677 J2.290415
G03 X70.546925 Y58.717210 Z-0.125000 I0.297400 J-1.189585
G03 X70.200898 Y57.904888 Z-0.125000 I1.805080 J-1.248774
G01 X70.200898 Y57.904888 Z-0.125000
(G00 Z5.000000)
S0
(End cutting path id: path61722)


(Start cutting path id: path61720)
(Change tool to Default tool)

(G00 Z5.000000)
G00 X71.000929 Y50.619917
S1000
(G01 Z-0.125000 F10000.0(Penetrate))
G02 X72.363359 Y53.068283 Z-0.125000 I5.435055 J-1.421163 F10000.000000
G02 X74.388215 Y54.357264 Z-0.125000 I3.600254 J-3.420715
G03 X74.104929 Y56.679196 Z-0.125000 I-0.768611 J1.084472
G03 X70.200901 Y57.904887 Z-0.125000 I-10.749511 J-27.408622
(G00 Z5.000000)
S0
(End cutting path id: path61720)


(Start cutting path id: path61724)
(Change tool to Default tool)

(G00 Z5.000000)
G00 X64.019230 Y51.863173
S1000
(G01 Z-0.125000 F10000.0(Penetrate))
G01 X66.094265 Y49.202548 Z-0.125000 F10000.000000
(G00 Z5.000000)
S0
(End cutting path id: path61724)


(Start cutting path id: path61718)
(Change tool to Default tool)

(G00 Z5.000000)
G00 X70.313092 Y43.966991
S1000
(G01 Z-0.125000 F10000.0(Penetrate))
G01 X72.561509 Y41.424591 Z-0.125000 F10000.000000
G01 X72.561509 Y41.424591 Z-0.125000
(G00 Z5.000000)
S0
(End cutting path id: path61718)


(Start cutting path id: path61716)
(Change tool to Default tool)

(G00 Z5.000000)
G00 X74.962516 Y42.859756
S1000
(G01 Z-0.125000 F10000.0(Penetrate))
G02 X75.532098 Y44.242815 Z-0.125000 I1.682496 J0.115917 F10000.000000
G02 X77.115698 Y45.247294 Z-0.125000 I3.997056 J-4.550972
G03 X76.266567 Y46.862326 Z-0.125000 I-1.209676 J0.394731
G03 X73.020834 Y47.516050 Z-0.125000 I-5.305255 J-17.956157
G03 X72.476432 Y46.656976 Z-0.125000 I3.296746 J-2.691206
G03 X72.356808 Y45.948198 Z-0.125000 I1.182619 J-0.564079
G02 X70.261755 Y44.000587 Z-0.125000 I-3.446768 J1.607068
G02 X68.335740 Y44.029874 Z-0.125000 I-0.926193 J2.435661
G03 X67.213299 Y45.614132 Z-0.125000 I-14.468883 J-9.061399
G03 X66.103851 Y46.722879 Z-0.125000 I-5.465463 J-4.359473
G02 X66.428696 Y49.453140 Z-0.125000 I1.950229 J1.152418
G02 X68.391054 Y50.596399 Z-0.125000 I3.025019 J-2.936539
G02 X72.061500 Y50.529330 Z-0.125000 I1.573609 J-14.350827
G02 X74.348888 Y49.434366 Z-0.125000 I-0.621774 J-4.235560
G02 X74.408108 Y48.846727 Z-0.125000 I-0.216673 J-0.318639
G02 X73.020834 Y47.516050 Z-0.125000 I-20.564763 J20.050973
(G00 Z5.000000)
S0
(End cutting path id: path61716)


(Start cutting path id: path61714)
(Change tool to Default tool)

(G00 Z5.000000)
G00 X77.466173 Y41.060214
S1000
(G01 Z-0.125000 F10000.0(Penetrate))
G03 X76.695292 Y40.148615 Z-0.125000 I1.522894 J-2.069557 F10000.000000
G03 X76.396352 Y39.068119 Z-0.125000 I2.549136 J-1.286870
G02 X75.214294 Y38.291742 Z-0.125000 I-1.440825 J0.905651
G02 X74.016912 Y38.440968 Z-0.125000 I-0.335888 J2.183330
G02 X72.592563 Y40.960155 Z-0.125000 I2.848555 J3.272831
G02 X73.113080 Y41.912321 Z-0.125000 I0.855214 J0.150841
G02 X75.393585 Y42.973357 Z-0.125000 I2.629605 J-2.670574
G02 X77.945745 Y42.701845 Z-0.125000 I0.603845 J-6.454634
G02 X78.172835 Y41.899241 Z-0.125000 I-0.246188 J-0.503086
G02 X77.466173 Y41.060213 Z-0.125000 I-3.424883 J2.167467
(G00 Z5.000000)
S0
(End cutting path id: path61714)


(Start cutting path id: path61712)
(Change tool to Default tool)

(G00 Z5.000000)
G00 X77.429477 Y37.193969
S1000
(G01 Z-0.125000 F10000.0(Penetrate))
G02 X78.131832 Y38.626751 Z-0.125000 I2.585954 J-0.379105 F10000.000000
G02 X79.347597 Y39.400143 Z-0.125000 I2.200233 J-2.116465
G03 X79.066440 Y40.673384 Z-0.125000 I-0.553375 J0.545467
G03 X77.466173 Y41.060213 Z-0.125000 I-2.394099 J-6.400632
(G00 Z5.000000)
S0
(End cutting path id: path61712)


(Start cutting path id: path59723)
(Change tool to Default tool)

(G00 Z5.000000)
G00 X84.464035 Y33.724937
S1000
(G01 Z-0.125000 F10000.0(Penetrate))
G03 X89.099426 Y37.125489 Z-0.125000 I-0.279885 J5.241113 F10000.000000
G02 X91.005029 Y38.567601 Z-0.125000 I2.091035 J-0.783003
G02 X90.927401 Y37.364857 Z-0.125000 I-0.716997 J-0.557601
G02 X86.611029 Y33.226357 Z-0.125000 I-127.251536 J128.400610
(G00 Z5.000000)
S0
(End cutting path id: path59723)


(Start cutting path id: path59721)
(Change tool to Default tool)

(G00 Z5.000000)
G00 X88.686268 Y32.979434
S1000
(G01 Z-0.125000 F10000.0(Penetrate))
G02 X81.494907 Y34.713217 Z-0.125000 I1.354400 J21.398770 F10000.000000
G02 X75.861442 Y38.459421 Z-0.125000 I7.661343 J17.629818
(G00 Z5.000000)
S0
(End cutting path id: path59721)


(Start cutting path id: path59717)
(Change tool to Default tool)

(G00 Z5.000000)
G00 X84.309406 Y32.852082
S1000
(G01 Z-0.125000 F10000.0(Penetrate))
G03 X84.302041 Y32.045285 Z-0.125000 I0.287212 J-0.406054 F10000.000000
G03 X85.619027 Y31.216454 Z-0.125000 I6.390971 J8.694300
G03 X87.474004 Y31.152020 Z-0.125000 I1.035007 J3.063103
G03 X89.510982 Y32.003616 Z-0.125000 I-2.012280 J7.675252
(G00 Z5.000000)
S0
(End cutting path id: path59717)


(Start cutting path id: path59719)
(Change tool to Default tool)

(G00 Z5.000000)
G00 X90.098445 Y33.334552
S1000
(G01 Z-0.125000 F10000.0(Penetrate))
G03 X92.828282 Y37.242314 Z-0.125000 I-65.310373 J48.531078 F10000.000000
G02 X94.694085 Y39.012848 Z-0.125000 I4.694726 J-3.078977
G02 X94.855278 Y38.367880 Z-0.125000 I-0.223093 J-0.398383
G02 X91.987959 Y33.967425 Z-0.125000 I-315.802845 J202.641447
(G00 Z5.000000)
S0
(End cutting path id: path59719)


(Start cutting path id: path59715)
(Change tool to Default tool)

(G00 Z5.000000)
G00 X94.995906 Y33.071497
S1000
(G01 Z-0.125000 F10000.0(Penetrate))
G02 X91.129890 Y31.296803 Z-0.125000 I-6.931111 J10.000581 F10000.000000
G02 X89.510982 Y32.003616 Z-0.125000 I-0.359972 J1.382915
G02 X93.856617 Y33.595265 Z-0.125000 I30.937660 J-77.740045
G03 X94.657211 Y35.120889 Z-0.125000 I-0.395714 J1.180530
G02 X88.521363 Y32.739607 Z-0.125000 I-17.946495 J37.146973
G02 X84.309407 Y32.852080 Z-0.125000 I-1.934584 J6.474726
(G00 Z5.000000)
S0
(End cutting path id: path59715)


(Start cutting path id: path59703)
(Change tool to Default tool)

(G00 Z5.000000)
G00 X48.783794 Y24.717579
S1000
(G01 Z-0.125000 F10000.0(Penetrate))
G03 X49.709554 Y24.326473 Z-0.125000 I0.971357 J1.008028 F10000.000000
G03 X51.065553 Y24.865150 Z-0.125000 I0.059516 J1.826232
G03 X52.900991 Y25.375009 Z-0.125000 I-3.446597 J15.966015
G03 X53.838345 Y26.090175 Z-0.125000 I-0.601591 J1.760359
G03 X53.670543 Y28.524137 Z-0.125000 I-7.628199 J0.696864
G03 X52.778761 Y31.095755 Z-0.125000 I-12.642458 J-2.943702
G03 X52.742533 Y31.857039 Z-0.125000 I-8.629215 J-0.029136
G03 X52.614925 Y32.807962 Z-0.125000 I-11.467175 J-1.054799
G03 X52.096096 Y33.457952 Z-0.125000 I-1.666074 J-0.797818
G03 X50.509905 Y34.637988 Z-0.125000 I-20.146624 J-25.424764
G03 X49.056192 Y37.755524 Z-0.125000 I-15.867059 J-5.501139
G03 X47.234336 Y39.861162 Z-0.125000 I-6.888271 J-4.118944
G01 X47.806137 Y40.783428 Z-0.125000
G01 X47.806137 Y40.783428 Z-0.125000
(G00 Z5.000000)
S0
(End cutting path id: path59703)


(Start cutting path id: path59713)
(Change tool to Default tool)

(G00 Z5.000000)
G00 X48.065579 Y41.251245
S1000
(G01 Z-0.125000 F10000.0(Penetrate))
G02 X59.973500 Y40.861094 Z-0.125000 I5.218446 J-22.643890 F10000.000000
G02 X70.684130 Y35.393028 Z-0.125000 I-9.667101 J-32.159345
G03 X85.466436 Y30.245145 Z-0.125000 I17.978592 J27.828218
G03 X97.239269 Y32.601962 Z-0.125000 I1.997252 J20.605669
G03 X96.999707 Y33.199832 Z-0.125000 I-0.224763 J0.256870
G03 X94.995907 Y33.071495 Z-0.125000 I2.114467 J-48.721808
G02 X98.226526 Y34.676471 Z-0.125000 I30.394979 J-57.127421
G03 X98.908735 Y36.019180 Z-0.125000 I-0.510671 J1.104128
G02 X95.866233 Y34.426681 Z-0.125000 I-16.860300 J28.509315
G02 X93.421381 Y33.719042 Z-0.125000 I-3.585875 J7.811761
(G00 Z5.000000)
S0
(End cutting path id: path59713)


(Start cutting path id: path59701)
(Change tool to Default tool)

(G00 Z5.000000)
G00 X48.322663 Y24.608942
S1000
(G01 Z-0.125000 F10000.0(Penetrate))
G01 X48.783794 Y24.717579 Z-0.125000 F10000.000000
G01 X48.783794 Y24.717579 Z-0.125000
G02 X50.228256 Y25.520656 Z-0.125000 I1.048326 J-0.184995
G02 X51.065553 Y24.865150 Z-0.125000 I-0.708746 J-1.767806
(G00 Z5.000000)
S0
(End cutting path id: path59701)


(Start cutting path id: path59699)
(Change tool to Default tool)

(G00 Z5.000000)
G00 X48.322663 Y24.608942
S1000
(G01 Z-0.125000 F10000.0(Penetrate))
G01 X48.322663 Y24.608942 Z-0.125000 F10000.000000
G01 X48.322663 Y24.608942 Z-0.125000
G01 X48.322663 Y24.608942 Z-0.125000
(G00 Z5.000000)
S0
(End cutting path id: path59699)


(Start cutting path id: path59711)
(Change tool to Default tool)

(G00 Z5.000000)
G00 X41.442556 Y27.940170
S1000
(G01 Z-0.125000 F10000.0(Penetrate))
G03 X43.026269 Y27.967221 Z-0.125000 I0.385163 J23.823955 F10000.000000
G03 X44.073984 Y28.203723 Z-0.125000 I-0.158120 J3.139431
G03 X44.712214 Y30.670270 Z-0.125000 I-10.619451 J4.063675
G03 X44.605597 Y32.697275 Z-0.125000 I-5.226077 J0.741424
(G00 Z5.000000)
S0
(End cutting path id: path59711)


(Start cutting path id: path59709)
(Change tool to Default tool)

(G00 Z5.000000)
G00 X39.173783 Y28.148369
S1000
(G01 Z-0.125000 F10000.0(Penetrate))
G01 X39.591004 Y28.185260 Z-0.125000 F10000.000000
G02 X40.903615 Y28.606155 Z-0.125000 I0.816243 J-0.288337
G02 X41.442555 Y27.940169 Z-0.125000 I-0.889369 J-1.270768
G02 X40.219860 Y27.710031 Z-0.125000 I-0.862333 J1.218389
G02 X39.591004 Y28.185260 Z-0.125000 I0.242433 J0.974491
(G00 Z5.000000)
S0
(End cutting path id: path59709)


(Start cutting path id: path59693)
(Change tool to Default tool)

(G00 Z5.000000)
G00 X33.355677 Y28.797205
S1000
(G01 Z-0.125000 F10000.0(Penetrate))
G03 X34.090548 Y32.029872 Z-0.125000 I-9.231276 J3.798375 F10000.000000
G03 X33.679027 Y33.611422 Z-0.125000 I-2.663755 J0.151203
G02 X33.092564 Y34.931732 Z-0.125000 I4.140579 J2.629593
G02 X32.856380 Y36.429617 Z-0.125000 I6.433940 J1.782054
(G00 Z5.000000)
S0
(End cutting path id: path59693)


(Start cutting path id: path59687)
(Change tool to Default tool)

(G00 Z5.000000)
G00 X27.517179 Y36.988970
S1000
(G01 Z-0.125000 F10000.0(Penetrate))
G02 X29.549360 Y32.581649 Z-0.125000 I-68.099516 J-34.072316 F10000.000000
G02 X28.881298 Y31.044245 Z-0.125000 I-1.065680 J-0.450772
G03 X28.217477 Y30.126039 Z-0.125000 I3.790045 J-3.439088
G03 X28.106601 Y29.421056 Z-0.125000 I0.883753 J-0.500203
G03 X28.986199 Y29.013528 Z-0.125000 I1.649743 J2.407752
G03 X29.397772 Y29.162826 Z-0.125000 I0.100113 J0.365964
G03 X29.208141 Y30.919647 Z-0.125000 I-3.133312 J0.550435
G03 X28.844406 Y31.007353 Z-0.125000 I-0.213544 J-0.087515
(G00 Z5.000000)
S0
(End cutting path id: path59687)


(Start cutting path id: path59689)
(Change tool to Default tool)

(G00 Z5.000000)
G00 X29.397772 Y29.162827
S1000
(G01 Z-0.125000 F10000.0(Penetrate))
G01 X29.794991 Y29.106257 Z-0.125000 F10000.000000
G02 X30.710373 Y29.391028 Z-0.125000 I0.553921 J-0.166942
G02 X30.916673 Y29.054084 Z-0.125000 I-0.363383 J-0.454116
G02 X30.256208 Y28.882770 Z-0.125000 I-0.547838 J0.753276
G02 X29.674677 Y29.106256 Z-0.125000 I0.154861 J1.271307
(G00 Z5.000000)
S0
(End cutting path id: path59689)


(Start cutting path id: path59691)
(Change tool to Default tool)

(G00 Z5.000000)
G00 X30.916673 Y29.054084
S1000
(G01 Z-0.125000 F10000.0(Penetrate))
G01 X33.355677 Y28.797205 Z-0.125000 F10000.000000
(G00 Z5.000000)
S0
(End cutting path id: path59691)


(Start cutting path id: path59707)
(Change tool to Default tool)

(G00 Z5.000000)
G00 X38.907549 Y37.603274
S1000
(G01 Z-0.125000 F10000.0(Penetrate))
G03 X39.090149 Y35.566889 Z-0.125000 I4.454064 J-0.626989 F10000.000000
G03 X40.040690 Y33.847969 Z-0.125000 I5.031936 J1.660320
G02 X40.141594 Y32.327210 Z-0.125000 I-1.045819 J-0.833118
G02 X38.620417 Y30.306467 Z-0.125000 I-10.337603 J6.199025
G03 X37.855703 Y29.393617 Z-0.125000 I1.933727 J-2.396657
G03 X37.679712 Y28.535716 Z-0.125000 I1.296657 J-0.713000
G03 X38.465030 Y28.103723 Z-0.125000 I1.152687 J1.165655
G03 X39.173783 Y28.148369 Z-0.125000 I0.279275 J1.214536
G03 X39.260861 Y29.891689 Z-0.125000 I-3.949835 J1.071125
G03 X38.749533 Y30.324913 Z-0.125000 I-0.511326 J-0.085142
(G00 Z5.000000)
S0
(End cutting path id: path59707)


(Start cutting path id: path59697)
(Change tool to Default tool)

(G00 Z5.000000)
G00 X39.727107 Y37.979716
S1000
(G01 Z-0.125000 F10000.0(Penetrate))
G03 X42.419688 Y34.393988 Z-0.125000 I9.554172 J4.370569 F10000.000000
G03 X47.695501 Y30.490952 Z-0.125000 I28.708789 J33.289018
G02 X48.015535 Y28.583008 Z-0.125000 I-6.369057 J-2.049145
G02 X47.806183 Y26.691222 Z-0.125000 I-7.266102 J-0.153382
G03 X47.027366 Y25.615139 Z-0.125000 I2.638640 J-2.729597
G03 X46.957711 Y24.753709 Z-0.125000 I1.075803 J-0.520520
G03 X47.646354 Y24.469411 Z-0.125000 I0.724655 J0.779118
G03 X48.322663 Y24.608941 Z-0.125000 I0.049709 J1.467879
G03 X48.178583 Y26.480497 Z-0.125000 I-4.314059 J0.609211
G03 X47.732406 Y26.654331 Z-0.125000 I-0.291310 J-0.088186
(G00 Z5.000000)
S0
(End cutting path id: path59697)


(Start cutting path id: path59685)
(Change tool to Default tool)

(G00 Z5.000000)
G00 X26.267098 Y37.206244
S1000
(G01 Z-0.125000 F10000.0(Penetrate))
G03 X33.976094 Y36.360711 Z-0.125000 I6.795059 J26.387282 F10000.000000
G03 X39.727107 Y37.979716 Z-0.125000 I-0.420035 J12.515891
G02 X38.324889 Y49.140357 Z-0.125000 I58.529755 J13.022059
G02 X38.671062 Y52.371654 Z-0.125000 I11.825655 J0.367291
G02 X39.352128 Y54.201210 Z-0.125000 I8.483819 J-2.116621
G02 X40.243515 Y54.949390 Z-0.125000 I1.320018 J-0.667588
G02 X45.222932 Y55.318659 Z-0.125000 I2.960842 J-6.168365
G02 X49.318608 Y52.920439 Z-0.125000 I-3.067662 J-9.935350
G02 X50.381470 Y47.265587 Z-0.125000 I-6.045910 J-4.063675
G02 X47.806137 Y40.783428 Z-0.125000 I-21.633827 J4.842360
(G00 Z5.000000)
S0
(End cutting path id: path59685)


(Footer)
M5
G00 X0.0000 Y0.0000
M2
(Using default footer. To add your own footer create file "footer" in the output dir.)
(end)
%