%
(Header)
(Generated by gcodetools from Inkscape.)
(Using default header. To add your own header create file "header" in the output dir.)
M3
(Header end.)
G21 (All units in mm)

(Start cutting path id: path27729)
(Change tool to Default tool)

(G00 Z5.000000)
G00 X43.515538 Y85.320988

(G01 Z-0.125000 F10000.0(Penetrate))
G02 X45.296090 Y88.559331 Z-0.125000 I3.869773 J-0.019058 F10000.000000
G02 X48.303332 Y89.463347 Z-0.125000 I3.085828 J-4.811258
(G00 Z5.000000)

(End cutting path id: path27729)


(Start cutting path id: path26553)
(Change tool to Default tool)

(G00 Z5.000000)
G00 X50.687189 Y106.401294

(G01 Z-0.125000 F10000.0(Penetrate))
G02 X76.599494 Y129.348788 Z-0.125000 I51.727848 J-32.307244 F10000.000000
G02 X102.881166 Y132.749215 Z-0.125000 I18.477881 J-39.549447
G01 X102.881166 Y132.749215 Z-0.125000
G01 X102.881166 Y132.749215 Z-0.125000
G02 X110.380585 Y144.476044 Z-0.125000 I32.411050 J-12.465785
G02 X116.431524 Y145.546777 Z-0.125000 I3.767661 J-3.658916
G02 X121.968395 Y140.069368 Z-0.125000 I-0.382161 J-5.923503
G02 X121.450177 Y128.232429 Z-0.125000 I-49.769432 J-3.750923
G02 X126.756783 Y125.814190 Z-0.125000 I-1.847691 J-11.086145
G02 X134.749604 Y118.446059 Z-0.125000 I-63.251727 J-76.633675
G03 X139.283678 Y123.722474 Z-0.125000 I-17.753090 J19.841694
G03 X143.281311 Y130.992688 Z-0.125000 I-45.668976 J29.845940
G02 X144.681026 Y123.991163 Z-0.125000 I-5.669159 J-4.774029
G02 X140.019188 Y113.176475 Z-0.125000 I-55.299754 J17.425691
G02 X141.364695 Y110.133423 Z-0.125000 I-4.071782 J-3.619357
G02 X141.273850 Y105.899430 Z-0.125000 I-16.567503 J-1.762495
G02 X167.764346 Y101.780984 Z-0.125000 I4.865826 J-55.957004
G02 X173.644154 Y95.611193 Z-0.125000 I-4.076055 J-9.771101
G02 X173.291460 Y92.962738 Z-0.125000 I-2.723214 J-0.985062
G02 X165.088249 Y86.204260 Z-0.125000 I-16.321379 J11.452706
G02 X155.144484 Y83.856910 Z-0.125000 I-11.157285 J25.028723
G02 X132.742142 Y86.828552 Z-0.125000 I-2.854953 J64.405523
G02 X120.293543 Y74.630371 Z-0.125000 I-22.420024 J10.429117
G02 X98.866245 Y68.510475 Z-0.125000 I-32.930107 J74.725470
G03 X101.650173 Y65.068758 Z-0.125000 I5.441487 J1.554711
G03 X112.855735 Y59.759201 Z-0.125000 I62.851842 J118.166590
G03 X119.334128 Y57.194501 Z-0.125000 I70.014084 J167.389972
G03 X125.716030 Y54.960115 Z-0.125000 I56.440939 J150.976578
G02 X127.846970 Y48.447375 Z-0.125000 I-1.995964 J-4.258058
G02 X123.708570 Y43.668150 Z-0.125000 I-13.084043 J7.148300
G02 X94.989641 Y38.864907 Z-0.125000 I-26.972238 J73.011053
G02 X82.423800 Y42.604238 Z-0.125000 I0.557990 J24.858214
G02 X73.868917 Y53.004134 Z-0.125000 I11.083721 J17.835936
G02 X72.518324 Y65.248351 Z-0.125000 I23.092377 J8.743791
G02 X46.223031 Y45.511124 Z-0.125000 I-53.752131 J44.227476
G02 X32.845968 Y43.383297 Z-0.125000 I-10.895123 J25.381775
G02 X23.543827 Y45.588320 Z-0.125000 I3.018599 J33.457889
G02 X16.560357 Y49.941464 Z-0.125000 I8.342329 J21.161203
G02 X11.904015 Y71.540184 Z-0.125000 I27.195072 J17.164103
G02 X16.591724 Y80.743438 Z-0.125000 I15.658153 J-2.180057
G02 X23.389394 Y85.673756 Z-0.125000 I20.964532 J-21.753521
G02 X31.114448 Y88.585081 Z-0.125000 I15.202651 J-28.634788
G02 X28.551597 Y108.258061 Z-0.125000 I10.161111 J11.327139
G02 X42.657346 Y122.210047 Z-0.125000 I39.725083 J-26.056291
G02 X44.550006 Y123.427981 Z-0.125000 I3.106703 J-2.748236
G02 X45.240376 Y123.131163 Z-0.125000 I0.170089 J-0.555665
G02 X45.624430 Y121.763632 Z-0.125000 I-3.404589 J-1.693832
G02 X45.885992 Y118.455774 Z-0.125000 I-235.957923 J-20.322152
G03 X46.805210 Y111.786280 Z-0.125000 I51.645328 J3.719883
G03 X50.687189 Y106.401294 Z-0.125000 I7.928543 J1.623870
G01 X50.687189 Y106.401294 Z-0.125000
(G00 Z5.000000)

(End cutting path id: path26553)


(Start cutting path id: path27705)
(Change tool to Default tool)

(G00 Z5.000000)
G00 X53.071049 Y110.432557

(G01 Z-0.125000 F10000.0(Penetrate))
G01 X69.381665 Y110.039820 Z-0.125000 F10000.000000
G01 X78.791638 Y124.342974 Z-0.125000
G01 X76.642173 Y129.136106 Z-0.125000
(G00 Z5.000000)

(End cutting path id: path27705)


(Start cutting path id: path27707)
(Change tool to Default tool)

(G00 Z5.000000)
G00 X78.791637 Y124.342976

(G01 Z-0.125000 F10000.0(Penetrate))
G01 X95.478652 Y123.966578 Z-0.125000 F10000.000000
G01 X100.622773 Y132.247350 Z-0.125000
(G00 Z5.000000)

(End cutting path id: path27707)


(Start cutting path id: path27723)
(Change tool to Default tool)

(G00 Z5.000000)
G00 X102.881166 Y132.749215

(G01 Z-0.125000 F10000.0(Penetrate))
G02 X112.161991 Y131.547725 Z-0.125000 I-0.363353 J-39.251973 F10000.000000
G02 X121.450173 Y128.232429 Z-0.125000 I-12.824213 J-50.597106
(G00 Z5.000000)

(End cutting path id: path27723)


(Start cutting path id: path27719)
(Change tool to Default tool)

(G00 Z5.000000)
G00 X121.450177 Y128.232429

(G01 Z-0.125000 F10000.0(Penetrate))
G02 X132.559506 Y114.993122 Z-0.125000 I-13.970998 J-23.003970 F10000.000000
G02 X132.820558 Y107.530493 Z-0.125000 I-10.542783 J-4.104680
G02 X130.183346 Y102.089852 Z-0.125000 I-19.316940 J6.003912
G02 X126.217896 Y97.744124 Z-0.125000 I-17.591980 J12.070483
G01 X126.217896 Y97.744124 Z-0.125000
(G00 Z5.000000)

(End cutting path id: path27719)


(Start cutting path id: path27721)
(Change tool to Default tool)

(G00 Z5.000000)
G00 X126.217896 Y97.744124

(G01 Z-0.125000 F10000.0(Penetrate))
G02 X114.395727 Y85.017373 Z-0.125000 I-40.534208 J25.798834 F10000.000000
G02 X102.379300 Y80.680704 Z-0.125000 I-13.166655 J17.666913
G01 X102.379300 Y80.680704 Z-0.125000
G02 X82.674600 Y75.848420 Z-0.125000 I-17.218660 J27.621602
G02 X69.381665 Y81.809902 Z-0.125000 I1.644493 J21.467957
G03 X57.898963 Y88.681369 Z-0.125000 I-26.831474 J-31.807338
G03 X48.303330 Y89.463345 Z-0.125000 I-6.077834 J-15.316102
G01 X48.303330 Y89.463345 Z-0.125000
G02 X48.042175 Y98.341774 Z-0.125000 I24.033228 J5.149979
G02 X50.687189 Y106.401294 Z-0.125000 I25.548904 J-3.920980
G01 X50.687189 Y106.401294 Z-0.125000
(G00 Z5.000000)

(End cutting path id: path27721)


(Start cutting path id: path27717)
(Change tool to Default tool)

(G00 Z5.000000)
G00 X77.913374 Y95.109327

(G01 Z-0.125000 F10000.0(Penetrate))
G01 X69.381665 Y81.809902 Z-0.125000 F10000.000000
(G00 Z5.000000)

(End cutting path id: path27717)


(Start cutting path id: path27715)
(Change tool to Default tool)

(G00 Z5.000000)
G00 X94.851321 Y95.109327

(G01 Z-0.125000 F10000.0(Penetrate))
G01 X77.913374 Y95.109327 Z-0.125000 F10000.000000
G01 X69.381665 Y110.039820 Z-0.125000
(G00 Z5.000000)

(End cutting path id: path27715)


(Start cutting path id: path27709)
(Change tool to Default tool)

(G00 Z5.000000)
G00 X95.478652 Y123.966578

(G01 Z-0.125000 F10000.0(Penetrate))
G01 X103.759429 Y109.232274 Z-0.125000 F10000.000000
G01 X120.446446 Y108.534221 Z-0.125000
G01 X128.476289 Y121.959114 Z-0.125000
(G00 Z5.000000)

(End cutting path id: path27709)


(Start cutting path id: path27711)
(Change tool to Default tool)

(G00 Z5.000000)
G00 X120.446444 Y108.534221

(G01 Z-0.125000 F10000.0(Penetrate))
G01 X126.217896 Y97.744124 Z-0.125000 F10000.000000
(G00 Z5.000000)

(End cutting path id: path27711)


(Start cutting path id: path27725)
(Change tool to Default tool)

(G00 Z5.000000)
G00 X141.273850 Y105.899430

(G01 Z-0.125000 F10000.0(Penetrate))
G02 X139.074097 Y95.247802 Z-0.125000 I-21.992096 J-1.011194 F10000.000000
G02 X132.742140 Y86.828556 Z-0.125000 I-24.870332 J12.113815
(G00 Z5.000000)

(End cutting path id: path27725)


(Start cutting path id: path27713)
(Change tool to Default tool)

(G00 Z5.000000)
G00 X103.759429 Y109.232274

(G01 Z-0.125000 F10000.0(Penetrate))
G01 X94.851321 Y95.109327 Z-0.125000 F10000.000000
G01 X102.379300 Y80.680704 Z-0.125000
(G00 Z5.000000)

(End cutting path id: path27713)


(Start cutting path id: path27727)
(Change tool to Default tool)

(G00 Z5.000000)
G00 X98.866246 Y68.510475

(G01 Z-0.125000 F10000.0(Penetrate))
G02 X85.589064 Y66.186974 Z-0.125000 I-15.229067 J47.926804 F10000.000000
G02 X73.647517 Y67.632211 Z-0.125000 I-1.471961 J37.894913
G03 X49.587091 Y82.442807 Z-0.125000 I-133.199786 J-189.439687
G03 X40.336219 Y86.577620 Z-0.125000 I-33.937295 J-63.512395
G03 X34.869524 Y88.353805 Z-0.125000 I-27.556519 J-75.512017
G03 X31.114448 Y88.585081 Z-0.125000 I-2.402348 J-8.405370
(G00 Z5.000000)

(End cutting path id: path27727)


(Start cutting path id: path27703)
(Change tool to Default tool)

(G00 Z5.000000)
G00 X21.686905 Y65.579110

(G01 Z-0.125000 F10000.0(Penetrate))
G02 X21.476318 Y64.566914 Z-0.125000 I-2.537878 J0.000000 F10000.000000
G02 X20.868380 Y63.697115 Z-0.125000 I-2.451949 J1.066413
G02 X19.968047 Y63.122087 Z-0.125000 I-1.924208 J2.020419
G02 X18.892285 Y62.917568 Z-0.125000 I-1.075761 J2.726975
G02 X16.896129 Y63.716031 Z-0.125000 I0.000001 J2.894427
G02 X16.097666 Y65.579110 Z-0.125000 I1.774361 J1.863079
G02 X16.896129 Y67.442189 Z-0.125000 I2.572824 J-0.000000
G02 X18.892285 Y68.240651 Z-0.125000 I1.996157 J-2.095964
G02 X19.968047 Y68.036133 Z-0.125000 I0.000001 J-2.931493
G02 X20.868380 Y67.461104 Z-0.125000 I-1.023875 J-2.595448
G02 X21.476318 Y66.591305 Z-0.125000 I-1.844010 J-1.936212
G02 X21.686905 Y65.579110 Z-0.125000 I-2.327291 J-1.012196
G01 X21.686905 Y65.579110 Z-0.125000
(G00 Z5.000000)

(End cutting path id: path27703)


(Start cutting path id: path27701)
(Change tool to Default tool)

(G00 Z5.000000)
G00 X21.864340 Y55.021667

(G01 Z-0.125000 F10000.0(Penetrate))
G03 X28.540302 Y51.143919 Z-0.125000 I8.632730 J7.176609 F10000.000000
G03 X32.421791 Y52.448844 Z-0.125000 I0.745055 J4.209032
G01 X32.421791 Y52.448844 Z-0.125000
(G00 Z5.000000)

(End cutting path id: path27701)


(Start cutting path id: path26557)
(Change tool to Default tool)

(G00 Z5.000000)
G00 X41.264757 Y60.068453

(G01 Z-0.125000 F10000.0(Penetrate))
G02 X41.044942 Y58.963366 Z-0.125000 I-2.887731 J0.000001 F10000.000000
G02 X40.418960 Y58.026519 Z-0.125000 I-2.667915 J1.105088
G02 X39.482112 Y57.400538 Z-0.125000 I-2.041933 J2.041935
G02 X38.377026 Y57.180723 Z-0.125000 I-1.105086 J2.667916
G02 X36.335092 Y58.026520 Z-0.125000 I0.000001 J2.887731
G02 X35.489296 Y60.068453 Z-0.125000 I2.041934 J2.041934
G02 X35.709111 Y61.173540 Z-0.125000 I2.887731 J0.000001
G02 X36.335092 Y62.110387 Z-0.125000 I2.667916 J-1.105086
G02 X37.271939 Y62.736369 Z-0.125000 I2.041935 J-2.041933
G02 X38.377026 Y62.956185 Z-0.125000 I1.105088 J-2.667915
G02 X39.482113 Y62.736370 Z-0.125000 I0.000001 J-2.887731
G02 X40.418961 Y62.110388 Z-0.125000 I-1.105086 J-2.667916
G02 X41.044942 Y61.173540 Z-0.125000 I-2.041934 J-2.041934
G02 X41.264757 Y60.068453 Z-0.125000 I-2.667916 J-1.105086
G01 X41.264757 Y60.068453 Z-0.125000
(G00 Z5.000000)

(End cutting path id: path26557)


(Footer)
M5
G00 X0.0000 Y0.0000
M2
(Using default footer. To add your own footer create file "footer" in the output dir.)
(end)
%