%
(Header)
(Generated by gcodetools from Inkscape.)
(Using default header. To add your own header create file "header" in the output dir.)
M3
(Header end.)
G21 (All units in mm)

(Start cutting path id: path8566)
(Change tool to Default tool)

G00 Z5.000000
G00 X127.902710 Y148.387240

G01 Z-0.125000 F8000.0(Penetrate)
G02 X121.115590 Y132.226258 Z-0.125000 I-22.902707 J0.112756 F8000.000000
G02 X104.889100 Y125.597280 Z-0.125000 I-16.115588 J16.273738
G02 X88.727573 Y132.383086 Z-0.125000 I0.110900 J22.902716
G02 X82.097275 Y148.609030 Z-0.125000 I16.272428 J16.116911
G02 X88.881764 Y164.771111 Z-0.125000 I22.902725 J-0.109034
G02 X105.107170 Y171.402730 Z-0.125000 I16.118236 J-16.271115
G02 X121.269801 Y164.619555 Z-0.125000 I-0.107173 J-22.902734
G02 X127.902740 Y148.394690 Z-0.125000 I-16.269804 J-16.119559
G00 Z5.000000

(End cutting path id: path8566)


(Footer)
M5
G00 X0.0000 Y0.0000
M2
(Using default footer. To add your own footer create file "footer" in the output dir.)
(end)
%