%
(Header)
(Generated by gcodetools from Inkscape.)
(Using default header. To add your own header create file "header" in the output dir.)
M3
(Header end.)
G21 (All units in mm)

(Start cutting path id: path6-5)
(Change tool to Default tool)

G00 Z0.000000
G00 X75.671898 Y9.858456

G01 Z-0.125000 F10000.0(Penetrate)
G01 X108.422960 Y9.858456 Z-0.125000 F10000.000000
G01 X115.586833 Y14.548755 Z-0.125000
G01 X127.441013 Y29.187383 Z-0.125000
G01 X127.441013 Y30.160589 Z-0.125000
G01 X141.876890 Y49.043475 Z-0.125000
G01 X144.451830 Y74.140680 Z-0.125000
G01 X149.581433 Y84.430299 Z-0.125000
G02 X150.212163 Y90.742217 Z-0.125000 I1223.796229 J-119.102511
G03 X150.115215 Y124.156496 Z-0.125000 I-158.461904 J16.247523
G03 X143.104447 Y150.994470 Z-0.125000 I-93.797579 J-10.167655
G03 X125.490113 Y167.767862 Z-0.125000 I-28.273728 J-12.055830
G03 X103.570587 Y173.531159 Z-0.125000 I-40.560993 J-109.700599
G03 X91.214122 Y174.499317 Z-0.125000 I-12.077460 J-74.806910
G03 X70.323971 Y171.645026 Z-0.125000 I0.294671 J-80.029811
G03 X58.875285 Y167.773007 Z-0.125000 I27.487505 J-100.135960
G03 X41.063320 Y150.510687 Z-0.125000 I12.371115 J-30.585736
G03 X34.220302 Y124.864128 Z-0.125000 I78.672471 J-34.727604
G03 X34.197904 Y93.373436 Z-0.125000 I149.272565 J-15.851524
G02 X34.914205 Y84.231872 Z-0.125000 I-174.218526 J-18.249998
G01 X39.870457 Y74.127717 Z-0.125000
G01 X42.296424 Y49.072325 Z-0.125000
G01 X57.065519 Y30.162172 Z-0.125000
G01 X57.036357 Y28.966526 Z-0.125000
G01 X68.889879 Y14.468324 Z-0.125000
G01 X75.671898 Y9.858456 Z-0.125000
G00 Z0.000000

(End cutting path id: path6-5)


(Start cutting path id: path5-6)
(Change tool to Default tool)

G00 Z0.000000
G00 X75.792594 Y34.382086

G01 Z-0.125000 F10000.0(Penetrate)
G01 X108.651251 Y34.266998 Z-0.125000 F10000.000000
G01 X113.197373 Y29.835963 Z-0.125000
G01 X120.217962 Y40.309301 Z-0.125000
G02 X121.603372 Y44.726639 Z-0.125000 I11.385289 J-1.144847
G02 X129.508224 Y58.473916 Z-0.125000 I486.846618 J-270.796398
G03 X137.398737 Y71.816146 Z-0.125000 I-3316.268070 J1970.225132
G03 X143.006104 Y82.605475 Z-0.125000 I-99.342790 J58.481628
G01 X138.379435 Y101.417459 Z-0.125000
G01 X137.803230 Y152.261805 Z-0.125000
G03 X123.923300 Y158.094557 Z-0.125000 I-43.236362 J-83.456477
G03 X110.520552 Y161.231779 Z-0.125000 I-24.538987 J-74.636700
G01 X104.982951 Y116.404144 Z-0.125000
G01 X92.243424 Y114.329326 Z-0.125000
G01 X79.294388 Y116.437937 Z-0.125000
G01 X73.752525 Y161.205378 Z-0.125000
G03 X58.893677 Y157.835196 Z-0.125000 I9.742411 J-77.394272
G03 X46.502778 Y152.149163 Z-0.125000 I19.696964 J-59.267285
G01 X45.935075 Y101.387047 Z-0.125000
G01 X41.322238 Y82.738527 Z-0.125000
G03 X47.826259 Y70.336852 Z-0.125000 I117.045265 J53.477690
G03 X55.820844 Y56.983445 Z-0.125000 I3332.523538 J1986.087058
G02 X63.765858 Y43.179088 Z-0.125000 I-355.088350 J-213.557477
G02 X64.047505 Y40.230560 Z-0.125000 I-3.271774 J-1.800240
G01 X71.197861 Y29.944321 Z-0.125000
G01 X75.792594 Y34.382086 Z-0.125000
G00 Z0.000000

(End cutting path id: path5-6)


(Start cutting path id: path3-6)
(Change tool to Default tool)

G00 Z0.000000
G00 X64.352957 Y36.477587

G01 Z-0.125000 F10000.0(Penetrate)
G01 X71.308394 Y26.721947 Z-0.125000 F10000.000000
G01 X75.943886 Y31.605772 Z-0.125000
G01 X108.362858 Y31.605772 Z-0.125000
G01 X112.938062 Y26.796618 Z-0.125000
G01 X120.079175 Y36.664975 Z-0.125000
G01 X121.114652 Y29.298133 Z-0.125000
G01 X113.983471 Y17.313269 Z-0.125000
G01 X112.788718 Y17.350613 Z-0.125000
G01 X106.590937 Y20.337487 Z-0.125000
G01 X95.950171 Y20.300143 Z-0.125000
G01 X94.718082 Y21.569577 Z-0.125000
G01 X89.501585 Y21.569577 Z-0.125000
G01 X88.408294 Y20.300143 Z-0.125000
G01 X77.530699 Y20.300143 Z-0.125000
G01 X71.405327 Y17.502213 Z-0.125000
G01 X70.374995 Y17.499890 Z-0.125000
G01 X63.180078 Y29.414604 Z-0.125000
G01 X64.352957 Y36.477587 Z-0.125000
G00 Z0.000000

(End cutting path id: path3-6)


(Start cutting path id: path1-4)
(Change tool to Default tool)

G00 Z0.000000
G00 X52.308500 Y95.161152

G01 Z-0.125000 F10000.0(Penetrate)
G01 X79.976286 Y82.224878 Z-0.125000 F10000.000000
G01 X76.253806 Y76.627961 Z-0.125000
G01 X58.169426 Y80.033632 Z-0.125000
G01 X51.384482 Y87.399389 Z-0.125000
G01 X52.308500 Y95.161152 Z-0.125000
G00 Z0.000000

(End cutting path id: path1-4)


(Start cutting path id: path2-8)
(Change tool to Default tool)

G00 Z0.000000
G00 X131.844082 Y95.161152

G01 Z-0.125000 F10000.0(Penetrate)
G01 X104.176297 Y82.224878 Z-0.125000 F10000.000000
G01 X107.898777 Y76.627961 Z-0.125000
G01 X125.983157 Y80.033632 Z-0.125000
G01 X132.768100 Y87.399389 Z-0.125000
G01 X131.844082 Y95.161152 Z-0.125000
G00 Z0.000000

(End cutting path id: path2-8)


(Footer)
M5
G00 X0.0000 Y0.0000
M2
(Using default footer. To add your own footer create file "footer" in the output dir.)
(end)
%