%
(Header)
(Generated by gcodetools from Inkscape.)
(Using default header. To add your own header create file "header" in the output dir.)
M3
(Header end.)
G21 (All units in mm)

(Start cutting path id: path2-31)
(Change tool to Default tool)

G00 Z0.000000
G00 X86.754297 Y166.494756

G01 Z-0.125000 F10000.0(Penetrate)
G02 X91.935112 Y171.986428 Z-0.125000 I5.500998 J0.000000 F10000.000000
G02 X97.775604 Y166.494756 Z-0.125000 I0.321246 J-5.509920
G01 X98.020525 Y119.062307 Z-0.125000
G02 X92.519064 Y113.420644 Z-0.125000 I-5.622818 J-0.020118
G02 X86.754297 Y119.062307 Z-0.125000 I-0.121791 J5.641662
G01 X86.754297 Y166.494756 Z-0.125000
G00 Z0.000000

(End cutting path id: path2-31)


(Start cutting path id: path1-8)
(Change tool to Default tool)

G00 Z0.000000
G00 X82.395152 Y94.228248

G01 Z-0.125000 F10000.0(Penetrate)
G01 X38.857479 Y103.860836 Z-0.125000 F10000.000000
G01 X38.906148 Y108.522630 Z-0.125000
G01 X144.869185 Y108.714774 Z-0.125000
G01 X145.167727 Y104.121462 Z-0.125000
G01 X101.639111 Y94.313986 Z-0.125000
G01 X99.612135 Y21.551984 Z-0.125000
G01 X106.661131 Y14.801533 Z-0.125000
G03 X107.656737 Y25.388176 Z-0.125000 I-53.489123 J10.370444
G02 X111.753479 Y55.964827 Z-0.125000 I112.813943 J0.447654
G02 X123.218653 Y78.858416 Z-0.125000 I64.012284 J-17.739842
G02 X151.963711 Y98.203460 Z-0.125000 I43.540891 J-33.669137
G01 X151.637153 Y92.937723 Z-0.125000
G01 X146.840842 Y92.651985 Z-0.125000
G01 X135.166419 Y68.282645 Z-0.125000
G03 X121.494953 Y58.532991 Z-0.125000 I15.502152 J-36.198155
G03 X114.714302 Y47.430960 Z-0.125000 I25.763551 J-23.356969
G03 X111.270815 Y33.773717 Z-0.125000 I58.369691 J-21.979859
G03 X108.919377 Y16.033478 Z-0.125000 I4312.104943 J-580.588049
G01 X149.739040 Y40.443636 Z-0.125000
G01 X151.535104 Y48.566748 Z-0.125000
G01 X151.657555 Y78.936577 Z-0.125000
G01 X153.249531 Y80.365267 Z-0.125000
G01 X153.167891 Y90.855920 Z-0.125000
G01 X155.494611 Y91.876411 Z-0.125000
G01 X155.263701 Y110.677369 Z-0.125000
G01 X152.351498 Y118.000995 Z-0.125000
G03 X149.089401 Y118.527868 Z-0.125000 I-5.438986 J-23.313128
G03 X145.330516 Y118.613290 Z-0.125000 I-2.503461 J-27.416420
G03 X139.841231 Y138.653361 Z-0.125000 I-77.136805 J-10.357126
G03 X131.185489 Y151.953737 Z-0.125000 I-41.790318 J-17.729972
G03 X118.475932 Y161.272689 Z-0.125000 I-31.184105 J-29.203743
G03 X100.183967 Y166.821313 Z-0.125000 I-27.177739 J-56.670384
G01 X100.469703 Y119.062307 Z-0.125000
G02 X99.099774 Y115.087354 Z-0.125000 I-7.740061 J0.443994
G02 X92.637800 Y111.682619 Z-0.125000 I-6.505831 J4.513081
G02 X86.293986 Y114.645576 Z-0.125000 I-0.045276 J8.175723
G02 X84.754134 Y119.062307 Z-0.125000 I5.171033 J4.279627
G01 X84.482405 Y166.821314 Z-0.125000
G03 X69.049558 Y162.572712 Z-0.125000 I15.274743 J-85.638640
G03 X55.802010 Y154.555091 Z-0.125000 I14.980534 J-39.705695
G03 X46.618691 Y142.673146 Z-0.125000 I27.137478 J-30.463792
G03 X38.627915 Y118.858210 Z-0.125000 I75.244376 J-38.495286
G01 X32.096770 Y118.286733 Z-0.125000
G01 X29.076115 Y110.816736 Z-0.125000
G01 X28.872016 Y91.549854 Z-0.125000
G01 X30.749721 Y90.855920 Z-0.125000
G01 X30.749721 Y80.487726 Z-0.125000
G01 X32.260049 Y78.854939 Z-0.125000
G01 X32.300860 Y48.117732 Z-0.125000
G01 X34.627590 Y40.566095 Z-0.125000
G01 X75.161514 Y16.033478 Z-0.125000
G02 X70.669613 Y41.785053 Z-0.125000 I8830.038450 J1553.509426
G03 X48.996110 Y68.037728 Z-0.125000 I-33.820747 J-5.848631
G01 X36.791031 Y92.733624 Z-0.125000
G01 X31.933491 Y92.774435 Z-0.125000
G01 X31.892680 Y98.652467 Z-0.125000
G02 X59.685783 Y80.400392 Z-0.125000 I-18.844602 J-58.982191
G02 X70.957128 Y60.405629 Z-0.125000 I-42.550528 J-37.160660
G02 X75.649374 Y34.535470 Z-0.125000 I-97.124081 J-30.976662
G03 X77.651513 Y15.135445 Z-0.125000 I184.798003 J9.268371
G01 X84.794956 Y21.952328 Z-0.125000
G01 X82.395152 Y94.228248 Z-0.125000
G00 Z0.000000

(End cutting path id: path1-8)


(Footer)
M5
G00 X0.0000 Y0.0000
M2
(Using default footer. To add your own footer create file "footer" in the output dir.)
(end)
%