%
(Header)
(Generated by gcodetools from Inkscape.)
(Using default header. To add your own header create file "header" in the output dir.)
M3
(Header end.)
G21 (All units in mm)

(Start cutting path id: path9-1)
(Change tool to Default tool)

G00 Z0.000000
G00 X130.558717 Y56.611018

(G01 Z-0.125000 F10000.0(Penetrate))
G03 X136.321745 Y59.191638 Z-0.125000 I-0.404546 J8.628725 F10000.000000
G03 X139.264050 Y65.609402 Z-0.125000 I-7.436993 J7.292934
G03 X142.038707 Y59.455055 Z-0.125000 I9.631691 J0.639757
G03 X148.141767 Y56.714447 Z-0.125000 I6.606184 J6.545556
G03 X141.952576 Y53.537853 Z-0.125000 I1.565418 J-10.667744
G03 X139.333004 Y47.681586 Z-0.125000 I6.774467 J-6.544308
G03 X136.394165 Y53.749293 Z-0.125000 I-10.547611 J-1.363086
G03 X130.558717 Y56.611018 Z-0.125000 I-6.946170 J-6.783691
G01 X130.558717 Y56.611018 Z-0.125000
G00 Z0.000000

(End cutting path id: path9-1)


(Start cutting path id: path7)
(Change tool to Default tool)

G00 Z0.000000
G00 X153.744919 Y77.224655

(G01 Z-0.125000 F10000.0(Penetrate))
G02 X152.825879 Y74.953704 Z-0.125000 I-3.265286 J0.000000 F10000.000000
G02 X150.653812 Y74.031061 Z-0.125000 I-2.177091 J2.107225
G02 X148.478918 Y74.946535 Z-0.125000 I-0.005023 J3.029258
G02 X147.552767 Y77.214389 Z-0.125000 I2.338474 J2.278029
G02 X148.464687 Y79.488414 Z-0.125000 I3.265910 J0.010178
G02 X150.633906 Y80.418216 Z-0.125000 I2.184292 J-2.100646
G02 X152.811605 Y79.509921 Z-0.125000 I0.015065 J-3.028619
G02 X153.744856 Y77.245188 Z-0.125000 I-2.330676 J-2.285078
G00 Z0.000000

(End cutting path id: path7)


(Start cutting path id: path8)
(Change tool to Default tool)

G00 Z0.000000
G00 X119.315390 Y160.090072

(G01 Z-0.125000 F10000.0(Penetrate))
G02 X118.406020 Y157.934537 Z-0.125000 I-3.009385 J0.000001 F10000.000000
G02 X116.165856 Y157.021663 Z-0.125000 I-2.245195 J2.304555
G02 X113.922652 Y157.927493 Z-0.125000 I-0.005032 J3.217996
G02 X113.006195 Y160.080208 Z-0.125000 I2.093455 J2.162664
G02 X113.908471 Y162.238544 Z-0.125000 I3.008830 J0.009945
G02 X116.145573 Y163.158452 Z-0.125000 I2.252190 J-2.296919
G02 X118.391792 Y162.259674 Z-0.125000 I0.015097 J-3.218527
G02 X119.315326 Y160.109801 Z-0.125000 I-2.086875 J-2.169773
G00 Z0.000000

(End cutting path id: path8)


(Start cutting path id: path9)
(Change tool to Default tool)

G00 Z0.000000
G00 X41.949976 Y143.058650

(G01 Z-0.125000 F10000.0(Penetrate))
G03 X47.713004 Y145.639270 Z-0.125000 I-0.404546 J8.628725 F10000.000000
G03 X50.655309 Y152.057034 Z-0.125000 I-7.436993 J7.292934
G03 X53.429966 Y145.902687 Z-0.125000 I9.631691 J0.639757
G03 X59.533026 Y143.162079 Z-0.125000 I6.606184 J6.545556
G03 X53.343835 Y139.985485 Z-0.125000 I1.565418 J-10.667744
G03 X50.724263 Y134.129218 Z-0.125000 I6.774467 J-6.544308
G03 X47.785424 Y140.196925 Z-0.125000 I-10.547611 J-1.363086
G03 X41.949976 Y143.058650 Z-0.125000 I-6.946170 J-6.783691
G01 X41.949976 Y143.058650 Z-0.125000
G00 Z0.000000

(End cutting path id: path9)


(Start cutting path id: path4)
(Change tool to Default tool)

G00 Z0.000000
G00 X48.965808 Y112.456663

(G01 Z-0.125000 F10000.0(Penetrate))
G03 X37.736679 Y107.595027 Z-0.125000 I39.119162 J-105.754227 F10000.000000
G03 X27.639734 Y101.724464 Z-0.125000 I40.914505 J-81.988292
G03 X20.758033 Y96.255204 Z-0.125000 I30.198871 J-45.061833
G03 X17.003465 Y91.036614 Z-0.125000 I11.369814 J-12.140055
G03 X16.505110 Y85.777123 Z-0.125000 I7.311880 J-3.346181
G03 X20.626219 Y79.225285 Z-0.125000 I11.905476 J2.916540
G03 X31.888691 Y73.966748 Z-0.125000 I15.873879 J19.307913
G03 X54.071429 Y71.745417 Z-0.125000 I24.012392 J127.921740
G03 X76.775991 Y72.686039 Z-0.125000 I2.881245 J204.942669
G03 X96.750481 Y75.432861 Z-0.125000 I-24.509855 J252.231269
G03 X115.173246 Y79.665767 Z-0.125000 I-33.601778 J188.451045
G03 X134.950912 Y86.344830 Z-0.125000 I-56.259845 J199.215278
G03 X153.729106 Y95.279070 Z-0.125000 I-56.243207 J142.414633
G03 X163.497117 Y103.083069 Z-0.125000 I-18.983783 J33.776533
G03 X167.941652 Y111.954426 Z-0.125000 I-13.791969 J12.458784
G03 X166.966571 Y116.774025 Z-0.125000 I-6.286294 J1.236620
G03 X162.404836 Y120.791953 Z-0.125000 I-9.980794 J-6.733109
G03 X153.968832 Y124.055965 Z-0.125000 I-20.867854 J-41.400381
G03 X141.904625 Y126.495457 Z-0.125000 I-22.955710 J-82.473875
G03 X128.570901 Y127.461044 Z-0.125000 I-15.391756 J-119.998663
G00 Z0.000000

(End cutting path id: path4)


(Start cutting path id: path3)
(Change tool to Default tool)

G00 Z0.000000
G00 X48.089249 Y108.457969

(G01 Z-0.125000 F10000.0(Penetrate))
G03 X40.541171 Y104.614083 Z-0.125000 I29.782701 J-67.815918 F10000.000000
G03 X33.792189 Y100.053942 Z-0.125000 I31.131990 J-53.349454
G03 X27.576954 Y92.140647 Z-0.125000 I12.730005 J-16.395783
G03 X29.659079 Y83.362472 Z-0.125000 I6.768599 J-3.030553
G03 X40.168921 Y78.627651 Z-0.125000 I14.126876 J17.325594
G03 X60.444994 Y77.024206 Z-0.125000 I19.705896 J120.186906
G03 X81.241902 Y78.248466 Z-0.125000 I-0.901537 J192.568848
G03 X97.546257 Y80.678671 Z-0.125000 I-26.505571 J233.735538
G03 X113.274282 Y84.374023 Z-0.125000 I-30.794124 J166.383025
G03 X130.201292 Y90.123853 Z-0.125000 I-50.247365 J175.714728
G03 X146.296371 Y97.773310 Z-0.125000 I-48.712205 J123.251836
G03 X154.188443 Y104.186319 Z-0.125000 I-14.575807 J26.000133
G03 X157.520632 Y110.812697 Z-0.125000 I-11.251904 J9.809227
G03 X156.989207 Y114.499270 Z-0.125000 I-5.192130 J1.133136
G03 X153.951815 Y117.687697 Z-0.125000 I-7.512921 J-4.116066
G03 X148.431452 Y120.303491 Z-0.125000 I-14.913157 J-24.339701
G03 X140.335739 Y122.414617 Z-0.125000 I-17.179887 J-49.302941
G03 X131.351819 Y123.432762 Z-0.125000 I-12.687847 J-71.809924
G00 Z0.000000

(End cutting path id: path3)


(Start cutting path id: path2)
(Change tool to Default tool)

G00 Z0.000000
G00 X47.438796 Y102.872715

(G01 Z-0.125000 F10000.0(Penetrate))
G03 X42.920665 Y99.993611 Z-0.125000 I15.462032 J-29.248975 F10000.000000
G03 X39.498519 Y96.683227 Z-0.125000 I11.970416 J-15.798586
G03 X37.909819 Y93.865808 Z-0.125000 I7.503689 J-6.087849
G03 X37.888273 Y91.101043 Z-0.125000 I3.928626 J-1.413083
G03 X39.436471 Y88.927502 Z-0.125000 I4.426135 J1.514549
G03 X45.242490 Y85.775833 Z-0.125000 I12.348449 J15.824597
G03 X60.090092 Y83.291602 Z-0.125000 I14.827228 J43.006250
G03 X98.461504 Y87.080729 Z-0.125000 I-0.088267 J197.076615
G03 X132.858867 Y98.076813 Z-0.125000 I-31.249437 J157.050866
G03 X143.845473 Y106.117004 Z-0.125000 I-13.427915 J29.875198
G03 X142.569192 Y115.237188 Z-0.125000 I-4.495273 J4.020324
G03 X133.877113 Y118.720865 Z-0.125000 I-13.818407 J-21.892549
G00 Z0.000000

(End cutting path id: path2)


(Start cutting path id: path5)
(Change tool to Default tool)

G00 Z0.000000
G00 X57.517657 Y71.732072

(G01 Z-0.125000 F10000.0(Penetrate))
G03 X73.791487 Y58.362894 Z-0.125000 I29.742081 J19.614621 F10000.000000
G03 X103.025215 Y55.988076 Z-0.125000 I18.367460 J44.981983
G03 X125.636976 Y68.947267 Z-0.125000 I-10.028149 J43.704141
G03 X135.314996 Y86.489081 Z-0.125000 I-29.317542 J27.615467
G00 Z0.000000

(End cutting path id: path5)


(Start cutting path id: path1)
(Change tool to Default tool)

G00 Z0.000000
G00 X50.208336 Y84.611214

(G01 Z-0.125000 F10000.0(Penetrate))
G02 X47.709726 Y105.332081 Z-0.125000 I50.823575 J16.639602 F10000.000000
G02 X53.005533 Y123.016597 Z-0.125000 I43.222600 J-3.308245
G02 X65.027310 Y136.428421 Z-0.125000 I35.274435 J-19.524661
G02 X85.924835 Y145.006575 Z-0.125000 I29.169823 J-41.317919
G02 X127.119082 Y130.550458 Z-0.125000 I7.422524 J-44.770487
G02 X137.583591 Y101.223101 Z-0.125000 I-30.566529 J-27.437304
G00 Z0.000000

(End cutting path id: path1)


(Start cutting path id: path6)
(Change tool to Default tool)

G00 Z0.000000
G00 X44.459625 Y54.925227

(G01 Z-0.125000 F10000.0(Penetrate))
G02 X43.640124 Y52.925032 Z-0.125000 I-2.850731 J-0.000001 F10000.000000
G02 X41.679864 Y52.102334 Z-0.125000 I-1.964754 J1.934734
G02 X39.717021 Y52.918654 Z-0.125000 I-0.004493 J2.757186
G02 X38.891167 Y54.916152 Z-0.125000 I2.024610 J2.006535
G02 X39.704307 Y56.919021 Z-0.125000 I2.850967 J0.009039
G02 X41.661963 Y57.748089 Z-0.125000 I1.971138 J-1.928582
G02 X43.627369 Y56.938155 Z-0.125000 I0.013478 J-2.756914
G02 X44.459567 Y54.943375 Z-0.125000 I-2.017969 J-2.012854
G00 Z0.000000

(End cutting path id: path6)


(Footer)
M5
G00 X0.0000 Y0.0000
M2
(Using default footer. To add your own footer create file "footer" in the output dir.)
(end)
%