%
(Header)
(Generated by gcodetools from Inkscape.)
(Using default header. To add your own header create file "header" in the output dir.)
M3
(Header end.)
G21 (All units in mm)

(Start cutting path id: path20)
(Change tool to Default tool)

G00 Z0.000000
G00 X36.326771 Y66.382315

G01 Z-0.125000 F10000.0(Penetrate)
G02 X39.124259 Y63.809789 Z-0.125000 I-12.735286 J-16.656288 F10000.000000
G02 X41.714197 Y60.067922 Z-0.125000 I-12.897238 J-11.694088
G02 X51.575701 Y51.004045 Z-0.125000 I-17.814545 J-29.278833
G02 X57.556005 Y38.379096 Z-0.125000 I-30.105792 J-21.989674
G02 X69.798467 Y32.488551 Z-0.125000 I-23.032321 J-63.535803
G02 X80.582993 Y24.288223 Z-0.125000 I-35.078873 J-57.325108
G02 X93.248965 Y26.273496 Z-0.125000 I10.922263 J-28.286791
G02 X103.851748 Y24.162252 Z-0.125000 I-2.243311 J-38.945521
G02 X116.184175 Y33.314042 Z-0.125000 I43.460690 J-45.679997
G02 X127.175304 Y37.974585 Z-0.125000 I25.618609 J-45.126647
G02 X131.658786 Y49.069965 Z-0.125000 I26.219714 J-4.141462
G02 X142.849284 Y60.334418 Z-0.125000 I38.265961 J-26.823988
G02 X146.437031 Y64.774627 Z-0.125000 I26.103044 J-17.422026
G02 X147.955133 Y65.592787 Z-0.125000 I2.054807 J-1.995207
G00 Z0.000000

(End cutting path id: path20)


(Start cutting path id: path18)
(Change tool to Default tool)

G00 Z0.000000
G00 X109.435754 Y62.874317

G01 Z-0.125000 F10000.0(Penetrate)
G02 X121.839921 Y46.202316 Z-0.125000 I-164.393653 J-135.261261 F10000.000000
G02 X131.884375 Y30.152110 Z-0.125000 I-248.470262 J-166.664411
G00 Z0.000000

(End cutting path id: path18)


(Start cutting path id: path8-6)
(Change tool to Default tool)

G00 Z0.000000
G00 X104.833765 Y77.353303

G01 Z-0.125000 F10000.0(Penetrate)
G02 X112.055801 Y84.948006 Z-0.125000 I109.043186 J-96.461331 F10000.000000
G02 X122.765604 Y92.450320 Z-0.125000 I28.096409 J-28.713100
G03 X138.406955 Y103.122079 Z-0.125000 I-27.214056 J56.685479
G03 X138.207497 Y103.628893 Z-0.125000 I-0.199458 J0.214158
G02 X135.785213 Y84.868155 Z-0.125000 I-42.888441 J-3.999223
G02 X122.392333 Y71.313655 Z-0.125000 I-21.488957 J7.838885
G02 X110.822219 Y71.616626 Z-0.125000 I-5.414382 J14.307169
G02 X104.833765 Y77.353303 Z-0.125000 I4.868815 J11.076482
G01 X104.833765 Y77.353303 Z-0.125000
G00 Z0.000000

(End cutting path id: path8-6)


(Start cutting path id: path13)
(Change tool to Default tool)

G00 Z0.000000
G00 X96.711989 Y81.311801

G01 Z-0.125000 F10000.0(Penetrate)
G03 X96.997227 Y79.941633 Z-0.125000 I2.672478 J-0.158425 F10000.000000
G03 X97.815916 Y79.136965 Z-0.125000 I1.606037 J0.815211
G00 Z0.000000

(End cutting path id: path13)


(Start cutting path id: path16)
(Change tool to Default tool)

G00 Z0.000000
G00 X93.892962 Y75.141197

G01 Z-0.125000 F10000.0(Penetrate)
G02 X95.835691 Y76.407198 Z-0.125000 I3.494002 J-3.238087 F10000.000000
G02 X97.561899 Y76.677006 Z-0.125000 I1.618850 J-4.700296
G00 Z0.000000

(End cutting path id: path16)


(Start cutting path id: path15)
(Change tool to Default tool)

G00 Z0.000000
G00 X90.859025 Y74.759459

G01 Z-0.125000 F10000.0(Penetrate)
G03 X88.925835 Y76.073239 Z-0.125000 I-3.837181 J-3.567094 F10000.000000
G03 X86.549487 Y76.522365 Z-0.125000 I-2.387211 J-6.119606
G00 Z0.000000

(End cutting path id: path15)


(Start cutting path id: path12)
(Change tool to Default tool)

G00 Z0.000000
G00 X87.908958 Y81.037033

G01 Z-0.125000 F10000.0(Penetrate)
G02 X87.568074 Y79.863682 Z-0.125000 I-1.699525 J-0.142444 F10000.000000
G02 X86.352099 Y78.985233 Z-0.125000 I-2.047832 J1.553850
G00 Z0.000000

(End cutting path id: path12)


(Start cutting path id: path4-6)
(Change tool to Default tool)

G00 Z0.000000
G00 X91.638206 Y81.836506

G01 Z-0.125000 F10000.0(Penetrate)
G02 X90.038712 Y80.286337 Z-0.125000 I-1.879928 J0.339467 F10000.000000
G02 X87.715531 Y81.251829 Z-0.125000 I-0.358444 J2.415288
G02 X57.579097 Y129.183347 Z-0.125000 I306.311242 J226.029691
G02 X45.989301 Y160.727133 Z-0.125000 I110.548430 J58.518679
G00 Z0.000000

(End cutting path id: path4-6)


(Start cutting path id: path9-4)
(Change tool to Default tool)

G00 Z0.000000
G00 X39.350241 Y127.787662

G01 Z-0.125000 F10000.0(Penetrate)
G03 X58.670448 Y106.399742 Z-0.125000 I142.974762 J109.732277 F10000.000000
G03 X65.795749 Y100.626123 Z-0.125000 I41.922293 J44.453351
G02 X74.757982 Y93.571175 Z-0.125000 I-53.269999 J-76.891437
G02 X85.539126 Y80.815592 Z-0.125000 I-39.475361 J-44.298919
G02 X86.490336 Y76.487039 Z-0.125000 I-5.562209 J-3.491101
G02 X85.337664 Y72.555609 Z-0.125000 I-12.967340 J1.667255
G02 X70.221999 Y62.244160 Z-0.125000 I-16.365181 J7.755063
G02 X47.607009 Y71.466113 Z-0.125000 I-1.912373 J27.650628
G02 X41.285501 Y80.907787 Z-0.125000 I30.988981 J27.585196
G02 X36.014675 Y96.382732 Z-0.125000 I59.274120 J28.824102
G02 X34.938106 Y112.067466 Z-0.125000 I57.021468 J11.793154
G02 X39.350241 Y127.787662 Z-0.125000 I39.681393 J-2.657978
G01 X39.350241 Y127.787662 Z-0.125000
G00 Z0.000000

(End cutting path id: path9-4)


(Start cutting path id: path5-8)
(Change tool to Default tool)

G00 Z0.000000
G00 X31.532840 Y120.093664

G01 Z-0.125000 F10000.0(Penetrate)
G03 X40.792928 Y129.663277 Z-0.125000 I-27.088991 J35.477905 F10000.000000
G03 X50.291705 Y146.412164 Z-0.125000 I-75.998170 J54.168711
G03 X69.959555 Y151.770971 Z-0.125000 I-16.878086 J100.717619
G03 X91.769293 Y164.542315 Z-0.125000 I-27.738065 J72.376554
G03 X112.629233 Y152.332192 Z-0.125000 I58.486471 J75.995320
G03 X134.582789 Y146.279005 Z-0.125000 I33.400035 J78.297542
G03 X143.791556 Y129.323015 Z-0.125000 I87.522136 J36.554484
G03 X152.903652 Y119.804870 Z-0.125000 I33.281013 J22.740469
G00 Z0.000000

(End cutting path id: path5-8)


(Start cutting path id: path11)
(Change tool to Default tool)

G00 Z0.000000
G00 X144.774262 Y127.787662

G01 Z-0.125000 F10000.0(Penetrate)
G02 X125.454055 Y106.399742 Z-0.125000 I-142.974762 J109.732277 F10000.000000
G02 X118.328754 Y100.626123 Z-0.125000 I-41.922293 J44.453351
G03 X109.366521 Y93.571175 Z-0.125000 I53.269999 J-76.891437
G03 X98.585377 Y80.815592 Z-0.125000 I39.475361 J-44.298919
G03 X97.634167 Y76.487039 Z-0.125000 I5.562209 J-3.491101
G03 X98.786839 Y72.555609 Z-0.125000 I12.967340 J1.667255
G03 X113.902503 Y62.244160 Z-0.125000 I16.365181 J7.755063
G03 X136.517494 Y71.466113 Z-0.125000 I1.912373 J27.650628
G03 X142.839001 Y80.907787 Z-0.125000 I-30.988981 J27.585196
G03 X148.109828 Y96.382732 Z-0.125000 I-59.274120 J28.824102
G03 X149.186397 Y112.067466 Z-0.125000 I-57.021468 J11.793154
G03 X144.774262 Y127.787662 Z-0.125000 I-39.681393 J-2.657978
G01 X144.774262 Y127.787662 Z-0.125000
G00 Z0.000000

(End cutting path id: path11)


(Start cutting path id: path2-3)
(Change tool to Default tool)

G00 Z0.000000
G00 X92.517811 Y177.785151

G01 Z-0.125000 F10000.0(Penetrate)
G02 X117.067093 Y174.155180 Z-0.125000 I-0.696880 J-89.540630 F10000.000000
G02 X135.418291 Y163.794075 Z-0.125000 I-13.134323 J-44.695046
G02 X146.833748 Y146.970497 Z-0.125000 I-29.822432 J-32.520396
G02 X153.101875 Y113.718009 Z-0.125000 I-89.606779 J-34.107983
G02 X152.071088 Y88.023581 Z-0.125000 I-262.394586 J-2.341373
G02 X145.606272 Y57.912675 Z-0.125000 I-125.644438 J11.226427
G02 X124.341983 Y21.121199 Z-0.125000 I-106.182515 J36.829301
G02 X92.885386 Y6.579769 Z-0.125000 I-31.856414 J27.618264
G02 X64.135297 Y18.581084 Z-0.125000 I-0.374968 J39.538935
G02 X41.255879 Y52.261222 Z-0.125000 I84.525357 J82.030566
G02 X33.569289 Y78.986316 Z-0.125000 I89.004295 J40.067087
G02 X31.269432 Y109.166591 Z-0.125000 I245.666209 J33.898506
G02 X38.008799 Y147.460697 Z-0.125000 I103.359533 J1.549873
G02 X49.963759 Y164.687218 Z-0.125000 I40.682022 J-15.471198
G02 X69.728292 Y175.060286 Z-0.125000 I31.305367 J-35.632397
G02 X92.517811 Y177.785151 Z-0.125000 I22.083183 J-88.030649
G01 X92.517811 Y177.785151 Z-0.125000
G00 Z0.000000

(End cutting path id: path2-3)


(Start cutting path id: path3-4)
(Change tool to Default tool)

G00 Z0.000000
G00 X91.802494 Y177.788432

G01 Z-0.125000 F10000.0(Penetrate)
G01 X91.562981 Y82.230814 Z-0.125000 F10000.000000
G03 X93.772612 Y79.897009 Z-0.125000 I2.331016 J-0.005944
G03 X96.711991 Y81.311799 Z-0.125000 I0.176937 J3.393228
G03 X129.648944 Y135.387228 Z-0.125000 I-346.113446 J247.883741
G03 X138.758672 Y160.384624 Z-0.125000 I-96.400726 J49.289651
G00 Z0.000000

(End cutting path id: path3-4)


(Start cutting path id: path7-5)
(Change tool to Default tool)

G00 Z0.000000
G00 X79.687842 Y77.353303

G01 Z-0.125000 F10000.0(Penetrate)
G03 X72.465806 Y84.948006 Z-0.125000 I-109.043186 J-96.461331 F10000.000000
G03 X61.756003 Y92.450320 Z-0.125000 I-28.096409 J-28.713100
G02 X46.114652 Y103.122079 Z-0.125000 I27.214056 J56.685479
G02 X46.314110 Y103.628893 Z-0.125000 I0.199458 J0.214158
G03 X48.736394 Y84.868155 Z-0.125000 I42.888441 J-3.999223
G03 X62.129274 Y71.313655 Z-0.125000 I21.488957 J7.838885
G03 X73.699388 Y71.616626 Z-0.125000 I5.414382 J14.307169
G03 X79.687842 Y77.353303 Z-0.125000 I-4.868815 J11.076482
G01 X79.687842 Y77.353303 Z-0.125000
G00 Z0.000000

(End cutting path id: path7-5)


(Start cutting path id: path19)
(Change tool to Default tool)

G00 Z0.000000
G00 X72.976919 Y62.345838

G01 Z-0.125000 F10000.0(Penetrate)
G02 X73.265400 Y61.430453 Z-0.125000 I-5.399679 J-2.204841 F10000.000000
G02 X73.393476 Y60.508289 Z-0.125000 I-5.352525 J-1.213371
G02 X80.387423 Y57.444870 Z-0.125000 I-9.692146 J-31.643164
G02 X85.551300 Y53.410027 Z-0.125000 I-12.291551 J-21.052826
G02 X92.040948 Y54.856717 Z-0.125000 I6.567966 J-14.183804
G02 X99.092139 Y53.477876 Z-0.125000 I0.091450 J-18.251141
G02 X104.886693 Y57.854358 Z-0.125000 I33.026814 J-37.703892
G02 X111.280443 Y60.598937 Z-0.125000 I11.244567 J-17.375553
G02 X111.950697 Y61.448876 Z-0.125000 I3.058541 J-1.722687
G02 X112.780983 Y61.991954 Z-0.125000 I2.006417 J-2.161281
G00 Z0.000000

(End cutting path id: path19)


(Start cutting path id: path14)
(Change tool to Default tool)

G00 Z0.000000
G00 X78.287056 Y9.122725

G01 Z-0.125000 F10000.0(Penetrate)
G03 X83.020855 Y39.426713 Z-0.125000 I-11073.248020 J1745.278876 F10000.000000
G02 X90.604117 Y74.245775 Z-0.125000 I289.535903 J-44.822858
G02 X92.518418 Y75.780199 Z-0.125000 I2.032240 J-0.574038
G02 X94.316391 Y74.474785 Z-0.125000 I0.098203 J-1.755642
G02 X101.440150 Y39.877388 Z-0.125000 I-305.779674 J-80.993513
G03 X106.070102 Y8.894870 Z-0.125000 I13636.123963 J2021.911920
G00 Z0.000000

(End cutting path id: path14)


(Start cutting path id: path17)
(Change tool to Default tool)

G00 Z0.000000
G00 X53.101287 Y30.724358

G01 Z-0.125000 F10000.0(Penetrate)
G02 X65.120266 Y49.438120 Z-0.125000 I136.624578 J-74.531118 F10000.000000
G02 X75.382211 Y63.138378 Z-0.125000 I15001.412294 J-11225.858987
G00 Z0.000000

(End cutting path id: path17)


(Start cutting path id: path10)
(Change tool to Default tool)

G00 Z0.000000
G00 X39.017972 Y57.773195

G01 Z-0.125000 F10000.0(Penetrate)
G03 X60.123146 Y76.519915 Z-0.125000 I-399.281331 J470.766935 F10000.000000
G03 X77.716850 Y95.411104 Z-0.125000 I-122.546574 J131.768095
G03 X85.586361 Y96.138239 Z-0.125000 I0.898233 J33.226726
G03 X91.606922 Y99.761832 Z-0.125000 I-2.270783 J10.586228
G03 X97.472162 Y96.176119 Z-0.125000 I10.294878 J10.249771
G03 X106.316253 Y95.052420 Z-0.125000 I7.449904 J23.268952
G03 X123.940914 Y77.739408 Z-0.125000 I749.673669 J745.541017
G03 X145.606272 Y57.912675 Z-0.125000 I429.395000 J447.464175
G00 Z0.000000

(End cutting path id: path10)


(Start cutting path id: path6-8)
(Change tool to Default tool)

G00 Z0.000000
G00 X32.395732 Y88.806563

G01 Z-0.125000 F10000.0(Penetrate)
G03 X50.222544 Y102.553298 Z-0.125000 I-45.635436 J77.612484 F10000.000000
G03 X63.032540 Y119.249809 Z-0.125000 I-55.460267 J55.812890
G03 X78.032809 Y120.013867 Z-0.125000 I6.035214 J29.141918
G03 X91.678417 Y128.286104 Z-0.125000 I-10.153448 J32.139582
G03 X102.058746 Y121.669811 Z-0.125000 I32.678198 J39.817945
G03 X121.206069 Y118.507737 Z-0.125000 I14.989851 J31.215643
G03 X130.002407 Y105.136267 Z-0.125000 I41.239938 J17.550394
G03 X151.744289 Y85.833639 Z-0.125000 I126.367065 J120.439939
G00 Z0.000000

(End cutting path id: path6-8)


(Footer)
M5
G00 X0.0000 Y0.0000
M2
(Using default footer. To add your own footer create file "footer" in the output dir.)
(end)
%