%
(Header)
(Generated by gcodetools from Inkscape.)
(Using default header. To add your own header create file "header" in the output dir.)
M3
(Header end.)
G21 (All units in mm)

(Start cutting path id: path61831)
(Change tool to Default tool)

G00 Z5.000000
G00 X6.005432 Y78.669710
S1000
G01 Z-0.125000 F10000.0(Penetrate)
G03 X6.748968 Y78.485469 Z-0.125000 I0.480281 J0.345802 F10000.000000
G03 X7.877609 Y79.191079 Z-0.125000 I-3.033201 J6.107124
G03 X6.198964 Y79.099952 Z-0.125000 I-0.815180 J-0.490288
G03 X6.005432 Y78.669710 Z-0.125000 I20.765257 J-9.599313
G01 X6.005432 Y78.669710 Z-0.125000
G00 Z5.000000
S0
(End cutting path id: path61831)


(Start cutting path id: path61766)
(Change tool to Default tool)

G00 Z5.000000
G00 X5.004832 Y76.757173
S1000
G01 Z-0.125000 F10000.0(Penetrate)
G02 X7.293036 Y77.582635 Z-0.125000 I2.174670 J-2.444033 F10000.000000
G02 X10.650326 Y77.058217 Z-0.125000 I-0.491558 J-14.155721
G02 X7.684887 Y75.747223 Z-0.125000 I-5.612549 J8.686086
G02 X5.365779 Y75.836321 Z-0.125000 I-1.014124 J3.829942
G00 Z5.000000
S0
(End cutting path id: path61766)


(Start cutting path id: path61768)
(Change tool to Default tool)

G00 Z5.000000
G00 X13.138988 Y81.409028
S1000
G01 Z-0.125000 F10000.0(Penetrate)
G02 X14.695216 Y82.326712 Z-0.125000 I1.759831 J-1.205975 F10000.000000
G02 X16.105034 Y82.029051 Z-0.125000 I0.229945 J-2.398415
G02 X16.212167 Y81.644347 Z-0.125000 I-0.129050 J-0.243207
G02 X15.903952 Y81.274969 Z-0.125000 I-1.331322 J0.797594
G02 X14.211038 Y80.888283 Z-0.125000 I-1.451470 J2.455411
G02 X13.138988 Y81.409024 Z-0.125000 I0.140426 J1.652981
G01 X13.138988 Y81.409028 Z-0.125000
G00 Z5.000000
S0
(End cutting path id: path61768)


(Start cutting path id: path61770)
(Change tool to Default tool)

G00 Z5.000000
G00 X14.430591 Y82.307429
S1000
G01 Z-0.125000 F10000.0(Penetrate)
G03 X14.196384 Y81.550646 Z-0.125000 I1.327773 J-0.825547 F10000.000000
G03 X14.328664 Y80.870378 Z-0.125000 I1.480215 J-0.065164
G00 Z5.000000
S0
(End cutting path id: path61770)


(Start cutting path id: path61772)
(Change tool to Default tool)

G00 Z5.000000
G00 X15.087468 Y82.334142
S1000
G01 Z-0.125000 F10000.0(Penetrate)
G02 X15.324694 Y81.657503 Z-0.125000 I-1.158895 J-0.786207 F10000.000000
G02 X15.242216 Y80.974175 Z-0.125000 I-1.740339 J-0.136583
G00 Z5.000000
S0
(End cutting path id: path61772)


(Start cutting path id: path55141)
(Change tool to Default tool)

G00 Z5.000000
G00 X18.481453 Y85.182302
S1000
G01 Z-0.125000 F10000.0(Penetrate)
G03 X14.216504 Y83.983716 Z-0.125000 I3.276280 J-19.845350 F10000.000000
G03 X11.010068 Y82.040055 Z-0.125000 I4.394709 J-10.866547
G02 X8.450217 Y80.405303 Z-0.125000 I-4.894221 J4.842232
G02 X5.087092 Y79.666266 Z-0.125000 I-4.516594 J12.531820
G03 X4.558154 Y77.535530 Z-0.125000 I1.243352 J-1.439672
G03 X6.360649 Y73.901745 Z-0.125000 I21.335686 J8.319359
G03 X9.220337 Y74.190093 Z-0.125000 I-0.683165 J21.099903
G03 X12.594374 Y74.907185 Z-0.125000 I-7.096466 J41.686311
G02 X14.367682 Y75.062311 Z-0.125000 I1.322891 J-4.909246
G02 X17.688602 Y74.639067 Z-0.125000 I-3.897160 J-43.818678
G03 X19.399667 Y75.064584 Z-0.125000 I0.135186 J3.109376
G03 X21.375215 Y76.515888 Z-0.125000 I-6.055691 J10.313373
G02 X29.585779 Y74.804958 Z-0.125000 I-32.672163 J-177.346287
G02 X34.727942 Y72.697702 Z-0.125000 I-3.948376 J-16.962529
G00 Z5.000000
S0
(End cutting path id: path55141)


(Start cutting path id: path59151)
(Change tool to Default tool)

G00 Z5.000000
G00 X34.727942 Y72.697705
S1000
G01 Z-0.125000 F10000.0(Penetrate)
G02 X35.347821 Y78.930404 Z-0.125000 I18.613933 J1.295909 F10000.000000
G02 X37.713945 Y81.560918 Z-0.125000 I3.806239 J-1.044267
G02 X42.395403 Y79.900753 Z-0.125000 I1.235240 J-3.947422
G02 X44.017729 Y75.494119 Z-0.125000 I-8.465544 J-5.618587
G02 X47.461363 Y70.389289 Z-0.125000 I-4.731862 J-6.905960
G02 X47.477701 Y64.261058 Z-0.125000 I-14.078780 J-3.101672
G02 X47.859153 Y58.911139 Z-0.125000 I-6.481169 J-3.150668
G02 X45.250049 Y54.639492 Z-0.125000 I-10.101133 J3.237092
G03 X43.575541 Y50.849556 Z-0.125000 I4.507618 J-4.256493
G03 X44.254715 Y47.387770 Z-0.125000 I6.616779 J-0.499360
G02 X42.727758 Y45.206914 Z-0.125000 I-1.585043 J-0.515198
G02 X38.804074 Y45.491893 Z-0.125000 I-0.639753 J18.345396
G03 X37.037314 Y46.300236 Z-0.125000 I-1.260545 J-0.420182
G03 X36.434228 Y45.681479 Z-0.125000 I0.415424 J-1.008187
G03 X37.985215 Y45.056666 Z-0.125000 I1.509413 J1.509418
G03 X38.804074 Y45.491893 Z-0.125000 I-0.019977 J1.025519
G00 Z5.000000
S0
(End cutting path id: path59151)


(Start cutting path id: path59681)
(Change tool to Default tool)

G00 Z5.000000
G00 X35.872729 Y45.296959
S1000
G01 Z-0.125000 F10000.0(Penetrate)
G03 X36.216103 Y48.165930 Z-0.125000 I-25.970654 J4.563341 F10000.000000
G03 X35.628483 Y49.188851 Z-0.125000 I-1.064800 J0.068563
G03 X34.364476 Y48.562574 Z-0.125000 I-0.073837 J-1.439679
G03 X33.448225 Y46.060655 Z-0.125000 I4.472473 J-3.056639
G03 X34.355512 Y45.404495 Z-0.125000 I1.455096 J1.056651
G03 X35.872729 Y45.296959 Z-0.125000 I0.979481 J3.062500
G01 X36.434228 Y45.681483 Z-0.125000
G00 Z5.000000
S0
(End cutting path id: path59681)


(Start cutting path id: path59683)
(Change tool to Default tool)

G00 Z5.000000
G00 X35.628483 Y49.188853
S1000
G01 Z-0.125000 F10000.0(Penetrate)
G02 X36.061541 Y54.345338 Z-0.125000 I8.095496 J1.916542 F10000.000000
G02 X39.609819 Y60.753689 Z-0.125000 I31.991885 J-13.527272
G02 X37.465243 Y65.792257 Z-0.125000 I28.013143 J14.898977
G02 X36.706737 Y70.233066 Z-0.125000 I14.633792 J4.784684
G02 X35.472179 Y71.337182 Z-0.125000 I2.538028 J4.080141
G02 X34.727942 Y72.697705 Z-0.125000 I3.654667 J2.883004
G00 Z5.000000
S0
(End cutting path id: path59683)


(Start cutting path id: path61750)
(Change tool to Default tool)

G00 Z5.000000
G00 X32.928661 Y85.866458
S1000
G01 Z-0.125000 F10000.0(Penetrate)
G03 X34.532521 Y86.870380 Z-0.125000 I-1.272940 J3.816760 F10000.000000
G03 X35.253554 Y88.191926 Z-0.125000 I-1.984111 J1.939998
G00 Z5.000000
S0
(End cutting path id: path61750)


(Start cutting path id: path61744)
(Change tool to Default tool)

G00 Z5.000000
G00 X30.433239 Y92.557557
S1000
G01 Z-0.125000 F10000.0(Penetrate)
G03 X28.501694 Y94.083915 Z-0.125000 I-3.408527 J-2.328027 F10000.000000
G03 X27.964338 Y93.903563 Z-0.125000 I-0.159363 J-0.415879
G03 X27.678087 Y93.181943 Z-0.125000 I1.844283 J-1.149173
G03 X27.571012 Y92.210664 Z-0.125000 I5.435123 J-1.090712
G00 Z5.000000
S0
(End cutting path id: path61744)


(Start cutting path id: path61746)
(Change tool to Default tool)

G00 Z5.000000
G00 X27.571012 Y92.210664
S1000
G01 Z-0.125000 F10000.0(Penetrate)
G03 X26.168721 Y91.994283 Z-0.125000 I-0.663721 J-0.350725 F10000.000000
G03 X25.722534 Y88.931137 Z-0.125000 I43.167111 J-7.851931
G03 X24.364694 Y89.097943 Z-0.125000 I-0.734267 J-0.367133
G03 X24.134739 Y88.528262 Z-0.125000 I0.731880 J-0.626679
G03 X22.120957 Y88.737498 Z-0.125000 I-1.094550 J-0.739056
G03 X21.527910 Y87.651418 Z-0.125000 I1.451810 J-1.497706
G03 X20.695778 Y87.887291 Z-0.125000 I-0.518480 J-0.243368
G03 X20.271892 Y87.414435 Z-0.125000 I0.675252 J-1.031741
G03 X19.254249 Y87.396575 Z-0.125000 I-0.505138 J-0.218826
G03 X18.481453 Y85.182302 Z-0.125000 I28.804023 J-11.294789
G00 Z5.000000
S0
(End cutting path id: path61746)


(Start cutting path id: path61748)
(Change tool to Default tool)

G00 Z5.000000
G00 X18.481453 Y85.182304
S1000
G01 Z-0.125000 F10000.0(Penetrate)
G03 X20.582341 Y84.456548 Z-0.125000 I2.194930 J2.950132 F10000.000000
G03 X21.267228 Y84.973495 Z-0.125000 I0.017622 J0.688819
G01 X21.812291 Y84.973495 Z-0.125000
G03 X25.018985 Y84.078548 Z-0.125000 I3.883047 J7.720946
G03 X25.651439 Y84.736511 Z-0.125000 I0.046201 J0.588539
G01 X27.025949 Y84.831294 Z-0.125000
G03 X29.622023 Y83.267079 Z-0.125000 I2.488666 J1.193939
G03 X32.476590 Y84.049255 Z-0.125000 I-0.254203 J6.527708
G03 X33.017996 Y85.909745 Z-0.125000 I-1.223970 J1.365197
G03 X31.955224 Y88.314975 Z-0.125000 I-8.911425 J-2.500180
G02 X28.872190 Y90.194007 Z-0.125000 I5.996946 J13.308302
G02 X27.571012 Y92.210664 Z-0.125000 I2.327719 J2.929976
G00 Z5.000000
S0
(End cutting path id: path61748)


(Start cutting path id: path61752)
(Change tool to Default tool)

G00 Z5.000000
G00 X25.722534 Y88.931137
S1000
G01 Z-0.125000 F10000.0(Penetrate)
G03 X26.044029 Y86.686854 Z-0.125000 I6.586661 J-0.201623 F10000.000000
G03 X27.025949 Y84.831294 Z-0.125000 I5.846062 J1.906018
G00 Z5.000000
S0
(End cutting path id: path61752)


(Start cutting path id: path61754)
(Change tool to Default tool)

G00 Z5.000000
G00 X24.134739 Y88.528266
S1000
G01 Z-0.125000 F10000.0(Penetrate)
G02 X25.377435 Y86.855641 Z-0.125000 I-1.917116 J-2.722293 F10000.000000
G02 X25.651439 Y84.736511 Z-0.125000 I-5.309601 J-1.763813
G00 Z5.000000
S0
(End cutting path id: path61754)


(Start cutting path id: path61764)
(Change tool to Default tool)

G00 Z5.000000
G00 X21.527910 Y87.651418
S1000
G01 Z-0.125000 F10000.0(Penetrate)
G01 X21.812291 Y84.973495 Z-0.125000 F10000.000000
G00 Z5.000000
S0
(End cutting path id: path61764)


(Start cutting path id: path61760)
(Change tool to Default tool)

G00 Z5.000000
G00 X21.527910 Y87.651418
S1000
G01 Z-0.125000 F10000.0(Penetrate)
G01 X21.527910 Y87.651418 Z-0.125000 F10000.000000
G01 X21.527910 Y87.651418 Z-0.125000
G00 Z5.000000
S0
(End cutting path id: path61760)


(Start cutting path id: path61762)
(Change tool to Default tool)

G00 Z5.000000
G00 X20.271892 Y87.414435
S1000
G01 Z-0.125000 F10000.0(Penetrate)
G01 X21.267228 Y84.973495 Z-0.125000 F10000.000000
G00 Z5.000000
S0
(End cutting path id: path61762)


(Start cutting path id: path61742)
(Change tool to Default tool)

G00 Z5.000000
G00 X34.870133 Y103.790057
S1000
G01 Z-0.125000 F10000.0(Penetrate)
G02 X41.369320 Y102.804381 Z-0.125000 I1.051611 J-14.985525 F10000.000000
G02 X43.259381 Y100.235292 Z-0.125000 I-1.079362 J-2.773876
G02 X42.780852 Y96.558895 Z-0.125000 I-8.755896 J-0.729652
G02 X40.842138 Y92.604394 Z-0.125000 I-18.267418 J6.503208
G02 X35.322431 Y88.712972 Z-0.125000 I-7.291637 J4.482304
G02 X32.678027 Y89.446576 Z-0.125000 I-0.616163 J2.911844
G02 X30.893572 Y91.659232 Z-0.125000 I6.826282 J7.331120
G02 X29.561682 Y94.500268 Z-0.125000 I13.792934 J8.198908
G02 X28.559737 Y102.364611 Z-0.125000 I47.654700 J10.067370
G02 X29.561692 Y107.975311 Z-0.125000 I12.931578 J0.585503
G02 X31.233355 Y107.932317 Z-0.125000 I0.818361 J-0.700781
G02 X32.310701 Y106.065106 Z-0.125000 I-6.418093 J-4.947529
G03 X33.421727 Y104.527136 Z-0.125000 I3.749218 J1.538142
G03 X34.870133 Y103.790057 Z-0.125000 I2.242163 J2.614344
G01 X34.870133 Y103.790057 Z-0.125000
G00 Z5.000000
S0
(End cutting path id: path61742)


(Start cutting path id: path61740)
(Change tool to Default tool)

G00 Z5.000000
G00 X38.753389 Y109.248377
S1000
G01 Z-0.125000 F10000.0(Penetrate)
G02 X37.589300 Y110.234165 Z-0.125000 I2.108735 J3.670357 F10000.000000
G02 X36.481626 Y111.847526 Z-0.125000 I8.877727 J7.282049
G03 X34.407397 Y110.370216 Z-0.125000 I-0.539173 J-1.437794
G03 X34.870133 Y103.790057 Z-0.125000 I74.165612 J1.909193
G00 Z5.000000
S0
(End cutting path id: path61740)


(Start cutting path id: path61738)
(Change tool to Default tool)

G00 Z5.000000
G00 X57.399074 Y112.009171
S1000
G01 Z-0.125000 F10000.0(Penetrate)
G03 X55.435859 Y111.330306 Z-0.125000 I1.070434 J-6.273741 F10000.000000
G03 X53.824874 Y110.118072 Z-0.125000 I3.253365 J-6.000094
G00 Z5.000000
S0
(End cutting path id: path61738)


(Start cutting path id: path61736)
(Change tool to Default tool)

G00 Z5.000000
G00 X55.150301 Y122.567594
S1000
G01 Z-0.125000 F10000.0(Penetrate)
G02 X53.224665 Y125.046588 Z-0.125000 I8.101554 J8.280530 F10000.000000
G02 X52.169993 Y127.725483 Z-0.125000 I8.367741 J4.841411
G03 X48.998179 Y126.572098 Z-0.125000 I-1.174429 J-1.708259
G03 X47.193320 Y118.530486 Z-0.125000 I79.147348 J-21.987171
G02 X52.352455 Y114.706158 Z-0.125000 I-8.849594 J-17.330450
G02 X53.876281 Y110.930147 Z-0.125000 I-3.916529 J-3.776011
G02 X52.813394 Y107.205512 Z-0.125000 I-6.906447 J-0.043103
G02 X50.131928 Y104.311422 Z-0.125000 I-9.069578 J5.713973
G02 X42.459509 Y103.483248 Z-0.125000 I-4.488309 J5.627133
G02 X39.609819 Y106.895767 Z-0.125000 I2.429045 J4.924525
G02 X38.319526 Y115.247934 Z-0.125000 I13.263493 J6.324774
G02 X41.079124 Y123.033189 Z-0.125000 I20.364805 J-2.836886
G02 X42.726161 Y122.730781 Z-0.125000 I0.729282 J-0.664457
G03 X43.306777 Y121.611284 Z-0.125000 I5.721587 J2.257128
G03 X44.752987 Y120.082120 Z-0.125000 I5.012929 J3.292530
G03 X47.145925 Y118.577884 Z-0.125000 I11.113424 J15.023760
G00 Z5.000000
S0
(End cutting path id: path61736)


(Start cutting path id: path61734)
(Change tool to Default tool)

G00 Z5.000000
G00 X77.277655 Y115.795063
S1000
G01 Z-0.125000 F10000.0(Penetrate)
G02 X74.329981 Y113.448008 Z-0.125000 I-3.932743 J1.914620 F10000.000000
G02 X64.877236 Y111.706275 Z-0.125000 I-24.090235 J104.220852
G02 X56.630793 Y113.096139 Z-0.125000 I-2.492664 J10.369484
G02 X54.688783 Y116.800503 Z-0.125000 I2.278305 J3.555630
G02 X58.920042 Y131.003275 Z-0.125000 I21.336846 J1.375043
G02 X69.717288 Y140.126703 Z-0.125000 I25.258474 J-18.941698
G02 X72.858715 Y138.441381 Z-0.125000 I0.602871 J-2.646712
G02 X73.322930 Y135.099505 Z-0.125000 I-7.102311 J-2.689752
G03 X73.883511 Y132.511109 Z-0.125000 I11.500819 J1.135886
G03 X74.965149 Y130.306909 Z-0.125000 I9.098641 J3.097364
G00 Z5.000000
S0
(End cutting path id: path61734)


(Start cutting path id: path61732)
(Change tool to Default tool)

G00 Z5.000000
G00 X88.029190 Y127.990743
S1000
G01 Z-0.125000 F10000.0(Penetrate)
G02 X85.500776 Y131.184959 Z-0.125000 I1.931063 J4.126356 F10000.000000
G02 X85.187119 Y136.473608 Z-0.125000 I17.724306 J3.704814
G03 X81.165650 Y137.040995 Z-0.125000 I-2.232360 J-1.287128
G03 X74.965149 Y130.306909 Z-0.125000 I53.729787 J-55.694071
G02 X78.991399 Y121.162667 Z-0.125000 I-15.893678 J-12.456566
G02 X77.277655 Y115.795063 Z-0.125000 I-6.090690 J-1.012772
G00 Z5.000000
S0
(End cutting path id: path61732)


(Start cutting path id: path61730)
(Change tool to Default tool)

G00 Z5.000000
G00 X81.766187 Y115.571709
S1000
G01 Z-0.125000 F10000.0(Penetrate)
G03 X79.486169 Y115.970849 Z-0.125000 I-2.713386 J-8.788064 F10000.000000
G03 X77.277655 Y115.795063 Z-0.125000 I-0.413510 J-8.766201
G00 Z5.000000
S0
(End cutting path id: path61730)


(Start cutting path id: path61728)
(Change tool to Default tool)

G00 Z5.000000
G00 X101.658472 Y107.483433
S1000
G01 Z-0.125000 F10000.0(Penetrate)
G01 X107.075555 Y104.058925 Z-0.125000 F10000.000000
G00 Z5.000000
S0
(End cutting path id: path61728)


(Start cutting path id: path61726)
(Change tool to Default tool)

G00 Z5.000000
G00 X116.453416 Y112.779067
S1000
G01 Z-0.125000 F10000.0(Penetrate)
G02 X119.012114 Y118.267576 Z-0.125000 I158.238523 J-70.428820 F10000.000000
G02 X121.248884 Y121.559584 Z-0.125000 I12.543482 J-6.116834
G03 X117.958522 Y126.494644 Z-0.125000 I-3.066890 J1.519631
G03 X108.915494 Y125.112138 Z-0.125000 I3.462040 J-52.911994
G03 X106.802251 Y121.185433 Z-0.125000 I4.980915 J-5.212586
G03 X106.637512 Y115.929122 Z-0.125000 I17.547833 J-3.180707
G02 X101.983756 Y108.301522 Z-0.125000 I-13.097038 J2.757297
G02 X98.475805 Y107.184230 Z-0.125000 I-3.176149 J3.906536
G02 X95.398521 Y107.879034 Z-0.125000 I0.668594 J10.123237
G02 X92.627372 Y109.427279 Z-0.125000 I4.475154 J11.264032
G03 X88.973417 Y110.756245 Z-0.125000 I-10628.511177 J-29220.628550
G03 X85.254148 Y112.108452 Z-0.125000 I-11398.669657 J-31342.470858
G02 X81.719903 Y117.927241 Z-0.125000 I3.588012 J6.162022
G02 X83.047823 Y122.705379 Z-0.125000 I7.891859 J0.380322
G02 X88.489453 Y128.421114 Z-0.125000 I19.316635 J-12.942079
G02 X89.898802 Y129.402014 Z-0.125000 I16.321089 J-21.947081
G02 X104.041270 Y133.455881 Z-0.125000 I13.682783 J-21.038356
G02 X109.451727 Y132.954568 Z-0.125000 I-0.672413 J-36.704094
G02 X111.378802 Y129.548389 Z-0.125000 I-0.417432 J-2.484385
G02 X108.915494 Y125.112138 Z-0.125000 I-17.903108 J7.039001
G00 Z5.000000
S0
(End cutting path id: path61726)


(Start cutting path id: path61722)
(Change tool to Default tool)

G00 Z5.000000
G00 X127.553697 Y105.211965
S1000
G01 Z-0.125000 F10000.0(Penetrate)
G02 X120.039530 Y95.319399 Z-0.125000 I-14.004988 J2.837793 F10000.000000
G02 X112.411429 Y94.879446 Z-0.125000 I-4.314822 J8.462600
G03 X109.883601 Y97.769852 Z-0.125000 I-14.433168 J-10.072076
G03 X107.055580 Y99.737622 Z-0.125000 I-8.657528 J-9.426279
G02 X109.434923 Y108.974713 Z-0.125000 I12.683306 J1.657949
G02 X114.970860 Y112.511083 Z-0.125000 I7.352017 J-5.407820
G02 X123.403398 Y113.226194 Z-0.125000 I7.232689 J-35.211821
G02 X130.659227 Y111.847526 Z-0.125000 I-0.801572 J-24.001383
G02 X131.412516 Y108.923641 Z-0.125000 I-0.522307 J-1.693542
G02 X129.474305 Y107.581806 Z-0.125000 I-4.314715 J4.161643
G03 X128.182425 Y106.687931 Z-0.125000 I0.540361 J-2.161449
G03 X127.553697 Y105.211965 Z-0.125000 I3.279779 J-2.269005
G01 X127.553697 Y105.211965 Z-0.125000
G00 Z5.000000
S0
(End cutting path id: path61722)


(Start cutting path id: path61720)
(Change tool to Default tool)

G00 Z5.000000
G00 X129.007287 Y91.975344
S1000
G01 Z-0.125000 F10000.0(Penetrate)
G02 X131.482806 Y96.423956 Z-0.125000 I9.875354 J-2.582254 F10000.000000
G02 X135.161928 Y98.765992 Z-0.125000 I6.541553 J-6.215379
G03 X134.647218 Y102.984886 Z-0.125000 I-1.396541 J1.970465
G03 X127.553702 Y105.211963 Z-0.125000 I-19.531776 J-49.800729
G00 Z5.000000
S0
(End cutting path id: path61720)


(Start cutting path id: path61724)
(Change tool to Default tool)

G00 Z5.000000
G00 X116.321718 Y94.234355
S1000
G01 Z-0.125000 F10000.0(Penetrate)
G01 X120.091989 Y89.400052 Z-0.125000 F10000.000000
G00 Z5.000000
S0
(End cutting path id: path61724)


(Start cutting path id: path61718)
(Change tool to Default tool)

G00 Z5.000000
G00 X127.757461 Y79.887144
S1000
G01 Z-0.125000 F10000.0(Penetrate)
G01 X131.842763 Y75.267651 Z-0.125000 F10000.000000
G01 X131.842763 Y75.267651 Z-0.125000
G00 Z5.000000
S0
(End cutting path id: path61718)


(Start cutting path id: path61716)
(Change tool to Default tool)

G00 Z5.000000
G00 X136.205345 Y77.875295
S1000
G01 Z-0.125000 F10000.0(Penetrate)
G02 X137.240270 Y80.388276 Z-0.125000 I3.057055 J0.210607 F10000.000000
G02 X140.117638 Y82.213379 Z-0.125000 I7.262525 J-8.269031
G03 X138.574799 Y85.147859 Z-0.125000 I-2.197948 J0.717225
G03 X132.677385 Y86.335681 Z-0.125000 I-9.639634 J-32.625867
G03 X131.688214 Y84.774767 Z-0.125000 I5.990090 J-4.889877
G03 X131.470856 Y83.486935 Z-0.125000 I2.148786 J-1.024926
G02 X127.664183 Y79.948187 Z-0.125000 I-6.262683 J2.920025
G02 X124.164662 Y80.001413 Z-0.125000 I-1.682854 J4.425543
G03 X122.125223 Y82.879980 Z-0.125000 I-26.289666 J-16.464249
G03 X120.109390 Y84.894552 Z-0.125000 I-9.930642 J-7.921021
G02 X120.699643 Y89.855368 Z-0.125000 I3.543527 J2.093903
G02 X124.265207 Y91.932629 Z-0.125000 I5.496367 J-5.335639
G02 X130.934317 Y91.810744 Z-0.125000 I2.859118 J-26.075114
G02 X135.090440 Y89.821206 Z-0.125000 I-1.129776 J-7.695905
G02 X135.198037 Y88.753479 Z-0.125000 I-0.393691 J-0.578958
G02 X132.677385 Y86.335681 Z-0.125000 I-37.365544 J36.432263
G00 Z5.000000
S0
(End cutting path id: path61716)


(Start cutting path id: path61714)
(Change tool to Default tool)

G00 Z5.000000
G00 X140.754417 Y74.605555
S1000
G01 Z-0.125000 F10000.0(Penetrate)
G03 X139.353738 Y72.949207 Z-0.125000 I2.767048 J-3.760344 F10000.000000
G03 X138.810564 Y70.985974 Z-0.125000 I4.631711 J-2.338228
G02 X136.662788 Y69.575323 Z-0.125000 I-2.617937 J1.645555
G02 X134.487176 Y69.846471 Z-0.125000 I-0.610286 J3.967061
G02 X131.899185 Y74.423782 Z-0.125000 I5.175775 J5.946636
G02 X132.844957 Y76.153840 Z-0.125000 I1.553904 J0.274068
G02 X136.988586 Y78.081703 Z-0.125000 I4.777912 J-4.852385
G02 X141.625798 Y77.588356 Z-0.125000 I1.097131 J-11.727916
G02 X142.038410 Y76.130042 Z-0.125000 I-0.447322 J-0.914093
G02 X140.754417 Y74.605553 Z-0.125000 I-6.222914 J3.938257
G00 Z5.000000
S0
(End cutting path id: path61714)


(Start cutting path id: path61712)
(Change tool to Default tool)

G00 Z5.000000
G00 X140.687716 Y67.580681
S1000
G01 Z-0.125000 F10000.0(Penetrate)
G02 X141.963887 Y70.184007 Z-0.125000 I4.698614 J-0.688840 F10000.000000
G02 X144.172908 Y71.589233 Z-0.125000 I3.997756 J-3.845580
G03 X143.662059 Y73.902684 Z-0.125000 I-1.005466 J0.991104
G03 X140.754417 Y74.605553 Z-0.125000 I-4.350061 J-11.629777
G00 Z5.000000
S0
(End cutting path id: path61712)


(Start cutting path id: path59723)
(Change tool to Default tool)

G00 Z5.000000
G00 X153.469314 Y61.277490
S1000
G01 Z-0.125000 F10000.0(Penetrate)
G03 X155.729217 Y62.117085 Z-0.125000 I-0.215848 J4.042231 F10000.000000
G03 X160.060461 Y65.698067 Z-0.125000 I-52.442593 J67.839833
G03 X164.414530 Y69.659166 Z-0.125000 I-134.027647 J151.697740
G02 X165.354171 Y70.076450 Z-0.125000 I1.069570 J-1.141875
G02 X165.213117 Y67.891094 Z-0.125000 I-1.302770 J-1.013143
G02 X157.370347 Y60.371569 Z-0.125000 I-231.212116 J233.301605
G00 Z5.000000
S0
(End cutting path id: path59723)


(Start cutting path id: path59721)
(Change tool to Default tool)

G00 Z5.000000
G00 X161.141004 Y59.922902
S1000
G01 Z-0.125000 F10000.0(Penetrate)
G02 X148.074486 Y63.073189 Z-0.125000 I2.461049 J38.881036 F10000.000000
G02 X137.838642 Y69.879987 Z-0.125000 I13.920588 J32.032901
G00 Z5.000000
S0
(End cutting path id: path59721)


(Start cutting path id: path59717)
(Change tool to Default tool)

G00 Z5.000000
G00 X153.188351 Y59.691535
S1000
G01 Z-0.125000 F10000.0(Penetrate)
G03 X153.174964 Y58.225605 Z-0.125000 I0.521854 J-0.737792 F10000.000000
G03 X155.567890 Y56.719629 Z-0.125000 I11.612294 J15.797291
G03 X158.938338 Y56.602542 Z-0.125000 I1.880602 J5.565577
G03 X162.639483 Y58.149859 Z-0.125000 I-3.656214 J13.945759
G00 Z5.000000
S0
(End cutting path id: path59717)


(Start cutting path id: path59719)
(Change tool to Default tool)

G00 Z5.000000
G00 X163.706898 Y60.568133
S1000
G01 Z-0.125000 F10000.0(Penetrate)
G03 X168.666969 Y67.668425 Z-0.125000 I-118.667045 J88.180208 F10000.000000
G02 X172.057100 Y70.885429 Z-0.125000 I8.530183 J-5.594456
G02 X172.349979 Y69.713537 Z-0.125000 I-0.405357 J-0.723850
G02 X167.140102 Y61.718036 Z-0.125000 I-573.804778 J368.196615
G00 Z5.000000
S0
(End cutting path id: path59719)


(Start cutting path id: path59715)
(Change tool to Default tool)

G00 Z5.000000
G00 X172.605463 Y60.090138
S1000
G01 Z-0.125000 F10000.0(Penetrate)
G02 X165.580994 Y56.865586 Z-0.125000 I-12.593596 J18.170857 F10000.000000
G02 X162.639483 Y58.149859 Z-0.125000 I-0.654051 J2.512725
G02 X170.535406 Y61.041818 Z-0.125000 I56.212474 J-141.251970
G03 X171.990075 Y63.813834 Z-0.125000 I-0.718996 J2.144998
G02 X160.841373 Y59.487143 Z-0.125000 I-32.608106 J67.495261
G02 X153.188353 Y59.691531 Z-0.125000 I-3.515049 J11.764433
G00 Z5.000000
S0
(End cutting path id: path59715)


(Start cutting path id: path59703)
(Change tool to Default tool)

G00 Z5.000000
G00 X88.639125 Y44.911569
S1000
G01 Z-0.125000 F10000.0(Penetrate)
G03 X90.321207 Y44.200933 Z-0.125000 I1.764939 J1.831556 F10000.000000
G03 X92.785027 Y45.179687 Z-0.125000 I0.108151 J3.318219
G03 X96.119978 Y46.106076 Z-0.125000 I-6.262281 J29.009883
G03 X97.823130 Y47.405511 Z-0.125000 I-1.093065 J3.198534
G03 X97.518255 Y51.827962 Z-0.125000 I-13.860247 J1.266235
G03 X95.897924 Y56.500535 Z-0.125000 I-22.971058 J-5.348554
G03 X95.832105 Y57.883768 Z-0.125000 I-15.679075 J-0.052883
G03 X95.600251 Y59.611574 Z-0.125000 I-20.835585 J-1.916470
G03 X94.657554 Y60.792593 Z-0.125000 I-3.027222 J-1.449604
G03 X91.775491 Y62.936701 Z-0.125000 I-36.606090 J-46.196047
G03 X89.134150 Y68.601197 Z-0.125000 I-28.830096 J-9.995334
G03 X85.823895 Y72.427101 Z-0.125000 I-12.515847 J-7.483977
G01 X86.862851 Y74.102833 Z-0.125000
G01 X86.862851 Y74.102833 Z-0.125000
G00 Z5.000000
S0
(End cutting path id: path59703)


(Start cutting path id: path59713)
(Change tool to Default tool)

G00 Z5.000000
G00 X87.334254 Y74.952844
S1000
G01 Z-0.125000 F10000.0(Penetrate)
G02 X108.970654 Y74.243870 Z-0.125000 I9.481643 J-41.143430 F10000.000000
G02 X128.431572 Y64.308460 Z-0.125000 I-17.565094 J-58.432684
G03 X155.290629 Y54.954787 Z-0.125000 I32.666843 J50.563080
G03 X176.681596 Y59.236988 Z-0.125000 I3.629092 J37.439986
G03 X176.246322 Y60.323306 Z-0.125000 I-0.408387 J0.466728
G03 X172.605465 Y60.090134 Z-0.125000 I3.841620 J-88.526352
G02 X178.475431 Y63.006316 Z-0.125000 I55.226569 J-103.799331
G03 X179.714997 Y65.445980 Z-0.125000 I-0.927870 J2.006177
G02 X174.186835 Y62.552468 Z-0.125000 I-30.634572 J51.800841
G02 X169.744593 Y61.266720 Z-0.125000 I-6.515397 J14.193803
G00 Z5.000000
S0
(End cutting path id: path59713)


(Start cutting path id: path59701)
(Change tool to Default tool)

G00 Z5.000000
G00 X87.801262 Y44.714182
S1000
G01 Z-0.125000 F10000.0(Penetrate)
G01 X88.639125 Y44.911569 Z-0.125000 F10000.000000
G01 X88.639125 Y44.911569 Z-0.125000
G02 X91.263683 Y46.370731 Z-0.125000 I1.904782 J-0.336139
G02 X92.785027 Y45.179687 Z-0.125000 I-1.287786 J-3.212056
G00 Z5.000000
S0
(End cutting path id: path59701)


(Start cutting path id: path59699)
(Change tool to Default tool)

G00 Z5.000000
G00 X87.801262 Y44.714182
S1000
G01 Z-0.125000 F10000.0(Penetrate)
G01 X87.801262 Y44.714182 Z-0.125000 F10000.000000
G01 X87.801262 Y44.714182 Z-0.125000
G01 X87.801262 Y44.714182 Z-0.125000
G00 Z5.000000
S0
(End cutting path id: path59699)


(Start cutting path id: path59711)
(Change tool to Default tool)

G00 Z5.000000
G00 X75.300296 Y50.766986
S1000
G01 Z-0.125000 F10000.0(Penetrate)
G03 X78.177865 Y50.816126 Z-0.125000 I0.699986 J43.287545 F10000.000000
G03 X80.081538 Y51.245839 Z-0.125000 I-0.287280 J5.704271
G03 X81.241202 Y55.727491 Z-0.125000 I-19.295258 J7.383667
G03 X81.047495 Y59.410510 Z-0.125000 I-9.495649 J1.347183
G00 Z5.000000
S0
(End cutting path id: path59711)


(Start cutting path id: path59709)
(Change tool to Default tool)

G00 Z5.000000
G00 X71.177993 Y51.145294
S1000
G01 Z-0.125000 F10000.0(Penetrate)
G01 X71.936072 Y51.212322 Z-0.125000 F10000.000000
G02 X74.321058 Y51.977068 Z-0.125000 I1.483092 J-0.523907
G02 X75.300294 Y50.766984 Z-0.125000 I-1.615970 J-2.308949
G02 X73.078685 Y50.348838 Z-0.125000 I-1.566830 J2.213788
G02 X71.936072 Y51.212322 Z-0.125000 I0.440500 J1.770626
G00 Z5.000000
S0
(End cutting path id: path59709)


(Start cutting path id: path59693)
(Change tool to Default tool)

G00 Z5.000000
G00 X60.606639 Y52.324250
S1000
G01 Z-0.125000 F10000.0(Penetrate)
G03 X61.941902 Y58.197923 Z-0.125000 I-16.772980 J6.901614 F10000.000000
G03 X61.194189 Y61.071563 Z-0.125000 I-4.839977 J0.274748
G02 X60.128608 Y63.470538 Z-0.125000 I7.523348 J4.777879
G02 X59.699478 Y66.192160 Z-0.125000 I11.690323 J3.237907
G00 Z5.000000
S0
(End cutting path id: path59693)


(Start cutting path id: path59687)
(Change tool to Default tool)

G00 Z5.000000
G00 X49.998284 Y67.208526
S1000
G01 Z-0.125000 F10000.0(Penetrate)
G02 X53.690678 Y59.200518 Z-0.125000 I-123.735384 J-61.908131 F10000.000000
G02 X52.476816 Y56.407097 Z-0.125000 I-1.936318 J-0.819035
G03 X51.270663 Y54.738742 Z-0.125000 I6.886398 J-6.248764
G03 X51.069199 Y53.457806 Z-0.125000 I1.605754 J-0.908862
G03 X52.667405 Y52.717333 Z-0.125000 I2.997559 J4.374817
G03 X53.415225 Y52.988600 Z-0.125000 I0.181905 J0.664947
G03 X53.070680 Y56.180703 Z-0.125000 I-5.693148 J1.000148
G03 X52.409785 Y56.340065 Z-0.125000 I-0.388004 J-0.159011
G00 Z5.000000
S0
(End cutting path id: path59687)


(Start cutting path id: path59689)
(Change tool to Default tool)

G00 Z5.000000
G00 X53.415225 Y52.988602
S1000
G01 Z-0.125000 F10000.0(Penetrate)
G01 X54.136961 Y52.885813 Z-0.125000 F10000.000000
G02 X55.800190 Y53.403230 Z-0.125000 I1.006461 J-0.303333
G02 X56.175030 Y52.791009 Z-0.125000 I-0.660261 J-0.825115
G02 X54.974981 Y52.479740 Z-0.125000 I-0.995403 J1.368687
G02 X53.918353 Y52.885813 Z-0.125000 I0.281387 J2.309933
G00 Z5.000000
S0
(End cutting path id: path59689)


(Start cutting path id: path59691)
(Change tool to Default tool)

G00 Z5.000000
G00 X56.175030 Y52.791009
S1000
G01 Z-0.125000 F10000.0(Penetrate)
G01 X60.606639 Y52.324250 Z-0.125000 F10000.000000
G00 Z5.000000
S0
(End cutting path id: path59691)


(Start cutting path id: path59707)
(Change tool to Default tool)

G00 Z5.000000
G00 X70.694311 Y68.324628
S1000
G01 Z-0.125000 F10000.0(Penetrate)
G03 X71.026079 Y64.624564 Z-0.125000 I8.092921 J-1.139252 F10000.000000
G03 X72.753178 Y61.501323 Z-0.125000 I9.142915 J3.016728
G02 X72.936508 Y58.738140 Z-0.125000 I-1.900233 J-1.513748
G02 X70.172553 Y55.066509 Z-0.125000 I-18.783132 J11.263543
G03 X68.783081 Y53.407888 Z-0.125000 I3.513520 J-4.354680
G03 X68.463304 Y51.849103 Z-0.125000 I2.355989 J-1.295512
G03 X69.890205 Y51.064176 Z-0.125000 I2.094412 J2.117959
G03 X71.177993 Y51.145294 Z-0.125000 I0.507443 J2.206781
G03 X71.336221 Y54.312863 Z-0.125000 I-7.176747 J1.946234
G03 X70.407155 Y55.100023 Z-0.125000 I-0.929067 J-0.154697
G00 Z5.000000
S0
(End cutting path id: path59707)


(Start cutting path id: path59697)
(Change tool to Default tool)

G00 Z5.000000
G00 X72.183431 Y69.008608
S1000
G01 Z-0.125000 F10000.0(Penetrate)
G03 X77.075762 Y62.493411 Z-0.125000 I17.359726 J7.941155 F10000.000000
G03 X86.661761 Y55.401655 Z-0.125000 I52.163386 J60.485151
G02 X87.243244 Y51.934965 Z-0.125000 I-11.572436 J-3.723206
G02 X86.862843 Y48.497637 Z-0.125000 I-13.202332 J-0.278644
G03 X85.447745 Y46.542425 Z-0.125000 I4.794327 J-4.959629
G03 X85.321177 Y44.977229 Z-0.125000 I1.954704 J-0.945779
G03 X86.572423 Y44.460663 Z-0.125000 I1.316686 J1.415633
G03 X87.801262 Y44.714180 Z-0.125000 I0.090330 J2.667100
G03 X87.539485 Y48.114753 Z-0.125000 I-7.838536 J1.106949
G03 X86.728792 Y48.430608 Z-0.125000 I-0.529304 J-0.160230
G00 Z5.000000
S0
(End cutting path id: path59697)


(Start cutting path id: path59685)
(Change tool to Default tool)

G00 Z5.000000
G00 X47.726918 Y67.603314
S1000
G01 Z-0.125000 F10000.0(Penetrate)
G03 X61.733971 Y66.066952 Z-0.125000 I12.346627 J47.945005 F10000.000000
G03 X72.183431 Y69.008608 Z-0.125000 I-0.763113 J22.741072
G02 X69.635707 Y89.287230 Z-0.125000 I106.347224 J23.660388
G02 X70.264717 Y95.158416 Z-0.125000 I21.486930 J0.667283
G02 X71.502209 Y98.482671 Z-0.125000 I15.414878 J-3.845903
G02 X73.121841 Y99.842089 Z-0.125000 I2.398437 J-1.213000
G02 X82.169324 Y100.513010 Z-0.125000 I5.379738 J-11.207788
G02 X89.611052 Y96.155476 Z-0.125000 I-5.573932 J-18.052270
G02 X91.542210 Y85.880740 Z-0.125000 I-10.985298 J-7.383560
G02 X86.862851 Y74.102833 Z-0.125000 I-39.308105 J8.798590
G00 Z5.000000
S0
(End cutting path id: path59685)


(Footer)
M5
G00 X0.0000 Y0.0000
M2
(Using default footer. To add your own footer create file "footer" in the output dir.)
(end)
%