%
(Header)
(Generated by gcodetools from Inkscape.)
(Using default header. To add your own header create file "header" in the output dir.)
M3
(Header end.)
G21 (All units in mm)

(Start cutting path id: path15826)
(Change tool to Default tool)

(G00 Z5.000000)
G00 X39.202421 Y97.334351
S1000
(G01 Z-0.125000 F10000.0(Penetrate))
G03 X38.527134 Y86.109995 Z-0.125000 I23.171292 J-7.026538 F10000.000000
G03 X42.369047 Y76.716528 Z-0.125000 I23.533253 J4.142662
G01 X46.139649 Y85.011850 Z-0.125000
G01 X42.238394 Y91.139974 Z-0.125000
(G00 Z5.000000)
S0
(End cutting path id: path15826)


(Start cutting path id: path14529)
(Change tool to Default tool)

(G00 Z5.000000)
G00 X37.890272 Y104.392241
S1000
(G01 Z-0.125000 F10000.0(Penetrate))
G03 X41.592532 Y92.290590 Z-0.125000 I31.915501 J3.146772 F10000.000000
G03 X45.846339 Y88.103906 Z-0.125000 I8.945932 J4.835012
G03 X52.212994 Y86.846620 Z-0.125000 I5.332058 J10.252115
G03 X59.768068 Y88.595401 Z-0.125000 I-2.526932 J28.110915
G03 X69.503434 Y93.543913 Z-0.125000 I-18.612745 J48.668058
G03 X78.890774 Y100.741510 Z-0.125000 I-40.841139 J62.986775
(G00 Z5.000000)
S0
(End cutting path id: path14529)


(Start cutting path id: path14525)
(Change tool to Default tool)

(G00 Z5.000000)
G00 X81.492750 Y111.998875
S1000
(G01 Z-0.125000 F10000.0(Penetrate))
G02 X64.757871 Y100.649950 Z-0.125000 I-86.388418 J109.373580 F10000.000000
G02 X57.057471 Y97.376544 Z-0.125000 I-17.269868 J29.931885
G02 X49.430165 Y97.144411 Z-0.125000 I-4.267896 J14.809257
G02 X46.158883 Y99.059497 Z-0.125000 I1.354707 J6.065552
G02 X43.571471 Y104.787149 Z-0.125000 I7.740761 J6.945060
G02 X43.793498 Y112.160181 Z-0.125000 I24.933874 J2.939017
G01 X43.793498 Y112.160181 Z-0.125000
G01 X81.492750 Y111.998875 Z-0.125000
(G00 Z5.000000)
S0
(End cutting path id: path14525)


(Start cutting path id: path14523)
(Change tool to Default tool)

(G00 Z5.000000)
G00 X92.156037 Y113.894852
S1000
(G01 Z-0.125000 F10000.0(Penetrate))
G01 X34.157516 Y115.679412 Z-0.125000 F10000.000000
(G00 Z5.000000)
S0
(End cutting path id: path14523)


(Start cutting path id: path14519)
(Change tool to Default tool)

(G00 Z5.000000)
G00 X34.559773 Y121.981275
S1000
(G01 Z-0.125000 F10000.0(Penetrate))
G01 X92.153852 Y122.189752 Z-0.125000 F10000.000000
G01 X92.153852 Y122.189752 Z-0.125000
(G00 Z5.000000)
S0
(End cutting path id: path14519)


(Start cutting path id: path14523)
(Change tool to Default tool)

(G00 Z5.000000)
G00 X92.210211 Y113.894852
S1000
(G01 Z-0.125000 F10000.0(Penetrate))
G01 X150.208732 Y115.679412 Z-0.125000 F10000.000000
(G00 Z5.000000)
S0
(End cutting path id: path14523)


(Start cutting path id: path14519)
(Change tool to Default tool)

(G00 Z5.000000)
G00 X149.806474 Y121.981275
S1000
(G01 Z-0.125000 F10000.0(Penetrate))
G01 X92.212396 Y122.189752 Z-0.125000 F10000.000000
G01 X92.212396 Y122.189752 Z-0.125000
(G00 Z5.000000)
S0
(End cutting path id: path14519)


(Start cutting path id: path14525)
(Change tool to Default tool)

(G00 Z5.000000)
G00 X102.873497 Y111.998875
S1000
(G01 Z-0.125000 F10000.0(Penetrate))
G03 X119.608377 Y100.649949 Z-0.125000 I86.388430 J109.373595 F10000.000000
G03 X127.308776 Y97.376543 Z-0.125000 I17.269872 J29.931890
G03 X134.936082 Y97.144410 Z-0.125000 I4.267897 J14.809259
G03 X138.207364 Y99.059495 Z-0.125000 I-1.354706 J6.065552
G03 X140.794776 Y104.787147 Z-0.125000 I-7.740758 J6.945059
G03 X140.572750 Y112.160178 Z-0.125000 I-24.933868 J2.939017
G01 X140.572750 Y112.160178 Z-0.125000
G01 X102.873497 Y111.998875 Z-0.125000
(G00 Z5.000000)
S0
(End cutting path id: path14525)


(Start cutting path id: path14527)
(Change tool to Default tool)

(G00 Z5.000000)
G00 X92.183124 Y81.368736
S1000
(G01 Z-0.125000 F10000.0(Penetrate))
G03 X89.981624 Y80.747158 Z-0.125000 I-0.045356 J-4.048774 F10000.000000
G02 X86.196515 Y78.572036 Z-0.125000 I-29.074594 J46.214133
G03 X78.691428 Y74.493959 Z-0.125000 I122.426560 J-234.252702
G03 X51.754603 Y58.911512 Z-0.125000 I725.325847 J-1284.918719
G02 X77.086673 Y69.922878 Z-0.125000 I186.007334 J-393.272640
G02 X85.107571 Y72.716597 Z-0.125000 I36.380344 J-91.538616
G03 X89.500705 Y74.037866 Z-0.125000 I-5783.277204 J19236.977517
G02 X92.153854 Y74.079330 Z-0.125000 I1.399595 J-4.651636
(G00 Z5.000000)
S0
(End cutting path id: path14527)


(Start cutting path id: path14527)
(Change tool to Default tool)

(G00 Z5.000000)
G00 X92.183124 Y81.368736
S1000
(G01 Z-0.125000 F10000.0(Penetrate))
G02 X94.384624 Y80.747158 Z-0.125000 I0.045356 J-4.048774 F10000.000000
G03 X98.169733 Y78.572036 Z-0.125000 I29.074594 J46.214133
G02 X105.674820 Y74.493959 Z-0.125000 I-122.426560 J-234.252702
G02 X132.611645 Y58.911512 Z-0.125000 I-725.325847 J-1284.918719
G03 X107.279574 Y69.922878 Z-0.125000 I-186.007334 J-393.272640
G03 X99.258677 Y72.716597 Z-0.125000 I-36.380344 J-91.538616
G02 X94.865543 Y74.037866 Z-0.125000 I5783.277204 J19236.977517
G03 X92.212394 Y74.079330 Z-0.125000 I-1.399595 J-4.651636
(G00 Z5.000000)
S0
(End cutting path id: path14527)


(Start cutting path id: path14533)
(Change tool to Default tool)

(G00 Z5.000000)
G00 X92.183124 Y49.243718
S1000
(G01 Z-0.125000 F10000.0(Penetrate))
G03 X84.760166 Y46.709547 Z-0.125000 I-0.956659 J-9.336358 F10000.000000
G03 X79.347865 Y40.339861 Z-0.125000 I27.116472 J-28.525025
G02 X74.385223 Y33.386482 Z-0.125000 I-160.957559 J109.628151
G02 X70.599365 Y32.283021 Z-0.125000 I-2.625688 J1.962286
G03 X59.782433 Y35.448947 Z-0.125000 I-19.003938 J-44.868308
G03 X54.604287 Y34.717791 Z-0.125000 I-1.444232 J-8.473499
G03 X50.656715 Y31.110763 Z-0.125000 I4.048221 J-8.394065
G03 X45.829676 Y21.042895 Z-0.125000 I51.919337 J-31.083823
(G00 Z5.000000)
S0
(End cutting path id: path14533)


(Start cutting path id: path14587)
(Change tool to Default tool)

(G00 Z5.000000)
G00 X68.627385 Y26.637995
S1000
(G01 Z-0.125000 F10000.0(Penetrate))
G02 X67.124715 Y23.059954 Z-0.125000 I-5.070673 J0.024973 F10000.000000
G02 X63.532171 Y21.592297 Z-0.125000 I-3.567991 J3.603002
G02 X59.954011 Y23.094697 Z-0.125000 I0.024645 J5.070821
G02 X58.486058 Y26.687100 Z-0.125000 I3.602645 J3.568262
G02 X59.988107 Y30.265394 Z-0.125000 I5.070404 J-0.023986
G02 X63.580451 Y31.733627 Z-0.125000 I3.568617 J-3.602543
G02 X67.158862 Y30.231849 Z-0.125000 I-0.023658 J-5.070548
G02 X68.627392 Y26.639644 Z-0.125000 I-3.602188 J-3.568888
(G00 Z5.000000)
S0
(End cutting path id: path14587)


(Start cutting path id: path15824)
(Change tool to Default tool)

(G00 Z5.000000)
G00 X75.885505 Y30.951675
S1000
(G01 Z-0.125000 F10000.0(Penetrate))
G03 X77.111117 Y25.917316 Z-0.125000 I8.036464 J-0.709893 F10000.000000
G03 X79.572316 Y24.514647 Z-0.125000 I2.554763 J1.622115
G01 X79.572316 Y24.514647 Z-0.125000
G01 X92.183124 Y22.660792 Z-0.125000
G01 X92.183124 Y22.660792 Z-0.125000
(G00 Z5.000000)
S0
(End cutting path id: path15824)


(Start cutting path id: path14203)
(Change tool to Default tool)

(G00 Z5.000000)
G00 X81.853242 Y22.176959
S1000
(G01 Z-0.125000 F10000.0(Penetrate))
G03 X86.125520 Y20.374574 Z-0.125000 I5.800950 J7.785682 F10000.000000
G03 X92.153852 Y20.043982 Z-0.125000 I4.608329 J28.904123
(G00 Z5.000000)
S0
(End cutting path id: path14203)


(Start cutting path id: path14203)
(Change tool to Default tool)

(G00 Z5.000000)
G00 X102.513005 Y22.176959
S1000
(G01 Z-0.125000 F10000.0(Penetrate))
G02 X98.240728 Y20.374574 Z-0.125000 I-5.800950 J7.785682 F10000.000000
G02 X92.212396 Y20.043982 Z-0.125000 I-4.608329 J28.904123
(G00 Z5.000000)
S0
(End cutting path id: path14203)


(Start cutting path id: path15824)
(Change tool to Default tool)

(G00 Z5.000000)
G00 X108.480743 Y30.951675
S1000
(G01 Z-0.125000 F10000.0(Penetrate))
G02 X107.255131 Y25.917316 Z-0.125000 I-8.036464 J-0.709893 F10000.000000
G02 X104.793931 Y24.514647 Z-0.125000 I-2.554763 J1.622115
G01 X104.793931 Y24.514647 Z-0.125000
G01 X92.183124 Y22.660792 Z-0.125000
G01 X92.183124 Y22.660792 Z-0.125000
(G00 Z5.000000)
S0
(End cutting path id: path15824)


(Start cutting path id: path15231)
(Change tool to Default tool)

(G00 Z5.000000)
G00 X92.183124 Y46.021555
S1000
(G01 Z-0.125000 F10000.0(Penetrate))
G03 X82.807523 Y42.279451 Z-0.125000 I-1.228204 J-10.538849 F10000.000000
G03 X75.885505 Y30.951671 Z-0.125000 I34.857903 J-29.079264
G01 X75.885505 Y30.951671 Z-0.125000
(G00 Z5.000000)
S0
(End cutting path id: path15231)


(Start cutting path id: path15231)
(Change tool to Default tool)

(G00 Z5.000000)
G00 X92.183124 Y46.021555
S1000
(G01 Z-0.125000 F10000.0(Penetrate))
G02 X101.558725 Y42.279451 Z-0.125000 I1.228204 J-10.538849 F10000.000000
G02 X108.480743 Y30.951671 Z-0.125000 I-34.857903 J-29.079264
G01 X108.480743 Y30.951671 Z-0.125000
(G00 Z5.000000)
S0
(End cutting path id: path15231)


(Start cutting path id: path14587)
(Change tool to Default tool)

(G00 Z5.000000)
G00 X115.738863 Y26.637995
S1000
(G01 Z-0.125000 F10000.0(Penetrate))
G03 X117.241533 Y23.059954 Z-0.125000 I5.070673 J0.024973 F10000.000000
G03 X120.834076 Y21.592297 Z-0.125000 I3.567991 J3.603002
G03 X124.412237 Y23.094697 Z-0.125000 I-0.024645 J5.070821
G03 X125.880190 Y26.687100 Z-0.125000 I-3.602645 J3.568262
G03 X124.378141 Y30.265394 Z-0.125000 I-5.070404 J-0.023986
G03 X120.785796 Y31.733627 Z-0.125000 I-3.568617 J-3.602543
G03 X117.207385 Y30.231849 Z-0.125000 I0.023658 J-5.070548
G03 X115.738856 Y26.639644 Z-0.125000 I3.602188 J-3.568888
(G00 Z5.000000)
S0
(End cutting path id: path14587)


(Start cutting path id: path14533)
(Change tool to Default tool)

(G00 Z5.000000)
G00 X92.183124 Y49.243718
S1000
(G01 Z-0.125000 F10000.0(Penetrate))
G02 X99.606082 Y46.709547 Z-0.125000 I0.956659 J-9.336358 F10000.000000
G02 X105.018383 Y40.339861 Z-0.125000 I-27.116472 J-28.525025
G03 X109.981025 Y33.386482 Z-0.125000 I160.957559 J109.628151
G03 X113.766882 Y32.283021 Z-0.125000 I2.625688 J1.962286
G02 X124.583814 Y35.448947 Z-0.125000 I19.003938 J-44.868308
G02 X129.761961 Y34.717791 Z-0.125000 I1.444232 J-8.473499
G02 X133.709532 Y31.110763 Z-0.125000 I-4.048221 J-8.394065
G02 X138.536572 Y21.042895 Z-0.125000 I-51.919337 J-31.083823
(G00 Z5.000000)
S0
(End cutting path id: path14533)


(Start cutting path id: path15826)
(Change tool to Default tool)

(G00 Z5.000000)
G00 X145.163827 Y97.334351
S1000
(G01 Z-0.125000 F10000.0(Penetrate))
G02 X145.839114 Y86.109995 Z-0.125000 I-23.171292 J-7.026538 F10000.000000
G02 X141.997201 Y76.716528 Z-0.125000 I-23.533253 J4.142662
G01 X138.226599 Y85.011850 Z-0.125000
G01 X142.127854 Y91.139974 Z-0.125000
(G00 Z5.000000)
S0
(End cutting path id: path15826)


(Start cutting path id: path14529)
(Change tool to Default tool)

(G00 Z5.000000)
G00 X146.475976 Y104.392241
S1000
(G01 Z-0.125000 F10000.0(Penetrate))
G02 X142.773715 Y92.290590 Z-0.125000 I-31.915501 J3.146772 F10000.000000
G02 X138.519909 Y88.103906 Z-0.125000 I-8.945932 J4.835012
G02 X132.153253 Y86.846620 Z-0.125000 I-5.332058 J10.252115
G02 X124.598179 Y88.595401 Z-0.125000 I2.526932 J28.110915
G02 X114.862814 Y93.543913 Z-0.125000 I18.612745 J48.668058
G02 X105.475473 Y100.741510 Z-0.125000 I40.841139 J62.986775
(G00 Z5.000000)
S0
(End cutting path id: path14529)


(Start cutting path id: path14201)
(Change tool to Default tool)

(G00 Z5.000000)
G00 X92.212396 Y170.646400
S1000
(G01 Z-0.125000 F10000.0(Penetrate))
G02 X129.339582 Y160.436736 Z-0.125000 I3.606504 J-59.495911 F10000.000000
G02 X143.306837 Y144.502330 Z-0.125000 I-23.727245 J-34.886726
G02 X148.623088 Y129.992084 Z-0.125000 I-60.326260 J-30.331286
G02 X150.208732 Y115.679412 Z-0.125000 I-55.625038 J-13.406646
G01 X150.208732 Y115.679412 Z-0.125000
G01 X156.192859 Y114.368845 Z-0.125000
G02 X156.666933 Y96.814500 Z-0.125000 I-137.451729 J-12.495607
G02 X153.348892 Y85.455193 Z-0.125000 I-24.133629 J0.885155
G02 X164.648670 Y67.024409 Z-0.125000 I-16.065881 J-22.529171
G02 X162.769531 Y54.497441 Z-0.125000 I-21.364368 J-3.199611
G02 X157.455031 Y46.019729 Z-0.125000 I-39.844891 J19.073296
G02 X150.504926 Y39.003753 Z-0.125000 I-36.062175 J28.773183
G02 X140.862207 Y23.873181 Z-0.125000 I-70.774926 J34.466948
G02 X133.863283 Y17.486334 Z-0.125000 I-24.702302 J20.041366
G02 X125.161250 Y13.923321 Z-0.125000 I-13.068171 J19.508616
G02 X118.510312 Y13.800814 Z-0.125000 I-3.685297 J19.473916
G02 X109.803014 Y16.751211 Z-0.125000 I3.917261 J25.884554
G02 X102.868500 Y22.176956 Z-0.125000 I13.265680 J24.098837
G01 X102.157508 Y22.176956 Z-0.125000
(G00 Z5.000000)
S0
(End cutting path id: path14201)


(Start cutting path id: path14201)
(Change tool to Default tool)

(G00 Z5.000000)
G00 X92.153852 Y170.646400
S1000
(G01 Z-0.125000 F10000.0(Penetrate))
G03 X55.026666 Y160.436736 Z-0.125000 I-3.606504 J-59.495911 F10000.000000
G03 X41.059411 Y144.502330 Z-0.125000 I23.727245 J-34.886726
G03 X35.743160 Y129.992084 Z-0.125000 I60.326260 J-30.331286
G03 X34.157516 Y115.679412 Z-0.125000 I55.625038 J-13.406646
G01 X34.157516 Y115.679412 Z-0.125000
G01 X28.173388 Y114.368845 Z-0.125000
G03 X27.699314 Y96.814500 Z-0.125000 I137.451729 J-12.495607
G03 X31.017356 Y85.455193 Z-0.125000 I24.133629 J0.885155
G03 X19.717579 Y67.024409 Z-0.125000 I16.065883 J-22.529169
G03 X21.596719 Y54.497441 Z-0.125000 I21.364373 J-3.199610
G03 X26.911218 Y46.019729 Z-0.125000 I39.844894 J19.073294
G03 X33.861321 Y39.003753 Z-0.125000 I36.062174 J28.773177
G03 X43.504041 Y23.873181 Z-0.125000 I70.774926 J34.466948
G03 X50.502964 Y17.486334 Z-0.125000 I24.702302 J20.041366
G03 X59.204998 Y13.923321 Z-0.125000 I13.068171 J19.508616
G03 X65.855936 Y13.800814 Z-0.125000 I3.685297 J19.473916
G03 X74.563234 Y16.751211 Z-0.125000 I-3.917261 J25.884554
G03 X81.497748 Y22.176956 Z-0.125000 I-13.265680 J24.098837
G01 X82.208739 Y22.176956 Z-0.125000
(G00 Z5.000000)
S0
(End cutting path id: path14201)


(Footer)
M5
G00 X0.0000 Y0.0000
M2
(Using default footer. To add your own footer create file "footer" in the output dir.)
(end)
%