%
(Header)
(Generated by gcodetools from Inkscape.)
(Using default header. To add your own header create file "header" in the output dir.)
M3
(Header end.)
G21 (All units in mm)

(Start cutting path id: path22988)
(Change tool to Default tool)

(G00 Z5.000000)
G00 X83.994746 Y110.897380
S1000
(G01 Z-0.125000 F10000.0(Penetrate))
G03 X69.758273 Y118.676004 Z-0.125000 I-38.978646 J-54.421756 F10000.000000
G03 X61.737569 Y117.346906 Z-0.125000 I-2.908745 J-7.312415
G01 X61.737569 Y117.346906 Z-0.125000
(G00 Z5.000000)
S0
(End cutting path id: path22988)


(Start cutting path id: path21947)
(Change tool to Default tool)

(G00 Z5.000000)
G00 X60.942594 Y107.280817
S1000
(G01 Z-0.125000 F10000.0(Penetrate))
G02 X73.234315 Y103.468076 Z-0.125000 I-2.971451 J-31.299258 F10000.000000
G02 X80.403072 Y96.406111 Z-0.125000 I-9.124866 J-16.432415
(G00 Z5.000000)
S0
(End cutting path id: path21947)


(Start cutting path id: path22723)
(Change tool to Default tool)

(G00 Z5.000000)
G00 X82.073116 Y90.850932
S1000
(G01 Z-0.125000 F10000.0(Penetrate))
G02 X68.491964 Y90.916619 Z-0.125000 I-6.713829 J15.900838 F10000.000000
G02 X61.734735 Y96.584284 Z-0.125000 I6.161810 J14.208329
G02 X57.417623 Y107.825647 Z-0.125000 I23.279456 J15.389847
G02 X58.324474 Y110.403609 Z-0.125000 I2.884869 J0.433671
G02 X72.539150 Y112.161722 Z-0.125000 I8.333402 J-9.033908
G02 X84.902309 Y102.001664 Z-0.125000 I-20.386974 J-37.409694
G01 X84.902309 Y102.001664 Z-0.125000
G01 X84.902309 Y102.001664 Z-0.125000
(G00 Z5.000000)
S0
(End cutting path id: path22723)


(Start cutting path id: path22725)
(Change tool to Default tool)

(G00 Z5.000000)
G00 X84.902309 Y102.001664
S1000
(G01 Z-0.125000 F10000.0(Penetrate))
G03 X86.687356 Y112.278636 Z-0.125000 I-133.649154 J28.507547 F10000.000000
G02 X89.424908 Y116.829335 Z-0.125000 I6.636043 J-0.893267
(G00 Z5.000000)
S0
(End cutting path id: path22725)


(Start cutting path id: path22727)
(Change tool to Default tool)

(G00 Z5.000000)
G00 X92.182807 Y106.786964
S1000
(G01 Z-0.125000 F10000.0(Penetrate))
G01 X85.391700 Y78.016370 Z-0.125000 F10000.000000
G01 X92.182807 Y79.691594 Z-0.125000
G01 X92.182807 Y79.691594 Z-0.125000
(G00 Z5.000000)
S0
(End cutting path id: path22727)


(Start cutting path id: path22723)
(Change tool to Default tool)

(G00 Z5.000000)
G00 X102.292499 Y90.850932
S1000
(G01 Z-0.125000 F10000.0(Penetrate))
G03 X115.873651 Y90.916619 Z-0.125000 I6.713829 J15.900838 F10000.000000
G03 X122.630879 Y96.584284 Z-0.125000 I-6.161810 J14.208329
G03 X126.947991 Y107.825647 Z-0.125000 I-23.279456 J15.389847
G03 X126.041141 Y110.403609 Z-0.125000 I-2.884869 J0.433671
G03 X111.826464 Y112.161722 Z-0.125000 I-8.333402 J-9.033908
G03 X99.463305 Y102.001664 Z-0.125000 I20.386974 J-37.409694
G01 X99.463305 Y102.001664 Z-0.125000
G01 X99.463305 Y102.001664 Z-0.125000
(G00 Z5.000000)
S0
(End cutting path id: path22723)


(Start cutting path id: path22725)
(Change tool to Default tool)

(G00 Z5.000000)
G00 X99.463305 Y102.001664
S1000
(G01 Z-0.125000 F10000.0(Penetrate))
G02 X97.678258 Y112.278636 Z-0.125000 I133.649154 J28.507547 F10000.000000
G03 X94.940706 Y116.829335 Z-0.125000 I-6.636043 J-0.893267
(G00 Z5.000000)
S0
(End cutting path id: path22725)


(Start cutting path id: path22988)
(Change tool to Default tool)

(G00 Z5.000000)
G00 X100.370965 Y110.897380
S1000
(G01 Z-0.125000 F10000.0(Penetrate))
G02 X114.607437 Y118.676004 Z-0.125000 I38.978646 J-54.421756 F10000.000000
G02 X122.628141 Y117.346906 Z-0.125000 I2.908745 J-7.312415
G01 X122.628141 Y117.346906 Z-0.125000
(G00 Z5.000000)
S0
(End cutting path id: path22988)


(Start cutting path id: path21947)
(Change tool to Default tool)

(G00 Z5.000000)
G00 X123.423021 Y107.280817
S1000
(G01 Z-0.125000 F10000.0(Penetrate))
G03 X111.131299 Y103.468076 Z-0.125000 I2.971451 J-31.299258 F10000.000000
G03 X103.962543 Y96.406111 Z-0.125000 I9.124866 J-16.432415
(G00 Z5.000000)
S0
(End cutting path id: path21947)


(Start cutting path id: path22727)
(Change tool to Default tool)

(G00 Z5.000000)
G00 X92.182807 Y106.786964
S1000
(G01 Z-0.125000 F10000.0(Penetrate))
G01 X98.973914 Y78.016370 Z-0.125000 F10000.000000
G01 X92.182807 Y79.691594 Z-0.125000
G01 X92.182807 Y79.691594 Z-0.125000
(G00 Z5.000000)
S0
(End cutting path id: path22727)


(Start cutting path id: path21943)
(Change tool to Default tool)

(G00 Z5.000000)
G00 X92.182807 Y63.187138
S1000
(G01 Z-0.125000 F10000.0(Penetrate))
G03 X115.597243 Y70.963398 Z-0.125000 I-20.400280 J100.564288 F10000.000000
G02 X118.812908 Y71.689436 Z-0.125000 I3.238063 J-6.857365
G02 X123.242471 Y67.853098 Z-0.125000 I0.013210 J-4.460176
G02 X123.939292 Y56.310280 Z-0.125000 I-71.610440 J-10.115446
G03 X123.993279 Y44.004407 Z-0.125000 I575.476357 J-3.628402
G02 X122.982344 Y40.393845 Z-0.125000 I-6.597701 J-0.099494
G02 X120.345184 Y39.013298 Z-0.125000 I-2.503625 J1.573432
G02 X109.991823 Y40.608894 Z-0.125000 I2.199751 J48.661333
(G00 Z5.000000)
S0
(End cutting path id: path21943)


(Start cutting path id: path21945)
(Change tool to Default tool)

(G00 Z5.000000)
G00 X109.991821 Y40.608897
S1000
(G01 Z-0.125000 F10000.0(Penetrate))
G02 X98.971628 Y43.669668 Z-0.125000 I569.342268 J2071.265393 F10000.000000
G03 X92.182807 Y44.419724 Z-0.125000 I-5.667143 J-20.195673
(G00 Z5.000000)
S0
(End cutting path id: path21945)


(Start cutting path id: path22784)
(Change tool to Default tool)

(G00 Z5.000000)
G00 X85.480349 Y43.378120
S1000
(G01 Z-0.125000 F10000.0(Penetrate))
G01 X85.216041 Y64.703161 Z-0.125000 F10000.000000
(G00 Z5.000000)
S0
(End cutting path id: path22784)


(Start cutting path id: path21943)
(Change tool to Default tool)

(G00 Z5.000000)
G00 X92.182807 Y63.187138
S1000
(G01 Z-0.125000 F10000.0(Penetrate))
G02 X68.768372 Y70.963398 Z-0.125000 I20.400280 J100.564288 F10000.000000
G03 X65.552706 Y71.689436 Z-0.125000 I-3.238063 J-6.857365
G03 X61.123143 Y67.853098 Z-0.125000 I-0.013210 J-4.460176
G03 X60.426322 Y56.310280 Z-0.125000 I71.610440 J-10.115446
G02 X60.372336 Y44.004407 Z-0.125000 I-575.476357 J-3.628402
G03 X61.383270 Y40.393845 Z-0.125000 I6.597701 J-0.099494
G03 X64.020431 Y39.013298 Z-0.125000 I2.503625 J1.573432
G03 X74.373791 Y40.608894 Z-0.125000 I-2.199751 J48.661333
(G00 Z5.000000)
S0
(End cutting path id: path21943)


(Start cutting path id: path21945)
(Change tool to Default tool)

(G00 Z5.000000)
G00 X74.373793 Y40.608897
S1000
(G01 Z-0.125000 F10000.0(Penetrate))
G03 X85.393986 Y43.669668 Z-0.125000 I-569.342268 J2071.265393 F10000.000000
G02 X92.182807 Y44.419724 Z-0.125000 I5.667143 J-20.195673
(G00 Z5.000000)
S0
(End cutting path id: path21945)


(Start cutting path id: path22784)
(Change tool to Default tool)

(G00 Z5.000000)
G00 X98.885265 Y43.378120
S1000
(G01 Z-0.125000 F10000.0(Penetrate))
G01 X99.149573 Y64.703161 Z-0.125000 F10000.000000
(G00 Z5.000000)
S0
(End cutting path id: path22784)


(Start cutting path id: path22778)
(Change tool to Default tool)

(G00 Z5.000000)
G00 X110.827203 Y68.062278
S1000
(G01 Z-0.125000 F10000.0(Penetrate))
G01 X110.827203 Y68.062278 Z-0.125000 F10000.000000
(G00 Z5.000000)
S0
(End cutting path id: path22778)


(Start cutting path id: path22729)
(Change tool to Default tool)

(G00 Z5.000000)
G00 X117.322574 Y82.436981
S1000
(G01 Z-0.125000 F10000.0(Penetrate))
G01 X105.917397 Y78.370018 Z-0.125000 F10000.000000
G01 X105.917397 Y78.370018 Z-0.125000
G02 X108.296712 Y72.668940 Z-0.125000 I-3.246057 J-4.701761
G02 X106.447872 Y70.236092 Z-0.125000 I-3.295418 J0.585414
G03 X98.492955 Y71.348093 Z-0.125000 I-7.414920 J-24.034563
G03 X92.182807 Y69.757408 Z-0.125000 I0.312465 J-14.550859
(G00 Z5.000000)
S0
(End cutting path id: path22729)


(Start cutting path id: path22778)
(Change tool to Default tool)

(G00 Z5.000000)
G00 X73.538411 Y68.062278
S1000
(G01 Z-0.125000 F10000.0(Penetrate))
G01 X73.538411 Y68.062278 Z-0.125000 F10000.000000
(G00 Z5.000000)
S0
(End cutting path id: path22778)


(Start cutting path id: path22729)
(Change tool to Default tool)

(G00 Z5.000000)
G00 X67.043040 Y82.436981
S1000
(G01 Z-0.125000 F10000.0(Penetrate))
G01 X78.448217 Y78.370018 Z-0.125000 F10000.000000
G01 X78.448217 Y78.370018 Z-0.125000
G03 X76.068902 Y72.668940 Z-0.125000 I3.246057 J-4.701761
G03 X77.917742 Y70.236092 Z-0.125000 I3.295418 J0.585414
G02 X85.872659 Y71.348093 Z-0.125000 I7.414920 J-24.034563
G02 X92.182807 Y69.757408 Z-0.125000 I-0.312465 J-14.550859
(G00 Z5.000000)
S0
(End cutting path id: path22729)


(Start cutting path id: path22782)
(Change tool to Default tool)

(G00 Z5.000000)
G00 X60.426319 Y56.310282
S1000
(G01 Z-0.125000 F10000.0(Penetrate))
G03 X73.455134 Y53.485915 Z-0.125000 I16.295768 J43.709268 F10000.000000
G03 X92.182807 Y53.246953 Z-0.125000 I11.445570 J163.027780
(G00 Z5.000000)
S0
(End cutting path id: path22782)


(Start cutting path id: path22780)
(Change tool to Default tool)

(G00 Z5.000000)
G00 X73.154170 Y40.288251
S1000
(G01 Z-0.125000 F10000.0(Penetrate))
G01 X73.538411 Y68.062278 Z-0.125000 F10000.000000
G01 X73.538411 Y68.062278 Z-0.125000
(G00 Z5.000000)
S0
(End cutting path id: path22780)


(Start cutting path id: path21885)
(Change tool to Default tool)

(G00 Z5.000000)
G00 X62.003544 Y89.673209
S1000
(G01 Z-0.125000 F10000.0(Penetrate))
G02 X62.930728 Y85.359146 Z-0.125000 I-14.454810 J-5.363316 F10000.000000
G02 X62.180367 Y82.436981 Z-0.125000 I-4.792131 J-0.326886
G03 X51.373745 Y68.360423 Z-0.125000 I12.192892 J-20.546944
G03 X49.778265 Y50.984330 Z-0.125000 I46.232106 J-13.006344
G03 X54.830527 Y32.106890 Z-0.125000 I57.382327 J5.242714
G03 X59.351173 Y29.212819 Z-0.125000 I4.520646 J2.083672
G02 X58.908041 Y20.838701 Z-0.125000 I-182446.624184 J9652.672786
G03 X58.643875 Y15.774160 Z-0.125000 I3255.184426 J-172.330341
(G00 Z5.000000)
S0
(End cutting path id: path21885)


(Start cutting path id: path21887)
(Change tool to Default tool)

(G00 Z5.000000)
G00 X58.643875 Y15.774164
S1000
(G01 Z-0.125000 F10000.0(Penetrate))
G01 X92.182807 Y15.741499 Z-0.125000 F10000.000000
(G00 Z5.000000)
S0
(End cutting path id: path21887)


(Start cutting path id: path22780)
(Change tool to Default tool)

(G00 Z5.000000)
G00 X111.211444 Y40.288251
S1000
(G01 Z-0.125000 F10000.0(Penetrate))
G01 X110.827203 Y68.062278 Z-0.125000 F10000.000000
G01 X110.827203 Y68.062278 Z-0.125000
(G00 Z5.000000)
S0
(End cutting path id: path22780)


(Start cutting path id: path22782)
(Change tool to Default tool)

(G00 Z5.000000)
G00 X123.939296 Y56.310282
S1000
(G01 Z-0.125000 F10000.0(Penetrate))
G02 X110.910480 Y53.485915 Z-0.125000 I-16.295768 J43.709268 F10000.000000
G02 X92.182807 Y53.246953 Z-0.125000 I-11.445570 J163.027780
(G00 Z5.000000)
S0
(End cutting path id: path22782)


(Start cutting path id: path22733)
(Change tool to Default tool)

(G00 Z5.000000)
G00 X63.473279 Y28.552788
S1000
(G01 Z-0.125000 F10000.0(Penetrate))
G01 X88.553627 Y33.554135 Z-0.125000 F10000.000000
(G00 Z5.000000)
S0
(End cutting path id: path22733)


(Start cutting path id: path22733)
(Change tool to Default tool)

(G00 Z5.000000)
G00 X120.892336 Y28.552788
S1000
(G01 Z-0.125000 F10000.0(Penetrate))
G01 X95.811987 Y33.554135 Z-0.125000 F10000.000000
(G00 Z5.000000)
S0
(End cutting path id: path22733)


(Start cutting path id: path21887)
(Change tool to Default tool)

(G00 Z5.000000)
G00 X125.721739 Y15.774164
S1000
(G01 Z-0.125000 F10000.0(Penetrate))
G01 X92.182807 Y15.741499 Z-0.125000 F10000.000000
(G00 Z5.000000)
S0
(End cutting path id: path21887)


(Start cutting path id: path21885)
(Change tool to Default tool)

(G00 Z5.000000)
G00 X122.362071 Y89.673209
S1000
(G01 Z-0.125000 F10000.0(Penetrate))
G03 X121.434886 Y85.359146 Z-0.125000 I14.454810 J-5.363316 F10000.000000
G03 X122.185248 Y82.436981 Z-0.125000 I4.792131 J-0.326886
G02 X132.991870 Y68.360423 Z-0.125000 I-12.192892 J-20.546944
G02 X134.587349 Y50.984330 Z-0.125000 I-46.232106 J-13.006344
G02 X129.535087 Y32.106890 Z-0.125000 I-57.382327 J5.242714
G02 X125.014441 Y29.212819 Z-0.125000 I-4.520646 J2.083672
G03 X125.457573 Y20.838701 Z-0.125000 I182446.624184 J9652.672786
G02 X125.721739 Y15.774160 Z-0.125000 I-3255.184426 J-172.330341
(G00 Z5.000000)
S0
(End cutting path id: path21885)


(Start cutting path id: path22912)
(Change tool to Default tool)

(G00 Z5.000000)
G00 X110.052598 Y127.731268
S1000
(G01 Z-0.125000 F10000.0(Penetrate))
G02 X107.073706 Y123.371533 Z-0.125000 I-4.763909 J0.057486 F10000.000000
G02 X92.096284 Y120.475048 Z-0.125000 I-14.898851 J36.868829
G02 X77.197186 Y123.439368 Z-0.125000 I0.077651 J39.314950
G02 X74.313007 Y127.801888 Z-0.125000 I1.774997 J4.308163
G02 X77.290293 Y132.161671 Z-0.125000 I4.762127 J-0.055563
G02 X92.266428 Y135.059300 Z-0.125000 I14.900216 J-36.860209
G02 X107.166868 Y132.096136 Z-0.125000 I-0.074765 J-39.321390
G02 X110.052625 Y127.733642 Z-0.125000 I-1.775190 J-4.309975
(G00 Z5.000000)
S0
(End cutting path id: path22912)


(Start cutting path id: path21883)
(Change tool to Default tool)

(G00 Z5.000000)
G00 X126.782683 Y138.313507
S1000
(G01 Z-0.125000 F10000.0(Penetrate))
G01 X125.544916 Y116.564098 Z-0.125000 F10000.000000
G02 X130.239361 Y102.837932 Z-0.125000 I-6.340585 J-9.834374
G02 X122.362071 Y89.673209 Z-0.125000 I-36.384065 J12.831793
(G00 Z5.000000)
S0
(End cutting path id: path21883)


(Start cutting path id: path21877)
(Change tool to Default tool)

(G00 Z5.000000)
G00 X97.960296 Y143.795064
S1000
(G01 Z-0.125000 F10000.0(Penetrate))
G01 X99.640134 Y167.931603 Z-0.125000 F10000.000000
G01 X92.182807 Y162.428593 Z-0.125000
(G00 Z5.000000)
S0
(End cutting path id: path21877)


(Start cutting path id: path21879)
(Change tool to Default tool)

(G00 Z5.000000)
G00 X79.862809 Y166.959068
S1000
(G01 Z-0.125000 F10000.0(Penetrate))
G01 X75.619024 Y160.151326 Z-0.125000 F10000.000000
G01 X67.485099 Y163.776227 Z-0.125000
G01 X67.485099 Y163.776227 Z-0.125000
G01 X74.469666 Y142.910942 Z-0.125000
G01 X61.207832 Y160.947036 Z-0.125000
G01 X59.439589 Y152.547875 Z-0.125000
G01 X50.686778 Y152.813112 Z-0.125000
G01 X63.506551 Y137.959857 Z-0.125000
G01 X57.582932 Y138.313507 Z-0.125000
(G00 Z5.000000)
S0
(End cutting path id: path21879)


(Start cutting path id: path21883)
(Change tool to Default tool)

(G00 Z5.000000)
G00 X57.582932 Y138.313507
S1000
(G01 Z-0.125000 F10000.0(Penetrate))
G01 X58.820698 Y116.564098 Z-0.125000 F10000.000000
G03 X54.126254 Y102.837932 Z-0.125000 I6.340585 J-9.834374
G03 X62.003544 Y89.673209 Z-0.125000 I36.384065 J12.831793
(G00 Z5.000000)
S0
(End cutting path id: path21883)


(Start cutting path id: path22912)
(Change tool to Default tool)

(G00 Z5.000000)
G00 X74.313017 Y127.731345
S1000
(G01 Z-0.125000 F10000.0(Penetrate))
G03 X77.291908 Y123.371609 Z-0.125000 I4.763909 J0.057486 F10000.000000
G03 X92.269331 Y120.475125 Z-0.125000 I14.898851 J36.868829
G03 X107.168428 Y123.439445 Z-0.125000 I-0.077651 J39.314950
G03 X110.052607 Y127.801965 Z-0.125000 I-1.774997 J4.308163
G03 X107.075321 Y132.161748 Z-0.125000 I-4.762127 J-0.055563
G03 X92.099186 Y135.059377 Z-0.125000 I-14.900216 J-36.860209
G03 X77.198747 Y132.096212 Z-0.125000 I0.074765 J-39.321390
G03 X74.312990 Y127.733719 Z-0.125000 I1.775190 J-4.309975
(G00 Z5.000000)
S0
(End cutting path id: path22912)


(Start cutting path id: path21877)
(Change tool to Default tool)

(G00 Z5.000000)
G00 X86.405318 Y143.795064
S1000
(G01 Z-0.125000 F10000.0(Penetrate))
G01 X84.725480 Y167.931603 Z-0.125000 F10000.000000
G01 X92.182807 Y162.428593 Z-0.125000
(G00 Z5.000000)
S0
(End cutting path id: path21877)


(Start cutting path id: path21879)
(Change tool to Default tool)

(G00 Z5.000000)
G00 X104.502806 Y166.959068
S1000
(G01 Z-0.125000 F10000.0(Penetrate))
G01 X108.746591 Y160.151326 Z-0.125000 F10000.000000
G01 X116.880515 Y163.776227 Z-0.125000
G01 X116.880515 Y163.776227 Z-0.125000
G01 X109.895948 Y142.910942 Z-0.125000
G01 X123.157782 Y160.947036 Z-0.125000
G01 X124.926026 Y152.547875 Z-0.125000
G01 X133.678836 Y152.813112 Z-0.125000
G01 X120.859064 Y137.959857 Z-0.125000
G01 X126.782683 Y138.313507 Z-0.125000
(G00 Z5.000000)
S0
(End cutting path id: path21879)


(Start cutting path id: path20111)
(Change tool to Default tool)

(G00 Z5.000000)
G00 X97.960296 Y143.795064
S1000
(G01 Z-0.125000 F10000.0(Penetrate))
G01 X104.502806 Y166.959068 Z-0.125000 F10000.000000
(G00 Z5.000000)
S0
(End cutting path id: path20111)


(Start cutting path id: path20111)
(Change tool to Default tool)

(G00 Z5.000000)
G00 X86.405318 Y143.795064
S1000
(G01 Z-0.125000 F10000.0(Penetrate))
G01 X79.862809 Y166.959068 Z-0.125000 F10000.000000
(G00 Z5.000000)
S0
(End cutting path id: path20111)


(Footer)
M5
G00 X0.0000 Y0.0000
M2
(Using default footer. To add your own footer create file "footer" in the output dir.)
(end)
%