%
(Header)
(Generated by gcodetools from Inkscape.)
(Using default header. To add your own header create file "header" in the output dir.)
M3
(Header end.)
G21 (All units in mm)

(Start cutting path id: path2511)
(Change tool to Default tool)

G00 Z0.000000
G00 X27.332238 Y76.632566
S1000
G01 Z0.000000 F10000.0(Penetrate)
G02 X29.862015 Y74.504236 Z0.000000 I-0.060228 J-2.639226 F10000.000000
G02 X29.285473 Y73.233428 Z0.000000 I-1.177050 J-0.232181
G02 X25.801790 Y72.855033 Z0.000000 I-2.170075 J3.753319
G02 X25.049236 Y73.791496 Z0.000000 I0.329082 J1.035067
G02 X26.196132 Y76.284428 Z0.000000 I2.739890 J0.249774
G02 X27.332238 Y76.632566 Z0.000000 I1.093035 J-1.539145
G01 X27.332238 Y76.632566 Z0.000000
G00 Z0.000000
S0
(End cutting path id: path2511)


(Start cutting path id: path1272)
(Change tool to Default tool)

G00 Z0.000000
G00 X36.685012 Y74.363443
S1000
G01 Z0.000000 F10000.0(Penetrate)
G03 X37.455240 Y73.453813 Z0.000000 I5.093187 J3.531734 F10000.000000
G03 X38.482637 Y72.675258 Z0.000000 I3.651774 J3.751795
G03 X44.242453 Y70.304313 Z0.000000 I11.637016 J20.088468
G03 X51.967297 Y68.838862 Z0.000000 I14.548132 J55.594927
G03 X62.826631 Y67.991690 Z0.000000 I10.830207 J68.802338
G03 X65.671026 Y68.354562 Z0.000000 I-0.004753 J11.366680
G03 X67.255014 Y68.959194 Z0.000000 I-1.913370 J7.389699
G03 X67.751819 Y69.699834 Z0.000000 I-0.423031 J0.820704
G03 X64.076487 Y82.946828 Z0.000000 I-14.278813 J3.171745
G03 X53.505519 Y87.502862 Z0.000000 I-10.613978 J-10.085225
G03 X47.567891 Y86.612793 Z0.000000 I-0.058347 J-19.860692
G03 X42.763721 Y84.112235 Z0.000000 I4.492897 J-14.497190
G03 X38.905595 Y79.762268 Z0.000000 I9.632141 J-12.428990
G03 X36.685012 Y74.363443 Z0.000000 I16.826218 J-10.076850
G01 X36.685012 Y74.363443 Z0.000000
G00 Z0.000000
S0
(End cutting path id: path1272)


(Start cutting path id: path1326)
(Change tool to Default tool)

G00 Z0.000000
G00 X38.901747 Y67.618617
S1000
G01 Z0.000000 F10000.0(Penetrate)
G02 X38.200104 Y65.947919 Z0.000000 I-2.367650 J0.011658 F10000.000000
G02 X36.522633 Y65.262625 Z0.000000 I-1.666006 J1.682356
G02 X34.851877 Y65.964132 Z0.000000 I0.011465 J2.367650
G02 X34.166447 Y67.641548 Z0.000000 I1.682221 J1.666143
G02 X34.867819 Y69.312359 Z0.000000 I2.367651 J-0.011275
G02 X36.545177 Y69.997925 Z0.000000 I1.666279 J-1.682086
G02 X38.216047 Y69.296690 Z0.000000 I-0.011079 J-2.367652
G02 X38.901751 Y67.619387 Z0.000000 I-1.681949 J-1.666417
G00 Z0.000000
S0
(End cutting path id: path1326)


(Start cutting path id: path1328)
(Change tool to Default tool)

G00 Z0.000000
G00 X53.322826 Y63.887731
S1000
G01 Z0.000000 F10000.0(Penetrate)
G02 X52.621182 Y62.217032 Z0.000000 I-2.367650 J0.011658 F10000.000000
G02 X50.943711 Y61.531738 Z0.000000 I-1.666006 J1.682357
G02 X49.272952 Y62.233244 Z0.000000 I0.011461 J2.367651
G02 X48.587520 Y63.910661 Z0.000000 I1.682219 J1.666145
G02 X49.288892 Y65.581472 Z0.000000 I2.367651 J-0.011275
G02 X50.966251 Y66.267038 Z0.000000 I1.666279 J-1.682086
G02 X52.637121 Y65.565804 Z0.000000 I-0.011078 J-2.367652
G02 X53.322826 Y63.888500 Z0.000000 I-1.681949 J-1.666418
G00 Z0.000000
S0
(End cutting path id: path1328)


(Start cutting path id: path1330)
(Change tool to Default tool)

G00 Z0.000000
G00 X68.676857 Y62.739765
S1000
G01 Z0.000000 F10000.0(Penetrate)
G02 X67.975215 Y61.069068 Z0.000000 I-2.367650 J0.011658 F10000.000000
G02 X66.297747 Y60.383773 Z0.000000 I-1.666008 J1.682355
G02 X64.626989 Y61.085278 Z0.000000 I0.011461 J2.367651
G02 X63.941557 Y62.762695 Z0.000000 I1.682219 J1.666145
G02 X64.642929 Y64.433506 Z0.000000 I2.367651 J-0.011275
G02 X66.320287 Y65.119073 Z0.000000 I1.666279 J-1.682086
G02 X67.991158 Y64.417838 Z0.000000 I-0.011078 J-2.367652
G02 X68.676862 Y62.740534 Z0.000000 I-1.681949 J-1.666418
G00 Z0.000000
S0
(End cutting path id: path1330)


(Start cutting path id: path2509)
(Change tool to Default tool)

G00 Z0.000000
G00 X77.168720 Y68.731238
S1000
G01 Z0.000000 F10000.0(Penetrate)
G03 X75.106220 Y68.024543 Z0.000000 I-0.208194 J-2.755451 F10000.000000
G03 X74.728116 Y66.963182 Z0.000000 I0.798843 J-0.882612
G03 X75.377489 Y65.776215 Z0.000000 I1.951177 J0.296347
G03 X76.720303 Y64.928606 Z0.000000 I3.344081 J3.810346
G03 X78.248754 Y64.833572 Z0.000000 I1.358157 J9.504875
G03 X79.410436 Y65.772630 Z0.000000 I-0.021548 J1.214727
G03 X78.585044 Y67.982976 Z0.000000 I-2.519761 J0.318349
G03 X77.168720 Y68.731265 Z0.000000 I-2.209110 J-2.466777
G01 X77.168720 Y68.731238 Z0.000000
G00 Z0.000000
S0
(End cutting path id: path2509)


(Start cutting path id: path705)
(Change tool to Default tool)

G00 Z0.000000
G00 X86.690284 Y61.399871
S1000
G01 Z0.000000 F10000.0(Penetrate)
G03 X83.400399 Y67.351288 Z0.000000 I-6.535245 J0.272397 F10000.000000
G03 X73.245939 Y71.800212 Z0.000000 I-25.936818 J-45.386568
G03 X71.149334 Y74.038727 Z0.000000 I-3.148372 J-0.847679
G03 X68.629206 Y74.133946 Z0.000000 I-1.419207 J-4.164369
G03 X62.083716 Y85.339629 Z0.000000 I-19.069020 J-3.624115
G03 X53.508398 Y88.399709 Z0.000000 I-8.370864 J-9.912399
G00 Z0.000000
S0
(End cutting path id: path705)


(Start cutting path id: path707)
(Change tool to Default tool)

G00 Z0.000000
G00 X53.508398 Y88.399710
S1000
G01 Z0.000000 F10000.0(Penetrate)
G03 X43.209307 Y85.648995 Z0.000000 I-0.308120 J-19.502381 F10000.000000
G03 X37.545986 Y79.457540 Z0.000000 I7.461925 J-12.511265
G03 X34.392246 Y79.375096 Z0.000000 I-1.485739 J-3.527323
G03 X33.014375 Y77.837483 Z0.000000 I1.185607 J-2.448603
G00 Z0.000000
S0
(End cutting path id: path707)


(Start cutting path id: path638)
(Change tool to Default tool)

G00 Z0.000000
G00 X15.765028 Y72.155344
S1000
G01 Z0.000000 F10000.0(Penetrate)
G03 X19.132259 Y66.652388 Z0.000000 I8.888556 J1.657187 F10000.000000
G03 X25.810236 Y63.023337 Z0.000000 I14.648135 J18.995937
G03 X31.543152 Y56.060681 Z0.000000 I14.027334 J5.708320
G03 X40.624382 Y52.064929 Z0.000000 I16.531906 J25.254982
G01 X31.086508 Y41.106520 Z0.000000
G01 X32.507043 Y39.685986 Z0.000000
G01 X23.780902 Y28.524641 Z0.000000
G01 X27.433705 Y25.683573 Z0.000000
G01 X22.360368 Y19.392636 Z0.000000
G01 X22.360368 Y19.392636 Z0.000000
G01 X29.868907 Y16.348630 Z0.000000
G00 Z0.000000
S0
(End cutting path id: path638)


(Start cutting path id: path703)
(Change tool to Default tool)

G00 Z0.000000
G00 X29.868907 Y16.348630
S1000
G01 Z0.000000 F10000.0(Penetrate)
G01 X36.667179 Y30.249578 Z0.000000 F10000.000000
G01 X39.102381 Y29.234908 Z0.000000
G01 X42.755184 Y38.671316 Z0.000000
G01 X44.683054 Y38.062515 Z0.000000
G01 X39.508248 Y19.392636 Z0.000000
G01 X48.944656 Y18.479431 Z0.000000
G01 X50.466656 Y40.396253 Z0.000000
G01 X52.698923 Y40.700651 Z0.000000
G01 X53.916525 Y25.277703 Z0.000000
G01 X57.264928 Y26.089442 Z0.000000
G01 X54.220928 Y49.934133 Z0.000000
G01 X54.220928 Y49.934133 Z0.000000
G03 X66.906304 Y50.458443 Z0.000000 I4.935713 J34.303114
G03 X74.818677 Y55.108929 Z0.000000 I-3.408047 J14.854808
G03 X85.195546 Y57.907391 Z0.000000 I-5.523603 J41.120115
G03 X86.690284 Y61.399871 Z0.000000 I-1.042378 J2.512230
G00 Z0.000000
S0
(End cutting path id: path703)


(Start cutting path id: path540)
(Change tool to Default tool)

G00 Z0.000000
G00 X15.765028 Y72.155344
S1000
G01 Z0.000000 F10000.0(Penetrate)
G02 X20.615676 Y77.252520 Z0.000000 I5.661146 J-0.530732 F10000.000000
G02 X33.014375 Y77.837483 Z0.000000 I9.240292 J-64.162409
G00 Z0.000000
S0
(End cutting path id: path540)


(Footer)
M5
G00 X0.0000 Y0.0000
M2
(Using default footer. To add your own footer create file "footer" in the output dir.)
(end)
%